[{"id":"fb90892a-f7b9-4687-b497-d3b4606faddf","name":"Yost, Harris and Cormier","street_address":"71055 Sunbrook Circle","city":"Austin","state":"TX","postal_code":"78715","industry":"Apparel"},
{"id":"bfe1ddff-f8ba-40a2-a42e-5062a6bec303","name":"Runte Inc","street_address":"68166 Rowland Road","city":"Tulsa","state":"OK","postal_code":"74184","industry":"Major Pharmaceuticals"},
{"id":"d6a867d5-6e71-48d8-977a-8243154126e5","name":"Homenick, Skiles and Konopelski","street_address":"1 Stuart Drive","city":"Topeka","state":"KS","postal_code":"66667","industry":"Military/Government/Technical"},
{"id":"ce50b9d1-c164-44d0-8299-408d217ca287","name":"Gutkowski-Rosenbaum","street_address":"2520 Comanche Court","city":"Colorado Springs","state":"CO","postal_code":"80940","industry":"n/a"},
{"id":"f9165a9d-b56a-48f6-9c30-baf6fce3edb3","name":"Schaden LLC","street_address":"58081 Mandrake Junction","city":"Richmond","state":"VA","postal_code":"23277","industry":"n/a"},
{"id":"746d3cfe-c7b0-4927-ab0b-ecfaf1ef53f8","name":"Will-Harvey","street_address":"818 Russell Court","city":"Jackson","state":"MS","postal_code":"39296","industry":"Major Banks"},
{"id":"f851eec5-efbc-45b2-83b0-a6d86e4c672f","name":"O'Reilly, Jacobson and Heidenreich","street_address":"2 Anniversary Parkway","city":"Corona","state":"CA","postal_code":"92883","industry":"Major Banks"},
{"id":"b5b7caa5-56f1-4b66-b109-28d1bc227879","name":"Nikolaus-Bruen","street_address":"4 Mcbride Pass","city":"El Paso","state":"TX","postal_code":"79968","industry":"Computer Software: Prepackaged Software"},
{"id":"a693a3bb-cc09-4c0b-9835-d79784a26fef","name":"Schulist LLC","street_address":"812 Alpine Road","city":"Orlando","state":"FL","postal_code":"32813","industry":"Department/Specialty Retail Stores"},
{"id":"1d5ccebd-f8fa-4f3d-99ca-b8e12751191c","name":"Conroy Inc","street_address":"70 Hanson Trail","city":"Pittsburgh","state":"PA","postal_code":"15286","industry":"Other Specialty Stores"},
{"id":"1556c52f-3458-428f-be7b-d7936e9e97a3","name":"Schmidt LLC","street_address":"36859 Upham Point","city":"Chicago","state":"IL","postal_code":"60697","industry":"n/a"},
{"id":"ec04b831-8df7-4cea-baf0-a6af2fc99dd0","name":"O'Connell-Fay","street_address":"1695 Colorado Pass","city":"Fort Worth","state":"TX","postal_code":"76147","industry":"Marine Transportation"},
{"id":"a16f4fe1-eed2-4254-9973-babcb0ca0b2f","name":"Emard, Ortiz and Baumbach","street_address":"95 Thackeray Circle","city":"Jamaica","state":"NY","postal_code":"11499","industry":"Packaged Foods"},
{"id":"bdc07dda-01f0-4986-88e8-ece8e7218678","name":"Lakin LLC","street_address":"5 Mandrake Point","city":"Roanoke","state":"VA","postal_code":"24004","industry":"Metal Fabrications"},
{"id":"8fce7779-fca6-40ce-a6b5-a522ed08b9d1","name":"Parker and Sons","street_address":"25 Magdeline Hill","city":"Spring","state":"TX","postal_code":"77386","industry":"Building Products"},
{"id":"78817e82-f148-4125-a93c-16e587a03a93","name":"Predovic LLC","street_address":"3515 Calypso Trail","city":"Salinas","state":"CA","postal_code":"93907","industry":"n/a"},
{"id":"b0d53628-9e28-4aed-8559-b105296baf03","name":"Haag, Oberbrunner and Bins","street_address":"810 Butternut Point","city":"Hampton","state":"VA","postal_code":"23668","industry":"Auto Parts:O.E.M."},
{"id":"74f11ba3-7253-4146-b5a8-2f7139fe50bf","name":"Kemmer-Mohr","street_address":"534 Lyons Drive","city":"Cincinnati","state":"OH","postal_code":"45999","industry":"Industrial Machinery/Components"},
{"id":"141ddd7c-d396-4bab-81be-b220149bc662","name":"Pouros-Welch","street_address":"564 Rusk Hill","city":"El Paso","state":"TX","postal_code":"88519","industry":"Real Estate Investment Trusts"},
{"id":"e5d40f28-1a0d-41af-89a1-4d1a3e70f51d","name":"Schiller, Ernser and Jakubowski","street_address":"450 Lindbergh Terrace","city":"Jamaica","state":"NY","postal_code":"11436","industry":"Industrial Machinery/Components"},
{"id":"33dd1acd-affc-45c8-8048-030bbbf3bbc1","name":"Stokes LLC","street_address":"7 Novick Junction","city":"Houston","state":"TX","postal_code":"77240","industry":"Life Insurance"},
{"id":"863da1a7-b58f-4dca-a4d3-b85d4780fae0","name":"Willms-Schmidt","street_address":"91661 Troy Avenue","city":"Indianapolis","state":"IN","postal_code":"46216","industry":"Major Pharmaceuticals"},
{"id":"bd67cfee-f7ec-4f9e-a14c-a47f233e8e45","name":"Bednar LLC","street_address":"33076 Amoth Road","city":"Lynn","state":"MA","postal_code":"01905","industry":"Real Estate Investment Trusts"},
{"id":"4293a9da-20b1-4962-a3ba-99a0af95995f","name":"Hayes, Mante and Williamson","street_address":"606 Goodland Street","city":"Portland","state":"OR","postal_code":"97240","industry":"Computer Software: Programming, Data Processing"},
{"id":"fe2aca86-8481-469b-8494-dbf45b76920e","name":"Hills, Predovic and Cormier","street_address":"5 Fordem Park","city":"Saint Paul","state":"MN","postal_code":"55188","industry":"Real Estate Investment Trusts"},
{"id":"f7e76e02-10f2-4981-a518-69e7ee20f130","name":"Hackett Group","street_address":"1 Mcbride Junction","city":"Minneapolis","state":"MN","postal_code":"55448","industry":"n/a"},
{"id":"3d47d241-015b-4978-9fb7-5fe1eeb8bf13","name":"Ernser Group","street_address":"1 Autumn Leaf Park","city":"Tucson","state":"AZ","postal_code":"85710","industry":"n/a"},
{"id":"c6761613-c13a-4e64-9f97-c26217fe63a7","name":"Armstrong-Wintheiser","street_address":"10 Forest Street","city":"Baton Rouge","state":"LA","postal_code":"70805","industry":"Major Pharmaceuticals"},
{"id":"95a3f7e5-3890-4c27-9d85-03677f4a3446","name":"Murazik, Franecki and Upton","street_address":"43269 Center Center","city":"Washington","state":"DC","postal_code":"20425","industry":"Food Chains"},
{"id":"674d1eb0-4c0b-431b-9a48-cfda2ce3f237","name":"Hills Group","street_address":"9 Michigan Parkway","city":"Rochester","state":"NY","postal_code":"14604","industry":"n/a"},
{"id":"260312bc-c93e-46be-b56c-c69f0060dd51","name":"Koss LLC","street_address":"64 Coleman Trail","city":"San Francisco","state":"CA","postal_code":"94132","industry":"n/a"},
{"id":"53c77376-49e1-4999-94d7-df2453e86022","name":"Nicolas-Frami","street_address":"382 Petterle Street","city":"Washington","state":"DC","postal_code":"20022","industry":"EDP Services"},
{"id":"131818d3-e06c-4c0a-8077-2ba8e85297a9","name":"Gusikowski-Kunze","street_address":"86678 Sachtjen Avenue","city":"Fresno","state":"CA","postal_code":"93704","industry":"Restaurants"},
{"id":"2f744cfb-f0fc-4eea-bb10-ae9467891b05","name":"Lemke, Schroeder and Kreiger","street_address":"97597 School Circle","city":"Kansas City","state":"MO","postal_code":"64144","industry":"Business Services"},
{"id":"4ad83785-7c6a-47b3-9004-c8f2713f54a4","name":"Gaylord, Auer and O'Hara","street_address":"07211 Basil Crossing","city":"Charlottesville","state":"VA","postal_code":"22903","industry":"Semiconductors"},
{"id":"61b0447b-3206-43f5-9593-654e78d51789","name":"Brekke, Homenick and Schinner","street_address":"63 Shoshone Street","city":"Akron","state":"OH","postal_code":"44310","industry":"n/a"},
{"id":"0e6b2431-c22f-44ff-8973-60099c33e3d0","name":"Pouros, Thompson and Bechtelar","street_address":"19 Jana Way","city":"College Station","state":"TX","postal_code":"77844","industry":"Medical/Dental Instruments"},
{"id":"a23cbc4c-1438-4b20-a67f-fcaf87a72849","name":"Warde Group","street_address":"862 Main Junction","city":"Syracuse","state":"NY","postal_code":"13224","industry":"n/a"},
{"id":"394e5992-8a09-45a1-825c-3304622eee77","name":"Nitzsche-Maggio","street_address":"693 Maple Wood Hill","city":"Saint Cloud","state":"MN","postal_code":"56398","industry":"n/a"},
{"id":"292a28aa-af7a-4a3f-b511-59fb483e4170","name":"Kshlerin LLC","street_address":"96412 Boyd Street","city":"Youngstown","state":"OH","postal_code":"44511","industry":"Telecommunications Equipment"},
{"id":"dd0af2b5-0979-45bd-83bb-eb12248308ce","name":"Bechtelar LLC","street_address":"87252 Alpine Avenue","city":"New Orleans","state":"LA","postal_code":"70187","industry":"Investment Managers"},
{"id":"e2f37bf7-4bab-4931-85a7-faf5b5992529","name":"O'Kon-Nicolas","street_address":"6 Morrow Circle","city":"Jackson","state":"MS","postal_code":"39216","industry":"Major Pharmaceuticals"},
{"id":"16b58b82-1114-4d84-8ef7-8d5157d808af","name":"Goyette, Torphy and Beer","street_address":"88035 Troy Crossing","city":"Denver","state":"CO","postal_code":"80235","industry":"Medical/Dental Instruments"},
{"id":"bb53dff6-e162-467b-b24b-ceab8301fe8d","name":"Herman, Krajcik and Stroman","street_address":"6555 Ruskin Junction","city":"Portland","state":"OR","postal_code":"97232","industry":"n/a"},
{"id":"3be8a007-deb8-4950-ae3c-43942b29ac69","name":"Kovacek-Crist","street_address":"0 Pearson Plaza","city":"Washington","state":"DC","postal_code":"20244","industry":"Electric Utilities: Central"},
{"id":"17062375-711f-4d83-a167-c4781f1e43b1","name":"Moen-Quigley","street_address":"953 Dapin Street","city":"Dallas","state":"TX","postal_code":"75236","industry":"Business Services"},
{"id":"86de03d1-f9bd-45b5-8bb5-048e89737f0e","name":"Schumm, Cremin and Kunze","street_address":"8154 Blackbird Way","city":"Columbus","state":"OH","postal_code":"43231","industry":"Major Banks"},
{"id":"6799a248-0761-48b3-9169-39c8b2571084","name":"Weber, Hammes and Zulauf","street_address":"22592 Commercial Drive","city":"Olympia","state":"WA","postal_code":"98506","industry":"Major Pharmaceuticals"},
{"id":"9cbfa9d2-04da-4b11-a0a2-31fa56c2b713","name":"Schaefer, Swift and Grant","street_address":"0877 Annamark Trail","city":"Lexington","state":"KY","postal_code":"40505","industry":"Major Chemicals"},
{"id":"270c65fd-ae56-45bb-84e1-395020d8dbd1","name":"Borer and Sons","street_address":"3 Carpenter Junction","city":"Washington","state":"DC","postal_code":"20319","industry":"Biotechnology: Biological Products (No Diagnostic Substances)"},
{"id":"d707ebc1-6a91-4b4d-bf8a-321cb47d67de","name":"Ferry LLC","street_address":"60 Haas Road","city":"Orlando","state":"FL","postal_code":"32819","industry":"Industrial Machinery/Components"},
{"id":"649839fe-ec92-4844-8609-deac27b7f503","name":"Marvin Group","street_address":"332 Everett Center","city":"Fort Smith","state":"AR","postal_code":"72905","industry":"Beverages (Production/Distribution)"},
{"id":"987e4440-9c72-49fc-9b0f-e1399181dd32","name":"Mills, Parisian and Osinski","street_address":"28 Alpine Circle","city":"Phoenix","state":"AZ","postal_code":"85053","industry":"Property-Casualty Insurers"},
{"id":"f16e2a80-85a3-4dda-8d93-0c4cf4e3ca4f","name":"Funk LLC","street_address":"56 Oxford Parkway","city":"Hartford","state":"CT","postal_code":"06105","industry":"Major Pharmaceuticals"},
{"id":"8be60d48-2872-4c33-9568-b8bc6669f451","name":"Schumm-Kreiger","street_address":"3 Ruskin Drive","city":"Birmingham","state":"AL","postal_code":"35254","industry":"n/a"},
{"id":"d1ea53ed-2f64-4269-aa12-d33859be9125","name":"Parisian, Rempel and Jast","street_address":"31187 Leroy Point","city":"Eugene","state":"OR","postal_code":"97405","industry":"Computer Manufacturing"},
{"id":"e8aa2b59-899f-44b0-ba07-5f4b39469fd6","name":"Dooley and Sons","street_address":"4992 5th Parkway","city":"Fresno","state":"CA","postal_code":"93750","industry":"n/a"},
{"id":"be3e2c32-ecfc-42bc-97eb-659845da549c","name":"Metz Group","street_address":"49 Killdeer Court","city":"El Paso","state":"TX","postal_code":"79955","industry":"Oil & Gas Production"},
{"id":"2dc5c226-2ac5-4e2c-927b-f9b6c386512e","name":"Hintz and Sons","street_address":"68 Mariners Cove Hill","city":"Cleveland","state":"OH","postal_code":"44197","industry":"Other Consumer Services"},
{"id":"aec2d306-fde7-48ff-9474-3d002b27cb85","name":"Pagac-Berge","street_address":"78660 Waxwing Drive","city":"Orlando","state":"FL","postal_code":"32825","industry":"n/a"},
{"id":"368ae3b1-858e-45e1-bc8c-24e521226696","name":"Runolfsdottir-Kub","street_address":"6 Ronald Regan Alley","city":"Oakland","state":"CA","postal_code":"94627","industry":"Trucking Freight/Courier Services"},
{"id":"d3f2f799-2c11-40fa-8a6a-18951bbe05f9","name":"Conn Inc","street_address":"249 Briar Crest Way","city":"Detroit","state":"MI","postal_code":"48295","industry":"Life Insurance"},
{"id":"79adb2bb-0a17-4dd2-ad74-e6466fbcf1f6","name":"Gutkowski, Schulist and West","street_address":"328 Clemons Pass","city":"Cincinnati","state":"OH","postal_code":"45238","industry":"n/a"},
{"id":"08e47f53-c22b-4566-8864-3b4385d9c098","name":"Goldner, Ondricka and Ullrich","street_address":"74 Fuller Circle","city":"San Antonio","state":"TX","postal_code":"78230","industry":"n/a"},
{"id":"a4d640dd-be81-4336-9b01-f9c90ba2f2d6","name":"Rippin, Pagac and Pagac","street_address":"5405 Jana Terrace","city":"Los Angeles","state":"CA","postal_code":"90094","industry":"Hotels/Resorts"},
{"id":"bc50e7ff-8a3f-42a8-a99e-2fe686d0923f","name":"Becker-Hegmann","street_address":"20 Derek Circle","city":"Delray Beach","state":"FL","postal_code":"33448","industry":"Food Distributors"},
{"id":"834d61e0-050d-48a5-99f4-77bb70736f63","name":"Cruickshank-Torp","street_address":"731 Donald Junction","city":"Ridgely","state":"MD","postal_code":"21684","industry":"n/a"},
{"id":"f7f74d3a-ba6c-4f99-bf13-f7bd747b50ef","name":"Stroman, Erdman and Carroll","street_address":"75478 Hintze Terrace","city":"Santa Monica","state":"CA","postal_code":"90410","industry":"Major Banks"},
{"id":"0209f3e4-6520-4eed-8ecb-7ee1338f37bd","name":"Hills-Corkery","street_address":"394 Derek Center","city":"Manchester","state":"NH","postal_code":"03105","industry":"Property-Casualty Insurers"},
{"id":"90c89d8d-5a24-4e2d-ab64-80605e355a57","name":"Waters-Casper","street_address":"89 Elmside Hill","city":"Valdosta","state":"GA","postal_code":"31605","industry":"Property-Casualty Insurers"},
{"id":"d30735ee-3d64-4d77-9e05-6af398a5995a","name":"Mitchell, Toy and Cormier","street_address":"55400 Hanover Crossing","city":"Memphis","state":"TN","postal_code":"38188","industry":"Hotels/Resorts"},
{"id":"85ea5996-3b4a-4a74-9834-dde4e3379c99","name":"Hammes-Rodriguez","street_address":"81378 Sloan Street","city":"Baton Rouge","state":"LA","postal_code":"70815","industry":"Computer Software: Prepackaged Software"},
{"id":"16866464-5839-4a3b-8af5-ee8e96f4a635","name":"Schamberger, Ryan and Ortiz","street_address":"087 Lakeland Drive","city":"Boise","state":"ID","postal_code":"83727","industry":"n/a"},
{"id":"ac95f0b6-e441-4cd5-95e0-c6a290ccebcf","name":"Ullrich Group","street_address":"56979 Bayside Plaza","city":"Memphis","state":"TN","postal_code":"38114","industry":"n/a"},
{"id":"82c43088-fc4c-4b61-95b3-51a6f9665f14","name":"Deckow Group","street_address":"721 Vernon Junction","city":"Fairbanks","state":"AK","postal_code":"99790","industry":"Homebuilding"},
{"id":"e444c891-e2c2-487e-b3b2-4f9cecdc143c","name":"Spinka-O'Kon","street_address":"0 Sunbrook Hill","city":"Chicago","state":"IL","postal_code":"60624","industry":"n/a"},
{"id":"76a9b89b-1576-40e1-ba88-b5f991dfaf48","name":"Maggio, Walker and Torp","street_address":"79 Forest Run Crossing","city":"Boston","state":"MA","postal_code":"02119","industry":"Transportation Services"},
{"id":"1a26d8ac-0eb1-4b34-824f-0582222e988e","name":"Fisher-Schneider","street_address":"1108 Mayfield Park","city":"Toledo","state":"OH","postal_code":"43635","industry":"Savings Institutions"},
{"id":"3861ba3b-0c4d-4a0b-ab19-d14e8d4c40ad","name":"Schamberger-Schmeler","street_address":"7581 Forster Avenue","city":"Bronx","state":"NY","postal_code":"10474","industry":"n/a"},
{"id":"ea89c442-b1ee-41fa-af3e-87ed398cf5a6","name":"Moen, Schulist and Dickinson","street_address":"60 Dawn Avenue","city":"Tulsa","state":"OK","postal_code":"74133","industry":"Biotechnology: Biological Products (No Diagnostic Substances)"},
{"id":"593508ee-fb84-41e3-a82d-50ffa6442b62","name":"Haley-Orn","street_address":"4283 Mosinee Alley","city":"Dayton","state":"OH","postal_code":"45454","industry":"Trucking Freight/Courier Services"},
{"id":"d797dd00-8a88-488f-952e-7a20c1d17b15","name":"Upton LLC","street_address":"3483 Reindahl Crossing","city":"Decatur","state":"GA","postal_code":"30033","industry":"Computer Software: Prepackaged Software"},
{"id":"35a0f5ac-bd61-4581-ac85-664bc3d12726","name":"Grady, Connelly and Johnston","street_address":"37 Northfield Plaza","city":"Washington","state":"DC","postal_code":"20238","industry":"Major Banks"},
{"id":"ec681a32-4e59-4932-a5f7-7911104d5d10","name":"Wolff Group","street_address":"39 Norway Maple Point","city":"Houston","state":"TX","postal_code":"77030","industry":"n/a"},
{"id":"a49bee0e-a0c6-4eae-adec-fd6abe05a5d1","name":"Kassulke-Medhurst","street_address":"71980 Elmside Center","city":"North Little Rock","state":"AR","postal_code":"72199","industry":"Aerospace"},
{"id":"89ad6070-ca8d-4494-889e-dd05df7bd51f","name":"Hermanns Group","street_address":"31100 Killdeer Junction","city":"Saint Paul","state":"MN","postal_code":"55108","industry":"Restaurants"},
{"id":"dcf49505-9218-4508-bd81-81c014822f08","name":"VonRueden, Batz and Zulauf","street_address":"62 Redwing Terrace","city":"Louisville","state":"KY","postal_code":"40280","industry":"Major Pharmaceuticals"},
{"id":"7a77444f-b2eb-46e0-b24e-b5d1ec9ca79d","name":"Cruickshank, Macejkovic and Cormier","street_address":"1 Florence Street","city":"Houston","state":"TX","postal_code":"77050","industry":"n/a"},
{"id":"2e09cbb7-2971-45c3-92e3-0e01ea02e084","name":"Swaniawski Group","street_address":"56358 Judy Way","city":"Denver","state":"CO","postal_code":"80241","industry":"Food Distributors"},
{"id":"f29f9768-3988-47e4-8d04-1995c9bb7798","name":"Borer-Erdman","street_address":"4594 Debs Plaza","city":"Memphis","state":"TN","postal_code":"38119","industry":"Real Estate"},
{"id":"6aa581be-4558-4d89-bcb0-242ef9f78ff7","name":"Windler LLC","street_address":"4 Maple Wood Junction","city":"Winston Salem","state":"NC","postal_code":"27157","industry":"Savings Institutions"},
{"id":"56686485-0e85-468b-93e7-89ba180bede1","name":"Conn-Roberts","street_address":"54 Bluestem Court","city":"Springfield","state":"MA","postal_code":"01129","industry":"Television Services"},
{"id":"8ed1731a-fdf6-4c44-85c6-9131e85d4711","name":"McKenzie-Leffler","street_address":"0 Blaine Hill","city":"Abilene","state":"TX","postal_code":"79699","industry":"Life Insurance"},
{"id":"bcc4daa7-54db-48a3-a16d-83e0e8252083","name":"Wehner-Green","street_address":"22 Twin Pines Point","city":"El Paso","state":"TX","postal_code":"88563","industry":"Professional Services"},
{"id":"361e5304-f0a6-43cd-b667-08926e12ee60","name":"Anderson Group","street_address":"81287 Arizona Circle","city":"Fort Worth","state":"TX","postal_code":"76134","industry":"Major Pharmaceuticals"},
{"id":"6914aa22-5cb4-4146-9ecf-9573f4a3ed67","name":"Jacobi-West","street_address":"186 Meadow Valley Plaza","city":"Sioux City","state":"IA","postal_code":"51110","industry":"Major Pharmaceuticals"},
{"id":"ff025557-87d8-40c7-809a-b0dc694298df","name":"Weber-Kub","street_address":"9 Bowman Terrace","city":"Tampa","state":"FL","postal_code":"33694","industry":"EDP Services"},
{"id":"f495a71a-be0b-4649-b930-8b32315f891f","name":"Sporer Inc","street_address":"7054 Butternut Plaza","city":"Tucson","state":"AZ","postal_code":"85710","industry":"Electrical Products"},
{"id":"01e0e8b4-12da-4079-a4b4-317452fb33a8","name":"Ullrich, Roberts and Feeney","street_address":"39048 Stang Point","city":"Oakland","state":"CA","postal_code":"94611","industry":"Telecommunications Equipment"},
{"id":"674620d2-db46-49a4-a74d-ae15fd7f3594","name":"Braun Inc","street_address":"887 Darwin Lane","city":"San Francisco","state":"CA","postal_code":"94142","industry":"Major Chemicals"},
{"id":"d0610f43-9ce3-4d14-ab3b-04b13c6208a4","name":"Lindgrend LLC","street_address":"0 Heath Street","city":"Boston","state":"MA","postal_code":"02163","industry":"n/a"},
{"id":"4bda1c6c-0014-4924-b5a1-d4f6754768fb","name":"Breitenberg, Morissette and Glover","street_address":"9 Glendale Pass","city":"Everett","state":"WA","postal_code":"98206","industry":"Savings Institutions"},
{"id":"ac35f54b-8787-4667-89a8-b3a939abf2db","name":"Cartwright and Sons","street_address":"32 Elka Hill","city":"Seattle","state":"WA","postal_code":"98121","industry":"Major Pharmaceuticals"},
{"id":"a6767d2f-dd1e-4f87-906e-a4be09e88459","name":"Luettgen Inc","street_address":"1034 Comanche Way","city":"Columbia","state":"SC","postal_code":"29220","industry":"Industrial Machinery/Components"},
{"id":"d6265063-7115-42bd-8ede-04ce6ee30a95","name":"Kshlerin, Wolf and Wunsch","street_address":"780 Kim Alley","city":"Detroit","state":"MI","postal_code":"48232","industry":"Industrial Machinery/Components"},
{"id":"a091c68c-4462-48da-97fc-b40c141abbc7","name":"Shields-Herman","street_address":"2973 Stephen Point","city":"Riverside","state":"CA","postal_code":"92505","industry":"Paper"},
{"id":"c8f8fe75-a0da-43a4-9998-5128c98bee81","name":"Hamill-Leffler","street_address":"7 Surrey Pass","city":"Aurora","state":"CO","postal_code":"80045","industry":"n/a"},
{"id":"72ee3691-73b2-46f9-a9ca-782e0134ce50","name":"Spencer and Sons","street_address":"8 Lukken Pass","city":"Dallas","state":"TX","postal_code":"75277","industry":"n/a"},
{"id":"d6a5ffda-dbdf-4bef-b34d-ba7584e68567","name":"Blick-Jerde","street_address":"9 South Avenue","city":"San Diego","state":"CA","postal_code":"92121","industry":"n/a"},
{"id":"5e7de965-c0a8-4b89-9072-25c253839bd7","name":"Klocko-Kshlerin","street_address":"0 American Ash Junction","city":"Charlotte","state":"NC","postal_code":"28205","industry":"Building operators"},
{"id":"b55a8f04-dd16-4541-9ba3-a44243b19320","name":"Jaskolski-Lowe","street_address":"36982 Shoshone Avenue","city":"Roanoke","state":"VA","postal_code":"24034","industry":"n/a"},
{"id":"60d242a3-25c7-416d-9419-5cdd69a721ac","name":"Barton-Marks","street_address":"7139 Colorado Avenue","city":"Pasadena","state":"CA","postal_code":"91109","industry":"n/a"},
{"id":"67f08aad-197c-4884-9f86-72eab46027fa","name":"Dared Inc","street_address":"73 Pond Park","city":"Oklahoma City","state":"OK","postal_code":"73119","industry":"Major Pharmaceuticals"},
{"id":"517555d3-0fbd-49f4-bed7-6f75a25c4efb","name":"Bradtke, Halvorson and Harvey","street_address":"61 Bartillon Alley","city":"Birmingham","state":"AL","postal_code":"35225","industry":"Oil & Gas Production"},
{"id":"af030071-d3a6-4ccc-9599-37cced7dbae7","name":"Hermann and Sons","street_address":"52672 Pankratz Court","city":"Duluth","state":"MN","postal_code":"55811","industry":"Electric Utilities: Central"},
{"id":"4d2d8033-532a-48cb-8423-1589a8f48809","name":"Bahringer, Gislason and Bode","street_address":"38 Park Meadow Avenue","city":"Milwaukee","state":"WI","postal_code":"53285","industry":"Computer Software: Programming, Data Processing"},
{"id":"0c998abe-1dad-4887-9d47-7ba163d4316a","name":"Daugherty, Dooley and Romaguera","street_address":"9 Paget Parkway","city":"Joliet","state":"IL","postal_code":"60435","industry":"Building Products"},
{"id":"eb020e10-7166-494e-a1e0-8c4f9b9b9f74","name":"Hessel-Weber","street_address":"73440 Summit Alley","city":"Anchorage","state":"AK","postal_code":"99522","industry":"n/a"},
{"id":"f3c2f727-1727-4bdd-986c-fcb3ee1e4baa","name":"Hoeger-Leffler","street_address":"7678 Stang Street","city":"Spring","state":"TX","postal_code":"77388","industry":"Steel/Iron Ore"},
{"id":"da1c6c44-c35a-4d10-a9e6-1c816c99e0e5","name":"Cronin, Buckridge and Williamson","street_address":"2 Mosinee Street","city":"Jamaica","state":"NY","postal_code":"11436","industry":"n/a"},
{"id":"366fcab6-1373-4730-8d37-f7da8cdf4cd2","name":"Reichel-Bailey","street_address":"34 Manitowish Circle","city":"Little Rock","state":"AR","postal_code":"72215","industry":"Marine Transportation"},
{"id":"b75cb6ee-1eab-4533-9ec7-27ef282dd65f","name":"Gleichner-Von","street_address":"43 Mifflin Lane","city":"Arlington","state":"VA","postal_code":"22217","industry":"Property-Casualty Insurers"},
{"id":"cf1d18d6-c3d9-43ef-a9f7-6b0202d2d2a8","name":"Frami Group","street_address":"494 Texas Plaza","city":"San Jose","state":"CA","postal_code":"95155","industry":"Movies/Entertainment"},
{"id":"f8c78283-9b71-42e6-8ef7-c89e4b6f9908","name":"Herman LLC","street_address":"28381 Corscot Point","city":"Bronx","state":"NY","postal_code":"10454","industry":"Biotechnology: Laboratory Analytical Instruments"},
{"id":"19990a61-280b-42b6-ac5c-5e404bf79214","name":"Dibbert, Lind and Stroman","street_address":"57 Sloan Pass","city":"Pasadena","state":"CA","postal_code":"91199","industry":"Biotechnology: Biological Products (No Diagnostic Substances)"},
{"id":"383e3daf-de20-4436-b367-67a64a51c9fc","name":"Schulist, Ratke and Hartmann","street_address":"5977 Dennis Trail","city":"Largo","state":"FL","postal_code":"33777","industry":"Computer Software: Programming, Data Processing"},
{"id":"97af8ae8-e1c5-45c6-a634-18e2f94a404d","name":"Schmidt-Hahn","street_address":"305 Ronald Regan Center","city":"Peoria","state":"IL","postal_code":"61605","industry":"Major Chemicals"},
{"id":"6b6528e5-0763-4de8-9d29-25427d66b554","name":"Stracke, Gibson and Moore","street_address":"55 Mosinee Hill","city":"Toledo","state":"OH","postal_code":"43699","industry":"General Bldg Contractors - Nonresidential Bldgs"},
{"id":"ddd9d6ec-035c-4809-9978-5117f39376b0","name":"Hayes-Barton","street_address":"27 Montana Lane","city":"Kansas City","state":"MO","postal_code":"64187","industry":"Auto Parts:O.E.M."},
{"id":"6b612c27-d781-49ff-9be1-021ddc47097f","name":"Anderson Inc","street_address":"51188 Tomscot Park","city":"Tucson","state":"AZ","postal_code":"85710","industry":"Major Pharmaceuticals"},
{"id":"862ba65b-de58-4195-b5fe-8000072332db","name":"Ankunding, Rohan and Ledner","street_address":"522 Ramsey Crossing","city":"Las Vegas","state":"NV","postal_code":"89115","industry":"Metal Fabrications"},
{"id":"830379c7-ed66-410f-a25e-2ab37e24d8ba","name":"Krajcik, Rice and Miller","street_address":"8590 Old Shore Terrace","city":"Lincoln","state":"NE","postal_code":"68524","industry":"Farming/Seeds/Milling"},
{"id":"fd6bd16e-2087-414e-ab18-0ff739027ddf","name":"Rowe-Pouros","street_address":"44313 South Trail","city":"Hayward","state":"CA","postal_code":"94544","industry":"Specialty Foods"},
{"id":"f5648d15-d445-4f69-bdae-1cd40f55f075","name":"Satterfield-Hintz","street_address":"578 Glendale Pass","city":"New York City","state":"NY","postal_code":"10029","industry":"n/a"},
{"id":"d324c461-8eec-40bd-bd3e-10274d5400b5","name":"Jast-Koelpin","street_address":"6052 Dennis Park","city":"Tulsa","state":"OK","postal_code":"74184","industry":"Automotive Aftermarket"},
{"id":"088bb9df-254a-46ec-8a7f-f84bc99d5d4b","name":"Crooks, Pfeffer and Schmitt","street_address":"5 Arkansas Center","city":"Pensacola","state":"FL","postal_code":"32595","industry":"n/a"},
{"id":"81144895-9839-497c-be4f-0251ab2903fc","name":"Rowe-Fadel","street_address":"41 Iowa Point","city":"Richmond","state":"VA","postal_code":"23208","industry":"Movies/Entertainment"},
{"id":"bb5c0980-78ce-4874-ba80-bc2664575df3","name":"Morar-Corkery","street_address":"42 Waywood Avenue","city":"Fort Wayne","state":"IN","postal_code":"46857","industry":"Industrial Machinery/Components"},
{"id":"e7f351ed-2460-4132-bf3d-e1b582729d3c","name":"Mohr, Runolfsson and Koepp","street_address":"66319 Eagan Pass","city":"Sacramento","state":"CA","postal_code":"94237","industry":"Oil & Gas Production"},
{"id":"9dbcd97b-459f-477c-83a5-438f18c86008","name":"Schmeler, O'Reilly and Rolfson","street_address":"98 Moose Place","city":"Los Angeles","state":"CA","postal_code":"90030","industry":"Building Materials"},
{"id":"b34a845d-dc19-4bce-958d-9453a4e78802","name":"Murphy, Smith and Kozey","street_address":"91 Crescent Oaks Hill","city":"Jackson","state":"MS","postal_code":"39210","industry":"n/a"},
{"id":"b3fc2a19-1b2e-46e8-9cbb-ab1ae2ef1e52","name":"Cronin LLC","street_address":"188 Dayton Crossing","city":"Raleigh","state":"NC","postal_code":"27621","industry":"Marine Transportation"},
{"id":"0851c1dd-9c7e-4a24-9fb9-c55af22ea0ff","name":"O'Conner, Hand and Champlin","street_address":"1 Meadow Valley Hill","city":"Fort Worth","state":"TX","postal_code":"76147","industry":"Catalog/Specialty Distribution"},
{"id":"4c165195-df49-4fbc-9414-6f498827b113","name":"Schmidt Group","street_address":"63 Claremont Point","city":"Colorado Springs","state":"CO","postal_code":"80925","industry":"Electrical Products"},
{"id":"29bb6ff7-33dd-4695-9e66-f07b3089994e","name":"Colliered LLC","street_address":"3048 Dunning Pass","city":"Arlington","state":"VA","postal_code":"22212","industry":"n/a"},
{"id":"0ae61510-b4f0-486a-9240-798292ec0840","name":"Stark LLC","street_address":"695 Westend Place","city":"Birmingham","state":"AL","postal_code":"35279","industry":"Oil & Gas Production"},
{"id":"dcb28b3d-a3cd-4077-9252-c0e8a80c231a","name":"Kemmer LLC","street_address":"2 Spenser Pass","city":"San Rafael","state":"CA","postal_code":"94913","industry":"n/a"},
{"id":"6fc646ba-302c-490d-a751-a6e4fda11d60","name":"McKenzie, Bartell and Ritchie","street_address":"5267 Haas Crossing","city":"Los Angeles","state":"CA","postal_code":"90035","industry":"Steel/Iron Ore"},
{"id":"7cf7185c-a759-42a2-a673-031929e0cb27","name":"Veum LLC","street_address":"2 Miller Place","city":"Houston","state":"TX","postal_code":"77218","industry":"Semiconductors"},
{"id":"1716af7c-ef11-4a2e-af74-1ca93f2c219f","name":"Hartmann-Gorczany","street_address":"56529 Nova Crossing","city":"Atlanta","state":"GA","postal_code":"30386","industry":"Business Services"},
{"id":"4332bada-5910-4b58-a6a7-8b1c06a3902e","name":"Metz, Fay and Doyle","street_address":"72 Pankratz Center","city":"Columbia","state":"SC","postal_code":"29215","industry":"n/a"},
{"id":"7b3f8472-6673-440e-ae45-d32181913695","name":"Price and Sons","street_address":"558 Pankratz Avenue","city":"Pensacola","state":"FL","postal_code":"32526","industry":"Restaurants"},
{"id":"5a1159d7-fadf-4e96-bb46-bd6a7d181dd6","name":"Yosted Group","street_address":"54 Bellgrove Center","city":"Gainesville","state":"FL","postal_code":"32610","industry":"Telecommunications Equipment"},
{"id":"de6b6d50-0530-4e0a-9a0a-66cab72671b4","name":"Schneider-Lang","street_address":"68038 Russell Parkway","city":"Richmond","state":"VA","postal_code":"23285","industry":"n/a"},
{"id":"fbcae17b-481f-411b-8351-92ac66f1e3a1","name":"Schuster-Lang","street_address":"71599 Marquette Court","city":"Chicago","state":"IL","postal_code":"60604","industry":"Auto Parts:O.E.M."},
{"id":"cbc05498-68e8-49a9-be57-61cf62fb5478","name":"O'Hara, Marquardt and Dare","street_address":"696 Colorado Road","city":"Anchorage","state":"AK","postal_code":"99512","industry":"Industrial Machinery/Components"},
{"id":"8bd2136e-851e-47de-9b95-8ba6888b2125","name":"Schultz-Ebert","street_address":"61 Rowland Lane","city":"Sioux Falls","state":"SD","postal_code":"57193","industry":"Electrical Products"},
{"id":"0713d80c-227d-4a41-827a-bba69f0edf68","name":"Tremblay Inc","street_address":"7969 Spenser Trail","city":"Tyler","state":"TX","postal_code":"75705","industry":"Industrial Machinery/Components"},
{"id":"7186e65e-e110-4c0a-b011-ad60761c4306","name":"Bosco and Sons","street_address":"23718 Everett Road","city":"New Orleans","state":"LA","postal_code":"70154","industry":"Other Consumer Services"},
{"id":"71eb5e2c-01a6-4a27-b9da-db61933cdea3","name":"Murphy, Barton and Hagenes","street_address":"86 Birchwood Street","city":"Panama City","state":"FL","postal_code":"32405","industry":"Homebuilding"},
{"id":"cec60f8b-015e-4837-ad78-e450719da6b8","name":"Bartell, Muller and Schaden","street_address":"9411 Cambridge Junction","city":"Henderson","state":"NV","postal_code":"89074","industry":"n/a"},
{"id":"fca4d8ea-7743-46cb-97d4-1d21d7b649f6","name":"Bailey, Schinner and Hermann","street_address":"81312 Montana Park","city":"Homestead","state":"FL","postal_code":"33034","industry":"Semiconductors"},
{"id":"07b027d3-16c5-4952-8b08-379ad9d5ab26","name":"Turner, Haley and Schaefer","street_address":"5 Cottonwood Drive","city":"Davenport","state":"IA","postal_code":"52804","industry":"n/a"},
{"id":"533159c3-6052-492e-a084-1a96f1403819","name":"Senger and Sons","street_address":"320 Merchant Street","city":"Baltimore","state":"MD","postal_code":"21229","industry":"Major Banks"},
{"id":"9d71efd8-3790-4857-b06d-ed1e2c8184b6","name":"Gulgowski Inc","street_address":"7282 Scott Park","city":"Levittown","state":"PA","postal_code":"19058","industry":"Major Banks"},
{"id":"522de88a-336f-40b6-a41d-bd9c8858120b","name":"Johns, Douglas and Bins","street_address":"78 Sundown Road","city":"Albuquerque","state":"NM","postal_code":"87190","industry":"Business Services"},
{"id":"55b29495-e3d7-4ec7-b588-c216bb7f9212","name":"Blanda-Hartmann","street_address":"65 Mockingbird Road","city":"Baltimore","state":"MD","postal_code":"21265","industry":"n/a"},
{"id":"3a6aebd7-cfff-4a52-959d-9ad05ae12a98","name":"Torphy Group","street_address":"0 Maywood Drive","city":"Tyler","state":"TX","postal_code":"75799","industry":"Oil & Gas Production"},
{"id":"3634ab2f-f100-4fd8-b3ae-1e7ed3629c78","name":"Bashirian, Beier and Hyatt","street_address":"32341 Oneill Lane","city":"San Antonio","state":"TX","postal_code":"78215","industry":"Oil & Gas Production"},
{"id":"6f0422d3-7644-4a06-b590-1d6d0a5851b0","name":"Lemke, Abernathy and Cronin","street_address":"554 Comanche Way","city":"Dallas","state":"TX","postal_code":"75277","industry":"Broadcasting"},
{"id":"29cc10b1-31c4-4e95-a5ea-af1b695b3e26","name":"Jerde-Rodriguez","street_address":"66034 Caliangt Court","city":"Pompano Beach","state":"FL","postal_code":"33075","industry":"Computer Software: Prepackaged Software"},
{"id":"88bbef74-c883-4e6d-a84d-4fad6bfea916","name":"Lowe Inc","street_address":"43 Graedel Terrace","city":"Seattle","state":"WA","postal_code":"98140","industry":"Diversified Commercial Services"},
{"id":"72b37398-469d-4e2f-8e62-b9a431c48ea0","name":"Brekke LLC","street_address":"7025 Meadow Valley Drive","city":"Phoenix","state":"AZ","postal_code":"85053","industry":"n/a"},
{"id":"03874c60-dce3-4a4d-9163-8138a419f73b","name":"Welch and Sons","street_address":"7 Elmside Junction","city":"Washington","state":"DC","postal_code":"20210","industry":"n/a"},
{"id":"0eaf8f61-7a69-4ddd-9a0e-60445ac8d556","name":"Huel and Sons","street_address":"79 Maywood Place","city":"Young America","state":"MN","postal_code":"55573","industry":"Broadcasting"},
{"id":"56e2d9d1-f8c1-46b0-9cde-87b36296f03a","name":"Breitenberg, Daniel and Goodwin","street_address":"48672 Thackeray Parkway","city":"Tucson","state":"AZ","postal_code":"85710","industry":"EDP Services"},
{"id":"6cd56cfe-66c3-4bd2-9d42-7adbce3523d3","name":"Hoppe-Gleason","street_address":"1 Merrick Trail","city":"Fairbanks","state":"AK","postal_code":"99709","industry":"Computer Manufacturing"},
{"id":"10add01d-2547-4a4d-8976-9b38a0b32def","name":"Kertzmann Group","street_address":"3 Mccormick Hill","city":"Myrtle Beach","state":"SC","postal_code":"29579","industry":"Computer Software: Prepackaged Software"},
{"id":"f7ff9362-6a18-43ad-9628-a84906a7631a","name":"Hoeger, Wiza and Wintheiser","street_address":"506 Columbus Terrace","city":"Charleston","state":"WV","postal_code":"25389","industry":"Semiconductors"},
{"id":"943909ba-c033-46c4-8e97-04b1278511cc","name":"Maggio-Kertzmann","street_address":"7606 Forest Dale Drive","city":"Trenton","state":"NJ","postal_code":"08650","industry":"Major Banks"},
{"id":"88ffa2fb-93f6-4065-8f56-4ffcaeebeb6d","name":"Gottlieb-Graham","street_address":"677 Ruskin Crossing","city":"Asheville","state":"NC","postal_code":"28815","industry":"Natural Gas Distribution"},
{"id":"c7b2f32a-0fac-4c5c-8f8e-d948b4271a68","name":"Batz LLC","street_address":"5 Express Crossing","city":"Vancouver","state":"WA","postal_code":"98664","industry":"Office Equipment/Supplies/Services"},
{"id":"523fa94e-725f-4d18-a881-53372a262f1d","name":"Reichel-Jacobson","street_address":"63213 Northwestern Park","city":"Torrance","state":"CA","postal_code":"90505","industry":"Containers/Packaging"},
{"id":"08debc19-0dc9-4967-9b2b-ef4656ab0c69","name":"Wiegand-Wisozk","street_address":"77 Elka Junction","city":"Phoenix","state":"AZ","postal_code":"85083","industry":"Industrial Machinery/Components"},
{"id":"f59a91cb-9806-43d4-9c1f-0509ff8eae8c","name":"Wilkinson, Stanton and Towne","street_address":"8 Hovde Center","city":"Duluth","state":"GA","postal_code":"30096","industry":"Other Specialty Stores"},
{"id":"4cab5f22-a628-4aea-8197-f96a3fb2a22a","name":"Streich, Swift and Wiza","street_address":"9 Butternut Place","city":"Bradenton","state":"FL","postal_code":"34210","industry":"Industrial Specialties"},
{"id":"f89ea5a2-a078-466c-9a09-0133e8256d1e","name":"Sengered Inc","street_address":"06 Daystar Parkway","city":"Washington","state":"DC","postal_code":"20036","industry":"n/a"},
{"id":"75c0d157-2a3f-4950-935d-23b557472750","name":"Mitchell-Kihn","street_address":"41739 North Avenue","city":"Louisville","state":"KY","postal_code":"40293","industry":"Telecommunications Equipment"},
{"id":"f42e2bb9-58cf-478c-aeeb-b71b2bb6d5ad","name":"Moen, Kiehn and Willms","street_address":"4941 Hoard Way","city":"Houston","state":"TX","postal_code":"77223","industry":"Containers/Packaging"},
{"id":"6ee046b0-e691-46e0-96a4-3ecbb8750d11","name":"Hilll-Feeney","street_address":"7 Shelley Court","city":"Rochester","state":"NY","postal_code":"14624","industry":"Farming/Seeds/Milling"},
{"id":"39bb5f6e-7b61-4ee3-837c-d9d7fd972445","name":"Spencer, Kreiger and Halvorson","street_address":"7 6th Junction","city":"Monroe","state":"LA","postal_code":"71208","industry":"n/a"},
{"id":"21e839a2-316d-4e04-aa38-9d3a7eaa78f7","name":"Schowalter-Ziemann","street_address":"11425 Doe Crossing Parkway","city":"Honolulu","state":"HI","postal_code":"96815","industry":"Major Pharmaceuticals"},
{"id":"ae987f4c-c339-45bb-b789-cee539de5352","name":"Bailey-Gutmann","street_address":"5 West Drive","city":"El Paso","state":"TX","postal_code":"79940","industry":"n/a"},
{"id":"a4e0b39c-0244-427c-b680-0bdf85195b8a","name":"Kohler, Feest and Emard","street_address":"841 Warbler Drive","city":"Pompano Beach","state":"FL","postal_code":"33069","industry":"Real Estate Investment Trusts"},
{"id":"29ac19a4-999b-4354-bc52-2ef03798c02a","name":"Tillman and Sons","street_address":"6 Hollow Ridge Trail","city":"Charleston","state":"WV","postal_code":"25389","industry":"Auto Parts:O.E.M."},
{"id":"e26660c8-fe69-46b1-9c1d-591c1d4635a4","name":"Littel-Corwin","street_address":"6444 Alpine Pass","city":"Minneapolis","state":"MN","postal_code":"55458","industry":"n/a"},
{"id":"d413dd6b-f103-4706-b52b-3b6e1b78841d","name":"Rohan, Schinner and Satterfield","street_address":"41 Nancy Park","city":"Bonita Springs","state":"FL","postal_code":"34135","industry":"Oil & Gas Production"},
{"id":"ab25aa5b-0634-4a9e-a113-2ac3e79d50cf","name":"Keeling, Hansen and Bergstrom","street_address":"3243 Green Ridge Plaza","city":"Phoenix","state":"AZ","postal_code":"85053","industry":"Industrial Machinery/Components"},
{"id":"811fa625-e4ad-4731-819f-0d5f1cd382fe","name":"Kihn-Hodkiewicz","street_address":"20626 Sugar Point","city":"Washington","state":"DC","postal_code":"20215","industry":"Packaged Foods"},
{"id":"ab1a2b1e-3129-4645-bc11-a956807d90aa","name":"Mills-Kunze","street_address":"6009 Thompson Plaza","city":"Shreveport","state":"LA","postal_code":"71137","industry":"Major Banks"},
{"id":"f9531022-606c-4c26-b98d-d461d377f693","name":"Gleason Group","street_address":"75 Arkansas Park","city":"Pittsburgh","state":"PA","postal_code":"15286","industry":"Oil & Gas Production"},
{"id":"6032b4e1-258b-435f-bbe1-4faec78c4a86","name":"Braun-Fadel","street_address":"65105 Esch Crossing","city":"Chattanooga","state":"TN","postal_code":"37410","industry":"Major Pharmaceuticals"},
{"id":"4dd93dc0-b22e-49e2-80a8-9453c83a43ce","name":"Lehner, Herzog and Pfeffer","street_address":"99 Brentwood Parkway","city":"Charlotte","state":"NC","postal_code":"28205","industry":"n/a"},
{"id":"b8f5bc64-df04-44e8-b32f-9e751158cced","name":"Kilback-Upton","street_address":"7 Village Green Hill","city":"San Francisco","state":"CA","postal_code":"94159","industry":"n/a"},
{"id":"32cfb497-8b67-4485-bb17-25365cea4fdb","name":"Turner, Heaney and Blick","street_address":"3318 School Terrace","city":"Saint Louis","state":"MO","postal_code":"63150","industry":"Major Banks"},
{"id":"09a0454b-fafe-417a-980c-9929278d9ff7","name":"Graham, Streich and Goldner","street_address":"58 Crowley Street","city":"Evansville","state":"IN","postal_code":"47737","industry":"Other Consumer Services"},
{"id":"e622893f-1c94-4010-9ee0-d7b6f0bf43e8","name":"Rutherford and Sons","street_address":"810 Graedel Way","city":"Washington","state":"DC","postal_code":"20319","industry":"Major Banks"},
{"id":"4ed772de-3af7-46de-880a-20c71620ec2f","name":"Abshire-Greenfelder","street_address":"7 Jenna Pass","city":"Wichita","state":"KS","postal_code":"67230","industry":"Property-Casualty Insurers"},
{"id":"ab6f1f1b-a3be-4f8b-8fcb-2e4499a0dea4","name":"Daniel-Boyer","street_address":"0 Sutherland Avenue","city":"New York City","state":"NY","postal_code":"10275","industry":"Oil & Gas Production"},
{"id":"b8d4d0d9-cc4d-47d2-9521-ffc7c6774e9a","name":"Herzog-Rogahn","street_address":"3 Homewood Place","city":"Orlando","state":"FL","postal_code":"32830","industry":"Major Banks"},
{"id":"a43758eb-3d59-4f04-8942-0602343cda2b","name":"Jenkins, Mayert and Volkman","street_address":"8916 Spohn Lane","city":"Detroit","state":"MI","postal_code":"48211","industry":"Semiconductors"},
{"id":"41607e27-6502-457b-91d3-2a9e8c657295","name":"Nikolaus, Predovic and Oberbrunner","street_address":"612 Del Mar Avenue","city":"Rochester","state":"NY","postal_code":"14646","industry":"Apparel"},
{"id":"2e2d7350-9c3e-4250-971d-5e7026c434d4","name":"Goldner-Schmeler","street_address":"53 Dryden Alley","city":"Louisville","state":"KY","postal_code":"40233","industry":"Oil & Gas Production"},
{"id":"b74623a2-1840-4df4-acd9-58ee1c5d29b2","name":"Yost Inc","street_address":"71 Derek Road","city":"Dallas","state":"TX","postal_code":"75265","industry":"Marine Transportation"},
{"id":"c8161849-9a7a-4174-891e-3f3ad7623da3","name":"Armstrong, Medhurst and Little","street_address":"02 Brickson Park Street","city":"Cleveland","state":"OH","postal_code":"44197","industry":"Oil & Gas Production"},
{"id":"0f045310-7a43-4ad0-b519-b773e567d594","name":"Koss, Schowalter and Hintz","street_address":"0 Elmside Road","city":"Bethlehem","state":"PA","postal_code":"18018","industry":"n/a"},
{"id":"7afcb754-2841-401b-9c82-ca085cba9332","name":"Cormier Group","street_address":"89302 Victoria Crossing","city":"Seattle","state":"WA","postal_code":"98133","industry":"n/a"},
{"id":"0fc00d26-de92-45ac-845d-4cf5a8edba69","name":"Hirthe-Jacobson","street_address":"5036 Arrowood Place","city":"Norwalk","state":"CT","postal_code":"06859","industry":"Farming/Seeds/Milling"},
{"id":"bbbe5ef1-c459-41f4-a57e-71f773f01f23","name":"Howell-Bayer","street_address":"523 Nova Plaza","city":"Kansas City","state":"MO","postal_code":"64114","industry":"Major Pharmaceuticals"},
{"id":"5ae785f1-76c1-4828-aa95-ae4935d3ca7d","name":"Marks-Boyer","street_address":"5784 Banding Street","city":"Dayton","state":"OH","postal_code":"45419","industry":"Package Goods/Cosmetics"},
{"id":"95a97cec-3480-46c4-8707-4351d78b8296","name":"Strosin-Ankunding","street_address":"03 Prairieview Plaza","city":"Fort Wayne","state":"IN","postal_code":"46825","industry":"n/a"},
{"id":"0698bb8a-7225-47e1-8462-4de3387bfcbf","name":"Lynch, Brown and Swaniawski","street_address":"69 Steensland Lane","city":"Salt Lake City","state":"UT","postal_code":"84140","industry":"Ordnance And Accessories"},
{"id":"2113c681-f5a1-44b5-8c7d-2db4c9b85d90","name":"Upton, Gleichner and Prohaska","street_address":"052 8th Way","city":"Oakland","state":"CA","postal_code":"94611","industry":"Specialty Chemicals"},
{"id":"a19cba30-ed7f-430b-9f17-a4f47b27cdef","name":"O'Kon, Johns and McCullough","street_address":"400 Kingsford Street","city":"Fort Wayne","state":"IN","postal_code":"46825","industry":"Aerospace"},
{"id":"958156d3-de1d-43cf-93b8-72d659735efe","name":"Hahn-Larkin","street_address":"5 Lunder Place","city":"Cincinnati","state":"OH","postal_code":"45249","industry":"Forest Products"},
{"id":"75eaf591-cf53-4910-a737-bc6e77cdf31f","name":"Marks, Runolfsson and Romaguera","street_address":"06 Daystar Parkway","city":"Dallas","state":"TX","postal_code":"75226","industry":"Telecommunications Equipment"},
{"id":"5eb5fe74-41c0-4b98-a7a0-8f5d8a8d0f32","name":"Schinner-Collier","street_address":"9 Lighthouse Bay Street","city":"San Antonio","state":"TX","postal_code":"78245","industry":"n/a"},
{"id":"86dc4972-aa51-49aa-8f50-d4280dc0347a","name":"Towne and Sons","street_address":"7110 North Place","city":"Pittsburgh","state":"PA","postal_code":"15235","industry":"EDP Services"},
{"id":"2059d9bc-4366-4b6c-8781-777b67a1682d","name":"Bashirian Inc","street_address":"4313 Gerald Circle","city":"Grand Rapids","state":"MI","postal_code":"49560","industry":"Natural Gas Distribution"},
{"id":"3e4dd1f0-e802-48c6-9114-d3b10fc0d9cb","name":"Ratked and Sons","street_address":"5178 Little Fleur Terrace","city":"Indianapolis","state":"IN","postal_code":"46202","industry":"Major Banks"},
{"id":"b3dc0c83-2f48-4d61-8b2c-e39c3897bfc4","name":"Rolfson, Murray and Paucek","street_address":"515 Roxbury Street","city":"Young America","state":"MN","postal_code":"55551","industry":"Real Estate Investment Trusts"},
{"id":"2a72145d-dc2e-4256-906d-97fcd4605bbc","name":"Greenholt, Bogisich and Mitchell","street_address":"40 Forest Run Park","city":"Washington","state":"DC","postal_code":"20436","industry":"Medical/Nursing Services"},
{"id":"1aeb521f-9c0e-40f4-b1c3-6e9981184fbc","name":"Walsh, Reilly and Spinka","street_address":"2839 Goodland Junction","city":"Mansfield","state":"OH","postal_code":"44905","industry":"Engineering & Construction"},
{"id":"a6ea94c1-6314-4664-bc05-2e51bcd539a0","name":"Corwin, Pollich and Cormier","street_address":"3 John Wall Hill","city":"Washington","state":"DC","postal_code":"20010","industry":"Major Chemicals"},
{"id":"380543f8-84b0-43de-a76c-afe52ca8aaee","name":"Goyette Group","street_address":"9607 Lukken Parkway","city":"Atlanta","state":"GA","postal_code":"31132","industry":"Electric Utilities: Central"},
{"id":"be5730db-595f-4bc4-9fb6-047a1df1e4fd","name":"Labadie-Franecki","street_address":"3 Grayhawk Lane","city":"Washington","state":"DC","postal_code":"20016","industry":"Professional Services"},
{"id":"ca0118e3-70c6-46f6-be3e-a9112e8a9d0d","name":"Kshlerin, Stiedemann and Keebler","street_address":"7219 Browning Way","city":"Dallas","state":"TX","postal_code":"75277","industry":"n/a"},
{"id":"37f4e2b1-6006-47d7-8887-fe8a14be86ce","name":"Bednar, Robel and Gleason","street_address":"346 Burning Wood Point","city":"Tucson","state":"AZ","postal_code":"85732","industry":"Home Furnishings"},
{"id":"246b6bcc-0085-4cff-9e49-6833f7daf315","name":"Watsica Inc","street_address":"16515 Sunbrook Street","city":"Winter Haven","state":"FL","postal_code":"33884","industry":"Major Banks"},
{"id":"93381924-fe6e-4bed-87f9-d9f86b90fdca","name":"Grimes-Miller","street_address":"27 Pierstorff Way","city":"Oakland","state":"CA","postal_code":"94622","industry":"Catalog/Specialty Distribution"},
{"id":"499fd940-cc47-440e-80e0-8dc2fc7bb288","name":"O'Kon Inc","street_address":"34776 Steensland Hill","city":"Syracuse","state":"NY","postal_code":"13205","industry":"Business Services"},
{"id":"df76725d-830f-40c2-9d1e-b5e6802619e0","name":"Zieme, D'Amore and Borer","street_address":"298 Hoard Trail","city":"Las Vegas","state":"NV","postal_code":"89150","industry":"Oil & Gas Production"},
{"id":"7b4c3939-b54d-4948-ba2b-bfc663e8be9d","name":"Emarder and Sons","street_address":"039 Tomscot Road","city":"Fresno","state":"CA","postal_code":"93762","industry":"EDP Services"},
{"id":"511cee74-bab6-4b5a-9411-97ecff13ed37","name":"Bednar Inc","street_address":"1 Transport Junction","city":"Baltimore","state":"MD","postal_code":"21265","industry":"Industrial Machinery/Components"},
{"id":"e7ebd61c-66ee-4d0b-b405-0794f4a25b7e","name":"Blanda and Sons","street_address":"8 Holmberg Crossing","city":"Montgomery","state":"AL","postal_code":"36177","industry":"Water Supply"},
{"id":"8fbade8a-5130-413d-8269-f96b9b3635fa","name":"Emard-Rosenbaum","street_address":"38595 American Ash Pass","city":"Omaha","state":"NE","postal_code":"68144","industry":"Commercial Banks"},
{"id":"1a35dc36-94ee-464c-9aa6-669d3426213d","name":"Padberg-Hayes","street_address":"3605 Jenifer Crossing","city":"Tucson","state":"AZ","postal_code":"85725","industry":"Miscellaneous"},
{"id":"60989758-9ebf-490b-845d-496cceb3c658","name":"Roberts-Klocko","street_address":"89 Acker Circle","city":"Virginia Beach","state":"VA","postal_code":"23459","industry":"Business Services"},
{"id":"d1f13657-69b1-4feb-af40-7cac84f60ff2","name":"Wilkinson and Sons","street_address":"24299 Starling Crossing","city":"Beaufort","state":"SC","postal_code":"29905","industry":"Shoe Manufacturing"},
{"id":"c028954f-31df-4200-ab84-f551b8b2013e","name":"Williamson-Denesik","street_address":"8 Waywood Lane","city":"Lubbock","state":"TX","postal_code":"79410","industry":"n/a"},
{"id":"d517ef58-00ca-4823-be59-5060f8306b63","name":"Hills, Bradtke and Okuneva","street_address":"07 6th Place","city":"Spokane","state":"WA","postal_code":"99205","industry":"Real Estate"},
{"id":"75a31e61-ce6f-4355-ae1b-b34561ac5389","name":"Ledner, Stehr and Zboncak","street_address":"37435 Farmco Terrace","city":"Trenton","state":"NJ","postal_code":"08619","industry":"Major Pharmaceuticals"},
{"id":"265ac356-3bb5-46b6-8dd4-9c78c769af80","name":"Murphy, McDermott and Hartmann","street_address":"829 Caliangt Point","city":"El Paso","state":"TX","postal_code":"88514","industry":"Railroads"},
{"id":"9947096b-a533-4919-b8fd-e994f8dc24f2","name":"Buckridge, Wilderman and Howe","street_address":"0 Almo Court","city":"Tulsa","state":"OK","postal_code":"74170","industry":"Marine Transportation"},
{"id":"44e1735c-0680-4c57-9733-81d299198dcc","name":"Franecki, Jakubowski and Hammes","street_address":"07 Dunning Road","city":"Stamford","state":"CT","postal_code":"06905","industry":"Natural Gas Distribution"},
{"id":"6c99d1e6-2c60-45e3-8ba7-09a694ffdcba","name":"Hagenes LLC","street_address":"9371 Gerald Road","city":"Sacramento","state":"CA","postal_code":"95828","industry":"Oil & Gas Production"},
{"id":"a3273f97-7931-4d31-a4d3-3dc770da5cc9","name":"Russel-Weber","street_address":"1 Melrose Drive","city":"Pomona","state":"CA","postal_code":"91797","industry":"Computer Software: Prepackaged Software"},
{"id":"672a5cb8-7437-4b51-b9cd-27d2900712f9","name":"Schneider, Feil and West","street_address":"67669 Butternut Point","city":"Oklahoma City","state":"OK","postal_code":"73157","industry":"n/a"},
{"id":"d785b752-9deb-4ac6-ae69-794ecf25d946","name":"O'Conner and Son","street_address":"9158 American Court","city":"Cleveland","state":"OH","postal_code":"44111","industry":"Industrial Machinery/Components"},
{"id":"1732d937-f44d-46cc-baf1-f974ae5c7a10","name":"Orn-Denesik","street_address":"3 Oneill Court","city":"Dallas","state":"TX","postal_code":"75231","industry":"Specialty Chemicals"},
{"id":"cebd5af2-37ea-47ab-8385-bf4433bb3b89","name":"Schneider Inc","street_address":"782 Barby Road","city":"Sioux City","state":"IA","postal_code":"51110","industry":"EDP Services"},
{"id":"cdedd6ad-204f-4616-95bc-556cbbb714c2","name":"Swift and Sons","street_address":"46 Pine View Road","city":"Portsmouth","state":"VA","postal_code":"23705","industry":"EDP Services"},
{"id":"ec6f22c7-d504-4ee6-9f2c-2ffdc514e277","name":"Wintheiser LLC","street_address":"5829 Duke Plaza","city":"Tulsa","state":"OK","postal_code":"74149","industry":"Computer Software: Programming, Data Processing"},
{"id":"8edd5249-fc7c-48dd-a24c-ebf114f8beea","name":"McGlynn and Sons","street_address":"4297 Gateway Trail","city":"Austin","state":"TX","postal_code":"78789","industry":"Major Banks"},
{"id":"1890eb74-f4fa-4b42-ac47-4a453b9b6722","name":"Jacobs Group","street_address":"31975 Kenwood Park","city":"El Paso","state":"TX","postal_code":"79923","industry":"Business Services"},
{"id":"996d4d92-4720-446d-8ff6-0e7ce719ba12","name":"Gleason, Botsford and Langworth","street_address":"6539 Merry Hill","city":"Burbank","state":"CA","postal_code":"91520","industry":"n/a"},
{"id":"1b83eb02-d94d-47a0-a9f5-6e5031b0c254","name":"Zemlak Inc","street_address":"72 Northfield Drive","city":"Washington","state":"DC","postal_code":"20215","industry":"Specialty Chemicals"},
{"id":"59667084-928d-4c13-b072-4613e4ad5a4b","name":"Dickens-Kuhic","street_address":"75466 Randy Hill","city":"Orlando","state":"FL","postal_code":"32868","industry":"Restaurants"},
{"id":"10900f5c-ff82-4fbd-a82c-e65ff445b791","name":"Spinka-Kerluke","street_address":"02185 Jay Circle","city":"New Castle","state":"PA","postal_code":"16107","industry":"Investment Managers"},
{"id":"016f4ca9-282c-4e5a-8587-d8adce8778c7","name":"Jast-Hessel","street_address":"2455 Waywood Lane","city":"Alexandria","state":"LA","postal_code":"71307","industry":"Major Chemicals"},
{"id":"31c7ad5c-3269-4858-a4a0-e92dbae7d5bd","name":"Nitzsche-Mitchell","street_address":"49 Redwing Court","city":"Springfield","state":"IL","postal_code":"62756","industry":"EDP Services"},
{"id":"fbbac8ae-6638-4424-8d86-f1a6c95028c7","name":"Bednar, Wisoky and Kutch","street_address":"2718 Declaration Hill","city":"Los Angeles","state":"CA","postal_code":"90189","industry":"n/a"},
{"id":"be9dcbb1-2dc2-4b9e-a17e-e1f0f16051ff","name":"Cartered LLC","street_address":"583 Sloan Avenue","city":"Baton Rouge","state":"LA","postal_code":"70815","industry":"n/a"},
{"id":"b7a487a9-87a8-4c1c-a84d-ad1ba35fb52a","name":"Mertz, Blanda and Hills","street_address":"67926 Mockingbird Alley","city":"Huntington","state":"WV","postal_code":"25770","industry":"Auto Parts:O.E.M."},
{"id":"2f07bfdf-8766-4413-9dc7-f5679be9f5dc","name":"Ferry-Brekke","street_address":"8795 Pine View Point","city":"Lincoln","state":"NE","postal_code":"68583","industry":"n/a"},
{"id":"8e83f0c3-33c7-4f56-a244-0de35e53122d","name":"Hettinger, Smitham and Beier","street_address":"790 Sugar Point","city":"Mansfield","state":"OH","postal_code":"44905","industry":"n/a"},
{"id":"0d33d2dc-05b3-4dba-a11d-34920b104612","name":"Hauck and Sons","street_address":"7013 Boyd Way","city":"Orlando","state":"FL","postal_code":"32825","industry":"n/a"},
{"id":"f358da0a-78d7-4fdb-a78c-4e634c110120","name":"Mueller-Hegmann","street_address":"0987 Lakewood Alley","city":"Minneapolis","state":"MN","postal_code":"55407","industry":"Medical/Nursing Services"},
{"id":"af5a36b2-057f-46dd-aec5-901bc0c504f2","name":"Schimmel and Sons","street_address":"42 Morningstar Circle","city":"San Diego","state":"CA","postal_code":"92132","industry":"n/a"},
{"id":"9400afad-0164-49cf-8033-74a2eb71a3cb","name":"Wehner, Kshlerin and Kuhlman","street_address":"60 Red Cloud Court","city":"Torrance","state":"CA","postal_code":"90505","industry":"Biotechnology: Biological Products (No Diagnostic Substances)"},
{"id":"9afc0c0d-12c4-4b11-bf6c-cdd7c29f9b73","name":"Kilback Inc","street_address":"400 New Castle Junction","city":"Austin","state":"TX","postal_code":"78737","industry":"Major Chemicals"},
{"id":"0c86aef2-db4a-46be-a1a4-295734d9bc69","name":"Turcotte, Hoeger and Grimes","street_address":"5 Cardinal Park","city":"Huntsville","state":"AL","postal_code":"35805","industry":"Savings Institutions"},
{"id":"42726f62-1599-4f1e-afe3-0236d516e401","name":"Reinger-Okuneva","street_address":"3558 Armistice Park","city":"Chicago","state":"IL","postal_code":"60691","industry":"n/a"},
{"id":"1b68d4ae-f427-4126-a092-66f2214c865c","name":"Terry and Sons","street_address":"122 Valley Edge Park","city":"Washington","state":"DC","postal_code":"20260","industry":"Telecommunications Equipment"},
{"id":"d9ccbdff-651e-43e5-9662-d9f2f8953c66","name":"Littel and Sons","street_address":"7823 Briar Crest Plaza","city":"Peoria","state":"IL","postal_code":"61651","industry":"Biotechnology: Biological Products (No Diagnostic Substances)"},
{"id":"92087cee-91a7-49fc-89ee-e3912bc4a2e0","name":"Yost Group","street_address":"3 Morningstar Road","city":"Gadsden","state":"AL","postal_code":"35905","industry":"Steel/Iron Ore"},
{"id":"900d8054-e302-4578-8074-6295721c4889","name":"McGlynn-Bayer","street_address":"8397 Eagan Circle","city":"Youngstown","state":"OH","postal_code":"44511","industry":"Water Supply"},
{"id":"516a2d7c-2511-445a-a710-043eea29b043","name":"Prohaska, Zboncak and Franecki","street_address":"280 Hauk Junction","city":"Albany","state":"NY","postal_code":"12242","industry":"n/a"},
{"id":"f67b6308-2a3c-415b-8fc7-c4b4eb6feab1","name":"Franecki, Kohler and Ryan","street_address":"58925 Basil Lane","city":"Hollywood","state":"FL","postal_code":"33028","industry":"Computer Communications Equipment"},
{"id":"e8f1b018-ca90-44ad-b5f2-4e8b97305315","name":"Weber, Vandervort and Bartell","street_address":"1368 Springs Court","city":"Denver","state":"CO","postal_code":"80217","industry":"Telecommunications Equipment"},
{"id":"64dff91f-8289-401c-a87f-28c44c6eeaa1","name":"Mills-Davis","street_address":"6 Charing Cross Pass","city":"Augusta","state":"GA","postal_code":"30911","industry":"n/a"},
{"id":"e5a89e08-4f17-4ac1-88cb-108df373ea30","name":"Carter Group","street_address":"41119 Valley Edge Junction","city":"Columbia","state":"SC","postal_code":"29208","industry":"Computer Software: Prepackaged Software"},
{"id":"87e265db-7d29-42d0-b0ac-03d854e02445","name":"Kautzer Group","street_address":"1 Shelley Point","city":"Fort Pierce","state":"FL","postal_code":"34981","industry":"Biotechnology: Electromedical & Electrotherapeutic Apparatus"},
{"id":"6a855918-dbc5-4676-9897-9c57d3b75773","name":"Keebler and Sons","street_address":"174 Maple Wood Parkway","city":"San Jose","state":"CA","postal_code":"95128","industry":"Industrial Machinery/Components"},
{"id":"9f17c726-56a6-46ce-a855-a14c6b1a1522","name":"Robel, Sporer and Hammes","street_address":"3 Fulton Way","city":"Phoenix","state":"AZ","postal_code":"85072","industry":"Business Services"},
{"id":"3eb3edb6-93d2-4ec9-90c1-bcbd456d8b07","name":"Botsford Inc","street_address":"6144 American Ash Place","city":"Charlotte","state":"NC","postal_code":"28210","industry":"Environmental Services"},
{"id":"4ae372c5-225e-49f3-8d74-1ce8b662f849","name":"Kunde and Sons","street_address":"344 Homewood Way","city":"Migrate","state":"KY","postal_code":"41905","industry":"Broadcasting"},
{"id":"73dd4be5-f4fe-41f8-aad1-cd5a831715c2","name":"McDermott Group","street_address":"5 Rieder Terrace","city":"Buffalo","state":"NY","postal_code":"14215","industry":"n/a"},
{"id":"d9ed11cc-484a-4eaa-8ef8-59cd93d7b9a5","name":"Simonis and Sons","street_address":"7 Farmco Parkway","city":"Lansing","state":"MI","postal_code":"48912","industry":"Medical/Dental Instruments"},
{"id":"54ae3d2e-caca-4a54-a9ec-0f110c1827e4","name":"Reilly, Yundt and Casper","street_address":"18869 Bultman Terrace","city":"Lansing","state":"MI","postal_code":"48956","industry":"n/a"},
{"id":"f943cc83-dfd6-4a10-b9a2-1b9165ac5ed0","name":"Runolfsson-Simonis","street_address":"6 Elmside Avenue","city":"Pompano Beach","state":"FL","postal_code":"33075","industry":"Computer Software: Programming, Data Processing"},
{"id":"f4012712-1ad1-47c4-938e-c8e94067d4cf","name":"Koch, Schimmel and Reinger","street_address":"1744 Novick Drive","city":"Stockton","state":"CA","postal_code":"95205","industry":"Multi-Sector Companies"},
{"id":"eb703cda-0bbc-451e-b38f-e4dcea1f011c","name":"Sawayn, Gusikowski and Erdman","street_address":"7035 Scofield Alley","city":"Corpus Christi","state":"TX","postal_code":"78426","industry":"Major Chemicals"},
{"id":"b5ea7b75-9d86-41b2-a3f0-c2202c9a9733","name":"Macejkovic, O'Connell and Hickle","street_address":"71477 Pawling Park","city":"Sioux City","state":"IA","postal_code":"51110","industry":"n/a"},
{"id":"b669193a-27b1-4fde-b93a-f418c7ecb39a","name":"Aufderhar, Sawayn and Harber","street_address":"0519 Fairview Place","city":"Bethesda","state":"MD","postal_code":"20892","industry":"Telecommunications Equipment"},
{"id":"666d6d2e-ac17-4a2e-834f-4b8b0a1e5d11","name":"Pacocha, Davis and Gislason","street_address":"1 Northport Hill","city":"Buffalo","state":"NY","postal_code":"14220","industry":"Investment Bankers/Brokers/Service"},
{"id":"d7e66468-c82f-4fea-9b02-af7c2ca858d0","name":"Schmitt, Greenholt and McKenzie","street_address":"7 Rowland Alley","city":"Juneau","state":"AK","postal_code":"99812","industry":"n/a"},
{"id":"02c0b728-e78e-496a-9665-d900aa2ffb45","name":"Ullrich, Mante and Bernhard","street_address":"0 Bonner Alley","city":"Bronx","state":"NY","postal_code":"10469","industry":"Integrated oil Companies"},
{"id":"cbd90bed-099c-4969-88a1-8222f941aa8b","name":"Corwin Inc","street_address":"28178 Dahle Lane","city":"Monticello","state":"MN","postal_code":"55590","industry":"n/a"},
{"id":"a41ecadb-901a-4d03-9e7b-97b1d769f462","name":"Rice, Goyette and Nikolaus","street_address":"2 Sloan Court","city":"Akron","state":"OH","postal_code":"44329","industry":"Food Distributors"},
{"id":"823de970-47f6-400a-859a-c221db201062","name":"Schiller-Bode","street_address":"391 Bowman Point","city":"Carson City","state":"NV","postal_code":"89706","industry":"Marine Transportation"},
{"id":"6cfb6eb3-b59d-4dee-a522-1d7c6daad5a8","name":"O'Kon-DuBuque","street_address":"8 Talmadge Lane","city":"Fort Worth","state":"TX","postal_code":"76162","industry":"Clothing/Shoe/Accessory Stores"},
{"id":"7d3e3bc6-b4f5-435c-b146-39b601452620","name":"Windler, Ruecker and Koch","street_address":"8389 Milwaukee Parkway","city":"Brooklyn","state":"NY","postal_code":"11254","industry":"n/a"},
{"id":"ef47066a-0608-4167-b806-e29242fd2609","name":"Bechtelar, Rodriguez and Batz","street_address":"1820 North Court","city":"Grand Rapids","state":"MI","postal_code":"49544","industry":"Real Estate Investment Trusts"},
{"id":"07ab980f-72fb-4449-99f5-38c32b7e16e9","name":"Flatley, Trantow and Cormier","street_address":"11228 Hayes Point","city":"Brooklyn","state":"NY","postal_code":"11215","industry":"Metal Fabrications"},
{"id":"09afd80e-bd6b-4616-8d0b-bc98e103e59f","name":"Heidenreich and Sons","street_address":"9452 Judy Terrace","city":"Jackson","state":"MS","postal_code":"39204","industry":"Oil & Gas Production"},
{"id":"4e0c8d38-91d9-4a93-823a-7a535b4b39ff","name":"Upton, Quitzon and Grant","street_address":"57061 Nancy Park","city":"Wilmington","state":"DE","postal_code":"19886","industry":"Savings Institutions"},
{"id":"559d5d20-6cb7-494a-a58b-6d1466a62cb2","name":"Davis, Emmerich and Greenfelder","street_address":"00210 Derek Court","city":"Saint Paul","state":"MN","postal_code":"55103","industry":"n/a"},
{"id":"5b2161a6-c5d7-4f1b-826e-8f49bf0e5803","name":"Warden Group","street_address":"6 Portage Junction","city":"New York City","state":"NY","postal_code":"10184","industry":"Major Pharmaceuticals"},
{"id":"4f778208-f6b1-4e1f-a94d-839a6bfc64fb","name":"Ruecker-Schultz","street_address":"278 Golf Plaza","city":"Seattle","state":"WA","postal_code":"98115","industry":"Business Services"},
{"id":"3236b455-3032-4d30-a1a1-b197b5ae5d06","name":"Prosacco Inc","street_address":"594 Superior Lane","city":"Tacoma","state":"WA","postal_code":"98442","industry":"n/a"},
{"id":"59b9a27e-6918-4c3e-911c-4fd4cfe67355","name":"Wunsch, Cummings and Halvorson","street_address":"25074 Northport Terrace","city":"Yonkers","state":"NY","postal_code":"10705","industry":"EDP Services"},
{"id":"b565200c-a30e-45dc-9166-c5e7ebf89c86","name":"Pacocha and Sons","street_address":"111 Merchant Hill","city":"Tempe","state":"AZ","postal_code":"85284","industry":"Consumer Specialties"},
{"id":"c0830131-9d30-4700-819d-b79885ef72f2","name":"Smitham, Langosh and Williamson","street_address":"17402 Westport Crossing","city":"Mobile","state":"AL","postal_code":"36628","industry":"n/a"},
{"id":"5220700d-c854-481f-aa4a-8ebe46dcf773","name":"Miller, Hegmann and Green","street_address":"60125 Fairview Parkway","city":"Fort Wayne","state":"IN","postal_code":"46867","industry":"n/a"},
{"id":"6cb2dad8-77f5-4408-ba74-b3faf8de46c7","name":"Ullrich, Swaniawski and Reichel","street_address":"1 Sunnyside Parkway","city":"Jackson","state":"MS","postal_code":"39282","industry":"Major Banks"},
{"id":"aaf3bd97-c979-4c4e-8c5b-5169f199da79","name":"Marvin-Rosenbaum","street_address":"10 Kennedy Court","city":"Birmingham","state":"AL","postal_code":"35231","industry":"EDP Services"},
{"id":"e59d7a89-c3e4-49fc-b115-64a718a74832","name":"Huel, Heidenreich and Morissette","street_address":"278 Anderson Street","city":"San Antonio","state":"TX","postal_code":"78245","industry":"n/a"},
{"id":"7b843bcf-4c4b-4848-b0a2-0e626b2d4fe0","name":"Rath-VonRueden","street_address":"5183 Armistice Place","city":"Pasadena","state":"CA","postal_code":"91109","industry":"Major Pharmaceuticals"},
{"id":"65c7d639-6eee-4899-8425-49c9dc74fb2c","name":"Bradtker LLC","street_address":"64124 Lawn Hill","city":"San Jose","state":"CA","postal_code":"95118","industry":"Marine Transportation"},
{"id":"1ae7daf2-c720-4956-aa83-e79cdf3c59e7","name":"Nolan, Blick and Reichert","street_address":"0002 International Center","city":"Albany","state":"GA","postal_code":"31704","industry":"Oil & Gas Production"},
{"id":"6a0001d7-e89c-475e-9e80-7fcd246c07da","name":"Reynolds, Klocko and Littel","street_address":"61104 Hoard Trail","city":"Washington","state":"DC","postal_code":"20210","industry":"Major Chemicals"},
{"id":"b15fa7bd-d18c-4091-b935-9a36c96a8036","name":"Christiansen LLC","street_address":"109 Sage Way","city":"Miami","state":"FL","postal_code":"33153","industry":"n/a"},
{"id":"3ea9c9ed-5c65-470d-9141-ba90e6832429","name":"Shanahan, Hintz and Senger","street_address":"3206 Sunnyside Crossing","city":"Jacksonville","state":"FL","postal_code":"32225","industry":"Major Chemicals"},
{"id":"422fa006-67cf-4239-af6f-ec89d2cb1367","name":"McKenzie Inc","street_address":"404 Westridge Way","city":"Boston","state":"MA","postal_code":"02283","industry":"Semiconductors"},
{"id":"b0553b25-463b-4dc6-975e-df963a11a79c","name":"Wyman-Powlowski","street_address":"42 Burning Wood Terrace","city":"New York City","state":"NY","postal_code":"10014","industry":"Automotive Aftermarket"},
{"id":"f327f303-4cf6-40a0-bca2-32e2e24b5c1e","name":"Fahey Group","street_address":"5644 Weeping Birch Place","city":"Columbia","state":"SC","postal_code":"29208","industry":"Water Supply"},
{"id":"1ab13ca4-5502-4318-9d3e-3139147da989","name":"Grant, Funk and Bauch","street_address":"39 Merrick Place","city":"Washington","state":"DC","postal_code":"20067","industry":"Medical Specialities"},
{"id":"9a377592-0659-43c5-90c1-8c77f7c5a52b","name":"Farrell-Russel","street_address":"7144 Dapin Crossing","city":"Lincoln","state":"NE","postal_code":"68517","industry":"Business Services"},
{"id":"9f0cc5ef-5f84-4639-a33f-a59c1d45d8e9","name":"Murray, Friesen and Parker","street_address":"9 Portage Place","city":"Lexington","state":"KY","postal_code":"40510","industry":"Auto Manufacturing"},
{"id":"4c2f62c5-af35-4a15-acfd-0ec9aebc66b8","name":"Hermann LLC","street_address":"1 Truax Avenue","city":"Schenectady","state":"NY","postal_code":"12325","industry":"Oilfield Services/Equipment"},
{"id":"30210a8c-cf55-4303-ab7b-50553168041f","name":"Emmerich-Ruecker","street_address":"1 Banding Alley","city":"Hagerstown","state":"MD","postal_code":"21747","industry":"n/a"},
{"id":"8511b315-2c44-4ef7-8dad-f3896eddbfeb","name":"Reichert, Kunze and Mosciski","street_address":"8535 Mallory Alley","city":"Brooklyn","state":"NY","postal_code":"11205","industry":"Industrial Machinery/Components"},
{"id":"bce93819-7a4f-4f1a-8ad6-8aa818733de5","name":"Olson-Cummings","street_address":"2845 Ridge Oak Parkway","city":"Oakland","state":"CA","postal_code":"94605","industry":"Metal Fabrications"},
{"id":"f30d59a2-d50f-4669-896b-fec1f09c51b3","name":"Gaylord Group","street_address":"001 Dovetail Pass","city":"Washington","state":"DC","postal_code":"20210","industry":"Computer Software: Prepackaged Software"},
{"id":"e6e1e5f1-e365-445a-8dbf-87747006cb98","name":"Wilderman, Casper and Ziemann","street_address":"42954 Stoughton Hill","city":"Washington","state":"DC","postal_code":"20005","industry":"Marine Transportation"},
{"id":"0c1d668d-37ca-4d8f-8c25-fd9e4fb0a591","name":"Hagenes-Dickens","street_address":"86701 Nova Court","city":"San Jose","state":"CA","postal_code":"95138","industry":"n/a"},
{"id":"242bf309-1079-4c60-b295-9452ede45c74","name":"Feil Inc","street_address":"6275 Algoma Place","city":"Dallas","state":"TX","postal_code":"75323","industry":"Semiconductors"},
{"id":"552fcfdf-36ff-4048-ae81-9eb198dc0283","name":"Deckow, Stehr and Glover","street_address":"616 6th Junction","city":"Shawnee Mission","state":"KS","postal_code":"66276","industry":"Marine Transportation"},
{"id":"e1272e94-4e54-4ed5-b961-f25169a2fe46","name":"Weber LLC","street_address":"7866 Rowland Place","city":"Richmond","state":"VA","postal_code":"23225","industry":"Apparel"},
{"id":"b5e23835-a4d4-4ce5-a50d-6680d59b34a6","name":"Mitchell and Sons","street_address":"133 Novick Parkway","city":"Bronx","state":"NY","postal_code":"10474","industry":"n/a"},
{"id":"70833f8f-3dec-487e-a60d-ec722299f9ed","name":"Stiedemann LLC","street_address":"81 Artisan Plaza","city":"Staten Island","state":"NY","postal_code":"10310","industry":"Hotels/Resorts"},
{"id":"1cd207df-13d8-4c56-9e78-e18254cd92d2","name":"Thompson, Blick and Pfeffer","street_address":"2 Mccormick Junction","city":"Sacramento","state":"CA","postal_code":"94257","industry":"EDP Services"},
{"id":"4ca466a6-c810-428f-814d-602deeb3567b","name":"Moen Group","street_address":"6310 Birchwood Court","city":"Anchorage","state":"AK","postal_code":"99507","industry":"Specialty Chemicals"},
{"id":"95e2148e-65ef-48f7-a25d-5a8e00ab88be","name":"Prosacco, Ledner and Kautzer","street_address":"33595 Holy Cross Street","city":"Sacramento","state":"CA","postal_code":"94245","industry":"Business Services"},
{"id":"c5a513aa-48af-4aa1-a421-41ee9e9e5a06","name":"Hartmann, Mosciski and Kilback","street_address":"2 Susan Street","city":"San Antonio","state":"TX","postal_code":"78255","industry":"Telecommunications Equipment"},
{"id":"52ad9cd5-8e70-4871-b03e-2d6e428bc65a","name":"Kohler, Ledner and Strosin","street_address":"94194 Menomonie Road","city":"Provo","state":"UT","postal_code":"84605","industry":"n/a"},
{"id":"4e2dbf37-9175-4641-a4be-1db30feb04f3","name":"Hills, Halvorson and Fadel","street_address":"97296 Everett Lane","city":"Grand Rapids","state":"MI","postal_code":"49560","industry":"n/a"},
{"id":"be4f034d-9b18-4ddb-b4fb-3def87f8f448","name":"Hammes, Schmeler and Hartmann","street_address":"2 Pleasure Street","city":"Greensboro","state":"NC","postal_code":"27409","industry":"Real Estate Investment Trusts"},
{"id":"3d7e8a52-d862-464d-84c7-259787bbef23","name":"Kuhic-Funk","street_address":"845 Jackson Way","city":"Cincinnati","state":"OH","postal_code":"45228","industry":"Containers/Packaging"},
{"id":"5b7b1bbb-8767-4a51-8d5c-2558d6167157","name":"Spinka Inc","street_address":"9016 Homewood Junction","city":"Atlanta","state":"GA","postal_code":"30323","industry":"Automotive Aftermarket"},
{"id":"2bc5463a-88cc-4878-b2f3-ddf8b8b90f31","name":"Quigley-Bode","street_address":"1 Algoma Trail","city":"Indianapolis","state":"IN","postal_code":"46295","industry":"Catalog/Specialty Distribution"},
{"id":"63b43235-270e-4f03-943a-ad8c859156a5","name":"Sawayn Inc","street_address":"6049 Toban Road","city":"Las Vegas","state":"NV","postal_code":"89140","industry":"Industrial Machinery/Components"},
{"id":"5d51fed8-2287-4390-ac1d-171c6ef9c56e","name":"Russel-Ruecker","street_address":"9 Dapin Hill","city":"Brooklyn","state":"NY","postal_code":"11210","industry":"Business Services"},
{"id":"6b3d67fb-d490-4297-a047-6e069e454c89","name":"Reichel, Feeney and Kuphal","street_address":"658 Northport Junction","city":"Philadelphia","state":"PA","postal_code":"19136","industry":"Commercial Banks"},
{"id":"1ecf626e-c1c2-4e6b-ad89-39e4394b3851","name":"Heller and Sons","street_address":"9 Lerdahl Park","city":"El Paso","state":"TX","postal_code":"88584","industry":"Steel/Iron Ore"},
{"id":"f63385d5-31f8-48ad-8300-becb9f1cbde3","name":"Heaney, Block and Streich","street_address":"7 Haas Circle","city":"Madison","state":"WI","postal_code":"53705","industry":"EDP Services"},
{"id":"ad7f747f-c0ea-4b22-baeb-c8edfff242ed","name":"Quitzon and Sons","street_address":"89 South Pass","city":"San Diego","state":"CA","postal_code":"92191","industry":"Major Banks"},
{"id":"be0444e9-408a-4ecc-9697-de91f553e71d","name":"Walsh, Anderson and Carter","street_address":"56506 Anderson Court","city":"Anderson","state":"IN","postal_code":"46015","industry":"Real Estate Investment Trusts"},
{"id":"83d8b323-fe0d-4d7a-977f-edd2e26f43c0","name":"Brekke-Hoeger","street_address":"4 Red Cloud Way","city":"Houston","state":"TX","postal_code":"77245","industry":"Major Banks"},
{"id":"f0935268-e995-49b2-9d63-78f9058e5d54","name":"Schultz-Larkin","street_address":"1 Eggendart Lane","city":"Lansing","state":"MI","postal_code":"48930","industry":"Specialty Chemicals"},
{"id":"b8286203-39c3-4190-8748-a959629b777c","name":"Bahringer, Schneider and Kozey","street_address":"7228 Jenna Trail","city":"Orlando","state":"FL","postal_code":"32835","industry":"Home Furnishings"},
{"id":"c55e6bef-d85f-419a-b26e-ddeb2e07d0cf","name":"Kreiger and Sons","street_address":"32 Prairie Rose Plaza","city":"White Plains","state":"NY","postal_code":"10606","industry":"Computer Software: Prepackaged Software"},
{"id":"e9645aac-579a-4248-8d15-8b49aa9fedc7","name":"Hettinger, Wunsch and Emard","street_address":"1 Donald Alley","city":"Springfield","state":"MA","postal_code":"01152","industry":"Major Banks"},
{"id":"7ca26c3e-3ea7-494f-974b-fcb01185c71d","name":"Lindgren-Kulas","street_address":"5633 Lillian Avenue","city":"El Paso","state":"TX","postal_code":"88558","industry":"Investment Managers"},
{"id":"8f167165-ddfd-4604-9bc6-9070a4f31a02","name":"Ankunding Group","street_address":"0397 Rutledge Lane","city":"Houston","state":"TX","postal_code":"77010","industry":"Electronic Components"},
{"id":"bb6afb30-8e56-4954-9175-6f748707adf6","name":"Franecki-Wyman","street_address":"828 Bowman Crossing","city":"Los Angeles","state":"CA","postal_code":"90055","industry":"Investment Managers"},
{"id":"888e30f4-f251-45bb-819b-be973afe7a6b","name":"Weber-Macejkovic","street_address":"87844 Reinke Point","city":"Savannah","state":"GA","postal_code":"31422","industry":"Major Pharmaceuticals"},
{"id":"98def384-5842-43e4-84ce-4be13ba839fe","name":"Blick-Dietrich","street_address":"371 Manufacturers Trail","city":"Daytona Beach","state":"FL","postal_code":"32118","industry":"Trucking Freight/Courier Services"},
{"id":"26fa624d-3a4f-459e-8b88-9fb80d54d8f4","name":"Breitenberg Group","street_address":"058 Roxbury Hill","city":"Omaha","state":"NE","postal_code":"68144","industry":"Mining & Quarrying of Nonmetallic Minerals (No Fuels)"},
{"id":"b3ca60c0-9de8-4588-82fb-dea397adf8fc","name":"Swaniawski, Kihn and Langworth","street_address":"981 Mockingbird Junction","city":"Joliet","state":"IL","postal_code":"60435","industry":"Business Services"},
{"id":"c39f8896-afa9-41a1-82fd-6ab6fea5fd81","name":"Grahams and Sons","street_address":"25 Montana Pass","city":"Phoenix","state":"AZ","postal_code":"85067","industry":"Hotels/Resorts"},
{"id":"a3e5fc09-c9b4-40b5-9b3b-8d445e1d533a","name":"Dach and Sons","street_address":"48 8th Way","city":"Ogden","state":"UT","postal_code":"84409","industry":"Radio And Television Broadcasting And Communications Equipment"},
{"id":"5832de8b-ec84-453f-bb52-db3cd7a91f20","name":"Effertz-Johnston","street_address":"446 High Crossing Center","city":"Trenton","state":"NJ","postal_code":"08603","industry":"n/a"},
{"id":"09cdcd9f-40d4-4184-b542-1a15d01c1bdd","name":"Kris, Williamson and Walter","street_address":"01 Russell Trail","city":"Camden","state":"NJ","postal_code":"08104","industry":"Homebuilding"},
{"id":"98722e11-abaa-478d-a34a-dfa9c29f4f36","name":"Hessel-Kilback","street_address":"9417 Mosinee Road","city":"Saint Louis","state":"MO","postal_code":"63180","industry":"Commercial Banks"},
{"id":"c8eb5f97-9a3c-4f81-a3f7-90ecaf5dfa3c","name":"Cassin, Konopelski and Hegmann","street_address":"52457 Longview Place","city":"Albuquerque","state":"NM","postal_code":"87195","industry":"Investment Managers"},
{"id":"97bab3d9-6b72-4f2f-b7b0-491ea28fbf4c","name":"Ullrich-Koch","street_address":"806 7th Alley","city":"Whittier","state":"CA","postal_code":"90610","industry":"Biotechnology: In Vitro & In Vivo Diagnostic Substances"},
{"id":"a1538d2e-49e3-4847-a46b-640e9ddfeaa8","name":"Morar and Sons","street_address":"96 Fulton Avenue","city":"Seattle","state":"WA","postal_code":"98185","industry":"n/a"},
{"id":"f9bf85ac-4ac2-4ece-bca5-8ad2f4c533fb","name":"Powlowski Inc","street_address":"324 Hagan Center","city":"Pompano Beach","state":"FL","postal_code":"33064","industry":"Publishing"},
{"id":"d56b8e83-547d-4019-8175-ec4d310cba4f","name":"Kris, Farrell and Greenfelder","street_address":"0 Almo Street","city":"Washington","state":"DC","postal_code":"20215","industry":"n/a"},
{"id":"21b450ce-ee10-4830-9636-9533e0c90b39","name":"Walker Group","street_address":"34 Tony Plaza","city":"Las Vegas","state":"NV","postal_code":"89120","industry":"n/a"},
{"id":"7b21ed28-7ce2-460a-b579-b4f67bd649a5","name":"Leuschke LLC","street_address":"68 Cardinal Point","city":"Fairfield","state":"CT","postal_code":"06825","industry":"Business Services"},
{"id":"e384f685-73d3-4c7d-88b8-1214a5a7ead1","name":"O'Conner and Sons","street_address":"081 Coolidge Pass","city":"Pittsburgh","state":"PA","postal_code":"15250","industry":"Other Specialty Stores"},
{"id":"22bd55c5-19ff-4226-ae14-7d0020665cb8","name":"Pfeffer, Bogisich and Nienow","street_address":"2 Monument Drive","city":"Flushing","state":"NY","postal_code":"11355","industry":"n/a"},
{"id":"bedb32ac-6252-410c-b006-264578a1ee68","name":"Heller-Denesik","street_address":"379 Hazelcrest Center","city":"Portland","state":"OR","postal_code":"97221","industry":"Oil & Gas Production"},
{"id":"330921d9-7d3c-4197-a7c8-15cbe70a2e50","name":"Dach-Kub","street_address":"848 Luster Pass","city":"Boise","state":"ID","postal_code":"83716","industry":"Oilfield Services/Equipment"},
{"id":"6b47cee9-05c9-4168-b1de-56b648fcda6a","name":"Daugherty, Ernser and Bernhard","street_address":"0 Hansons Way","city":"Inglewood","state":"CA","postal_code":"90398","industry":"Industrial Machinery/Components"},
{"id":"d9014a5a-de06-49ea-829b-8b691582c75e","name":"Moen Inc","street_address":"0956 Maple Plaza","city":"Ogden","state":"UT","postal_code":"84409","industry":"n/a"},
{"id":"6b6f5805-67dc-49fa-98d7-aa2bfad097fc","name":"Casper-Crona","street_address":"0 Algoma Terrace","city":"Salt Lake City","state":"UT","postal_code":"84152","industry":"Water Supply"},
{"id":"e693eaef-4d39-452d-b537-bd93fea5ffe1","name":"Swaniawski-Brakus","street_address":"01 Ilene Trail","city":"Rochester","state":"NY","postal_code":"14639","industry":"Real Estate"},
{"id":"5bd3a9eb-3290-4425-b1ef-1bff88ffe539","name":"Zemlak-Bernier","street_address":"2164 Pankratz Crossing","city":"Memphis","state":"TN","postal_code":"38119","industry":"Apparel"},
{"id":"3f7e27b3-a486-4483-9755-aa7790b85946","name":"Schaden-Rempel","street_address":"334 Westridge Lane","city":"Charlottesville","state":"VA","postal_code":"22908","industry":"Investment Bankers/Brokers/Service"},
{"id":"0599d863-7c8e-4d46-be5d-c72b3895cc7a","name":"Robel, Moen and Labadie","street_address":"2069 Surrey Road","city":"Washington","state":"DC","postal_code":"20238","industry":"n/a"},
{"id":"4006893d-ae7e-432a-bc81-ac2598cbcc8b","name":"Pfeffer and Sons","street_address":"3 Lake View Alley","city":"Kansas City","state":"MO","postal_code":"64144","industry":"Building Products"},
{"id":"dd046b75-3b01-4d16-a99e-ac7a7a473ec1","name":"Thompsons Group","street_address":"1047 La Follette Point","city":"Des Moines","state":"IA","postal_code":"50981","industry":"Property-Casualty Insurers"},
{"id":"99dab9e9-7281-415d-8fe5-c6cef6b59f71","name":"Cremin Group","street_address":"03543 Surrey Junction","city":"Corpus Christi","state":"TX","postal_code":"78405","industry":"Homebuilding"},
{"id":"afbb4027-2636-4442-90a0-6d63e20731ef","name":"Blanda Group","street_address":"1405 Vahlen Center","city":"Akron","state":"OH","postal_code":"44305","industry":"Industrial Machinery/Components"},
{"id":"ed37ae87-f461-42d2-bf24-8631aad856de","name":"Bernharded LLC","street_address":"0 Kenwood Place","city":"Kansas City","state":"MO","postal_code":"64187","industry":"n/a"},
{"id":"dbad7439-75e0-4a05-b874-90d823fc8050","name":"Lesch-Corkery","street_address":"23 Brentwood Plaza","city":"Kansas City","state":"MO","postal_code":"64160","industry":"n/a"},
{"id":"572b106f-fc0c-44f8-9542-02e6b069dddd","name":"Zemlak-Dickens","street_address":"2195 Tony Hill","city":"Nashville","state":"TN","postal_code":"37250","industry":"Savings Institutions"},
{"id":"4db51ac3-2f2b-4202-927e-780bc7f4d969","name":"Schowalter, Torphy and Vandervort","street_address":"58 Lakewood Lane","city":"Columbia","state":"SC","postal_code":"29203","industry":"Savings Institutions"},
{"id":"151b1228-bc69-4dee-b85a-1af7be166837","name":"Greenfelder and Sons","street_address":"51 Amoth Terrace","city":"Jackson","state":"TN","postal_code":"38308","industry":"Savings Institutions"},
{"id":"7ead6a50-3bbf-44b3-b61b-1ea604868c29","name":"Corkery, Wolff and Berge","street_address":"5270 Fulton Court","city":"Seattle","state":"WA","postal_code":"98127","industry":"Containers/Packaging"},
{"id":"e9b3a2e8-f4a2-4c5a-8c18-df5543aec85f","name":"O'Keefed LLC","street_address":"63 Maywood Circle","city":"El Paso","state":"TX","postal_code":"79999","industry":"n/a"},
{"id":"e2f2e4c4-ce04-487f-9c28-3ac94e47aeaa","name":"Rowe Inc","street_address":"3 Coleman Hill","city":"Topeka","state":"KS","postal_code":"66667","industry":"Major Pharmaceuticals"},
{"id":"37c3271d-6251-409a-a6a6-851e30ea05f1","name":"Robel, Langworth and Koepp","street_address":"96541 Browning Drive","city":"Madison","state":"WI","postal_code":"53785","industry":"Major Banks"},
{"id":"0518cc40-68d1-4b95-8227-9b3ca23598d3","name":"Bradtked LLC","street_address":"40531 Loomis Place","city":"Rochester","state":"NY","postal_code":"14652","industry":"Major Banks"},
{"id":"3fb00169-551b-48b4-83df-e61e42629ced","name":"Buckridge LLC","street_address":"84794 Clyde Gallagher Drive","city":"El Paso","state":"TX","postal_code":"79928","industry":"n/a"},
{"id":"7a70652c-0a73-443e-a2dd-8417da90607d","name":"Swift LLC","street_address":"007 Kedzie Center","city":"Chattanooga","state":"TN","postal_code":"37450","industry":"n/a"},
{"id":"8414fdad-6412-43bc-8c0b-bcd40d1752a0","name":"Johnson Group","street_address":"9 Hollow Ridge Hill","city":"Des Moines","state":"IA","postal_code":"50305","industry":"Precious Metals"},
{"id":"15f5f681-04d0-4f5b-8d19-639481edde2a","name":"Bayer, Goldner and Predovic","street_address":"41 Pierstorff Parkway","city":"Reading","state":"PA","postal_code":"19605","industry":"Oil & Gas Production"},
{"id":"323b3925-e81e-4a46-b0ba-d636e2d83f13","name":"Reichert-Brakus","street_address":"52 Redwing Park","city":"Colorado Springs","state":"CO","postal_code":"80951","industry":"Beverages (Production/Distribution)"},
{"id":"e808e6a0-a564-4cbf-a69f-cf6ac71fb107","name":"Ratke and Sons","street_address":"12396 Hoepker Pass","city":"Syracuse","state":"NY","postal_code":"13217","industry":"Biotechnology: Electromedical & Electrotherapeutic Apparatus"},
{"id":"f526bda6-69e6-417f-b091-4f45f5753740","name":"Dietrich, Kozey and Klocko","street_address":"2747 Larry Place","city":"Tampa","state":"FL","postal_code":"33605","industry":"Military/Government/Technical"},
{"id":"7007a567-ed93-47e2-8cc0-7380f6afd017","name":"Sawayn-Leuschke","street_address":"7 Sage Trail","city":"Shawnee Mission","state":"KS","postal_code":"66205","industry":"Major Pharmaceuticals"},
{"id":"cb5bf00e-b65b-4a33-8bb9-11aaf935e6c5","name":"Stokes-Block","street_address":"6 Del Mar Road","city":"Columbia","state":"SC","postal_code":"29215","industry":"Major Pharmaceuticals"},
{"id":"7804603d-c8c3-4a09-8184-b10588ef2bc8","name":"Ondricka, Hessel and Hettinger","street_address":"6617 Hanson Drive","city":"Las Vegas","state":"NV","postal_code":"89105","industry":"Real Estate Investment Trusts"},
{"id":"69688270-8636-40c6-bdd7-ce3d894917aa","name":"Hodkiewicz Inc","street_address":"46 Hovde Pass","city":"San Antonio","state":"TX","postal_code":"78225","industry":"Precious Metals"},
{"id":"966745cc-28f4-452c-bc0d-9a866bddee6d","name":"Bashirian Group","street_address":"23 Hazelcrest Way","city":"Brea","state":"CA","postal_code":"92822","industry":"n/a"},
{"id":"efd517bc-53af-404d-8536-7e6d457ce0ba","name":"Roob Group","street_address":"8403 Susan Court","city":"Harrisburg","state":"PA","postal_code":"17121","industry":"Real Estate Investment Trusts"},
{"id":"8a76f864-82a6-4f7c-b3d2-8ca97f140248","name":"Koelpin, D'Amore and Brakus","street_address":"0 Oriole Center","city":"Corpus Christi","state":"TX","postal_code":"78405","industry":"Industrial Specialties"},
{"id":"f306e83e-b42a-4e37-9770-1b565cbd86d4","name":"Towne, Kutch and Quigley","street_address":"62775 Larry Plaza","city":"Pittsburgh","state":"PA","postal_code":"15250","industry":"Shoe Manufacturing"},
{"id":"2c1d87da-ade2-4ce3-a85c-2cb4774cad76","name":"McKenzie, Boyle and Schinner","street_address":"89595 Towne Terrace","city":"Indianapolis","state":"IN","postal_code":"46295","industry":"Apparel"},
{"id":"779e7254-762b-460b-a19c-c7934bf462eb","name":"Quigley-Mohr","street_address":"277 Kropf Trail","city":"Seattle","state":"WA","postal_code":"98121","industry":"Hotels/Resorts"},
{"id":"de5543fa-02de-4054-83d6-d083eeed3c11","name":"Conn-Hodkiewicz","street_address":"26 Fallview Point","city":"Austin","state":"TX","postal_code":"78703","industry":"n/a"},
{"id":"ce095999-4aab-4476-ae06-ad2e8babf97b","name":"Daugherty-Ledner","street_address":"3564 Cody Terrace","city":"Brooklyn","state":"NY","postal_code":"11210","industry":"n/a"},
{"id":"7fcc9ec2-e277-4aee-90f2-963a61181029","name":"Kuhic Inc","street_address":"73214 Debra Way","city":"Philadelphia","state":"PA","postal_code":"19191","industry":"Major Banks"},
{"id":"4002032f-0f69-4d74-aae5-27bdb8abeb62","name":"Howe, McDermott and Treutel","street_address":"59 Express Terrace","city":"Buffalo","state":"NY","postal_code":"14205","industry":"Military/Government/Technical"},
{"id":"d2ec40f8-c125-401d-883c-9521555e80c6","name":"Kuhic, Frami and Predovic","street_address":"1525 Declaration Junction","city":"New York City","state":"NY","postal_code":"10249","industry":"Savings Institutions"},
{"id":"d840dd6c-ca22-48b1-8703-0ac9ad57167c","name":"Emardit and Sons","street_address":"87 Rieder Plaza","city":"Tucson","state":"AZ","postal_code":"85725","industry":"Major Pharmaceuticals"},
{"id":"89e53d4f-8231-4d27-8653-dd674e6a1fdb","name":"Lowe LLC","street_address":"4 Old Gate Park","city":"Jacksonville","state":"FL","postal_code":"32225","industry":"Diversified Commercial Services"},
{"id":"eea3d35e-195b-42ef-9249-d179246fe974","name":"Quitzon, Watsica and Senger","street_address":"52870 Donald Point","city":"Tucson","state":"AZ","postal_code":"85715","industry":"Business Services"},
{"id":"db75f2e3-4630-44bb-8b7a-58867afc86c0","name":"McCullough, VonRueden and Medhurst","street_address":"263 Maple Circle","city":"Dayton","state":"OH","postal_code":"45408","industry":"n/a"},
{"id":"385768bc-3380-4bdc-92aa-6a348b2c2057","name":"Ward-Okuneva","street_address":"418 Loeprich Street","city":"Tucson","state":"AZ","postal_code":"85754","industry":"Savings Institutions"},
{"id":"78bd9d8f-c0d1-40d1-8c1f-80a8e4f4d218","name":"Ernser-Wilderman","street_address":"72614 Tennyson Center","city":"Boston","state":"MA","postal_code":"02114","industry":"Real Estate Investment Trusts"},
{"id":"6d633e8a-1c43-459b-a0f5-83096521f921","name":"Nitzsche Group","street_address":"9 Fair Oaks Hill","city":"Spokane","state":"WA","postal_code":"99205","industry":"n/a"},
{"id":"ea0ca152-ce28-4189-8e55-45b093efb2b3","name":"Gradie and Sons","street_address":"507 Cambridge Junction","city":"Albuquerque","state":"NM","postal_code":"87121","industry":"n/a"},
{"id":"5c551666-30c3-41f3-87ea-8e260d077ed7","name":"Hilll-Ullrich","street_address":"24 Donald Alley","city":"Tampa","state":"FL","postal_code":"33633","industry":"n/a"},
{"id":"5c1d8b83-06d9-4199-9311-f59cd50a280c","name":"Feest, Bernhard and Auer","street_address":"5136 Kipling Point","city":"San Diego","state":"CA","postal_code":"92170","industry":"Power Generation"},
{"id":"edf0c8a7-246e-4c3c-b685-b5e49b12cb90","name":"Morissette Group","street_address":"323 Muir Point","city":"San Diego","state":"CA","postal_code":"92115","industry":"Major Chemicals"},
{"id":"4881218c-a41c-4b78-8c7c-85ee71b06262","name":"Grant and Sons","street_address":"98 Oriole Trail","city":"Huntsville","state":"AL","postal_code":"35815","industry":"Major Banks"},
{"id":"108e6f28-9075-42ed-992d-e462310f7176","name":"Hudson LLC","street_address":"9409 Anhalt Alley","city":"Fort Wayne","state":"IN","postal_code":"46862","industry":"Industrial Machinery/Components"},
{"id":"06178812-06ce-4594-9821-faa32b8b8c18","name":"Bernhard LLC","street_address":"65108 Fieldstone Lane","city":"Lynn","state":"MA","postal_code":"01905","industry":"Major Pharmaceuticals"},
{"id":"1db45a15-90e1-4a0d-bf30-dbc77511fb10","name":"Swift-Jast","street_address":"6 Gateway Alley","city":"Chicago","state":"IL","postal_code":"60657","industry":"Automotive Aftermarket"},
{"id":"ada48e93-8e98-489c-b775-23e551d55e74","name":"Ebert-Hills","street_address":"09546 Ronald Regan Center","city":"Fresno","state":"CA","postal_code":"93715","industry":"Major Banks"},
{"id":"80240354-8d4a-4882-8050-a87727d9fdc0","name":"Waters-Prosacco","street_address":"00 Derek Pass","city":"Norfolk","state":"VA","postal_code":"23509","industry":"Real Estate Investment Trusts"},
{"id":"9004d8ca-161c-4408-a99b-2c09b9541e02","name":"Grant LLC","street_address":"47 Hauk Parkway","city":"Fort Lauderdale","state":"FL","postal_code":"33355","industry":"Services-Misc. Amusement & Recreation"},
{"id":"cd43c0e2-d462-4047-9428-ff6b1e2424dc","name":"Klocko LLC","street_address":"9468 Brickson Park Terrace","city":"Annapolis","state":"MD","postal_code":"21405","industry":"Homebuilding"},
{"id":"aa42a9e0-6aad-422c-9211-d7d78ec30d65","name":"Breitenberg-Quitzon","street_address":"50 5th Point","city":"Nashville","state":"TN","postal_code":"37235","industry":"Computer Software: Prepackaged Software"},
{"id":"ed2f529a-231c-4de4-baa0-3b43fac859e2","name":"Dare Inc","street_address":"51622 Gale Parkway","city":"Birmingham","state":"AL","postal_code":"35236","industry":"n/a"},
{"id":"a3dfdb08-229a-4250-acca-11407e80bebf","name":"Hartmann LLC","street_address":"206 Thackeray Junction","city":"Nashville","state":"TN","postal_code":"37250","industry":"n/a"},
{"id":"85ef49c4-1670-4b2c-a3de-45c76f8778a0","name":"Rau LLC","street_address":"4193 Heath Avenue","city":"Jacksonville","state":"FL","postal_code":"32244","industry":"Investment Bankers/Brokers/Service"},
{"id":"7f2ed62c-f65a-4dee-96c4-1e8268f22041","name":"Runolfsson, Hoeger and Skiles","street_address":"02636 Kings Center","city":"Washington","state":"DC","postal_code":"20036","industry":"Agricultural Chemicals"},
{"id":"f53705df-f5b1-41ae-baee-829998cd258f","name":"Hahn and Sons","street_address":"1232 Onsgard Court","city":"Amarillo","state":"TX","postal_code":"79159","industry":"Investment Bankers/Brokers/Service"},
{"id":"2e8d9e93-ef74-470b-bb0a-9f3d040d6524","name":"Baumbach-Bednar","street_address":"9 Graceland Way","city":"Denver","state":"CO","postal_code":"80228","industry":"Major Banks"},
{"id":"196e3aaa-c383-4c8a-9b47-cd49d2e37a6e","name":"Lubowitz, Goldner and Erdman","street_address":"32427 Fremont Point","city":"Richmond","state":"VA","postal_code":"23228","industry":"n/a"},
{"id":"079c15a7-aa10-4e22-9670-5995860fab83","name":"Renner Group","street_address":"810 Kropf Junction","city":"Tampa","state":"FL","postal_code":"33610","industry":"Industrial Machinery/Components"},
{"id":"c0d16578-ebf0-4876-a802-c170e88356cc","name":"Lindgren LLC","street_address":"01885 Division Terrace","city":"Hollywood","state":"FL","postal_code":"33028","industry":"Electrical Products"},
{"id":"0d7c50ba-a0b2-4841-b568-f4c0bd53117e","name":"Wintheiser-Halvorson","street_address":"5 Duke Pass","city":"Saint Louis","state":"MO","postal_code":"63104","industry":"Specialty Insurers"},
{"id":"42a6667e-10a5-480d-9d0c-41cde659c729","name":"Kulas, Bechtelar and Willms","street_address":"31191 6th Junction","city":"Tallahassee","state":"FL","postal_code":"32304","industry":"Natural Gas Distribution"},
{"id":"217d5e66-4f85-4ba7-85fd-4bee47243c09","name":"Lueilwitz, Schiller and Kuhn","street_address":"7473 Little Fleur Lane","city":"East Saint Louis","state":"IL","postal_code":"62205","industry":"n/a"},
{"id":"64c3e95c-b197-43fb-b73a-50df02750f61","name":"Rosenbaum-Kihn","street_address":"344 Lillian Park","city":"Columbus","state":"OH","postal_code":"43210","industry":"Railroads"},
{"id":"24c226fb-a23f-4ba4-b82f-f677169ee53c","name":"Casper-Wuckert","street_address":"69112 Starling Place","city":"Phoenix","state":"AZ","postal_code":"85035","industry":"Real Estate"},
{"id":"2a60d3cc-9366-46a7-b88e-7373841c7f16","name":"Ledner Group","street_address":"4776 Pearson Hill","city":"Dayton","state":"OH","postal_code":"45408","industry":"Computer Manufacturing"},
{"id":"e31d4fc7-8865-49a6-84c1-1d05d4e4c8a4","name":"Lowe-Rice","street_address":"74 Morningstar Hill","city":"Peoria","state":"AZ","postal_code":"85383","industry":"Property-Casualty Insurers"},
{"id":"b8998cd8-2c33-48ba-bc94-b33034360c61","name":"Beatty-Little","street_address":"25 Kedzie Drive","city":"Brooksville","state":"FL","postal_code":"34605","industry":"n/a"},
{"id":"34038c0f-3a25-4fcd-bf0d-1b62fc0415e6","name":"Bernhard, Mraz and Shields","street_address":"8 Londonderry Circle","city":"Tampa","state":"FL","postal_code":"33686","industry":"n/a"},
{"id":"cecfb721-ffac-44de-8270-a0c444b79122","name":"Pfeffer-Cartwright","street_address":"9 Claremont Point","city":"San Francisco","state":"CA","postal_code":"94132","industry":"Business Services"},
{"id":"69f0a709-7875-4110-9350-a7153247361b","name":"Orn, Murphy and Russel","street_address":"8462 Waxwing Point","city":"El Paso","state":"TX","postal_code":"88535","industry":"Electronic Components"},
{"id":"150689e6-f36f-42dd-9cf0-63a70c36d9e8","name":"Johnson, D'Amore and Emard","street_address":"9955 Elmside Junction","city":"Kansas City","state":"MO","postal_code":"64114","industry":"EDP Services"},
{"id":"34171ae5-5043-4c6e-a06f-69774e7afb56","name":"Walsh-Skiles","street_address":"95 Maryland Alley","city":"Dallas","state":"TX","postal_code":"75205","industry":"Railroads"},
{"id":"89ed6cb1-783c-4874-adac-f973c9c81bae","name":"Bogan, Schulist and Quitzon","street_address":"0337 Nova Way","city":"Louisville","state":"KY","postal_code":"40220","industry":"Integrated oil Companies"},
{"id":"8e894c2d-14b9-4c33-ae5f-1ffdb6859e62","name":"Lynch, Abshire and Marks","street_address":"67470 Scofield Terrace","city":"Corona","state":"CA","postal_code":"92883","industry":"Major Banks"},
{"id":"5e20f55f-d3fa-48da-bddc-0a67d728a591","name":"Mitchell, Hessel and McDermott","street_address":"62 Cambridge Center","city":"Stockton","state":"CA","postal_code":"95298","industry":"Major Pharmaceuticals"},
{"id":"7bb7fa85-558b-41dc-82ef-248a9997bd94","name":"Kutch-Littel","street_address":"929 Shoshone Circle","city":"Burbank","state":"CA","postal_code":"91520","industry":"Power Generation"},
{"id":"c37cfa34-c7af-43a4-b2fb-a5b74fda83e4","name":"Gleichner LLC","street_address":"4391 Cordelia Crossing","city":"Gulfport","state":"MS","postal_code":"39505","industry":"Home Furnishings"},
{"id":"e5c85ea8-c3b3-4f49-b180-af534c46b3f2","name":"Parisian Group","street_address":"88534 Corben Hill","city":"Colorado Springs","state":"CO","postal_code":"80925","industry":"Major Pharmaceuticals"},
{"id":"03bbe3b1-7990-416c-85bf-6e1e2d744023","name":"Bradtke-Farrell","street_address":"3 Mitchell Alley","city":"Austin","state":"TX","postal_code":"78721","industry":"n/a"},
{"id":"10c72bb6-4c51-447a-b6e7-ff045d5c89b1","name":"Renner-Beatty","street_address":"9297 Del Sol Court","city":"Boston","state":"MA","postal_code":"02298","industry":"Oil & Gas Production"},
{"id":"72e4dfe4-3c65-4e7a-8245-a666f5e0674d","name":"Casper, Johns and Kunze","street_address":"565 Onsgard Crossing","city":"Atlanta","state":"GA","postal_code":"30380","industry":"Agricultural Chemicals"},
{"id":"0433d1bb-7ea9-4043-ae84-1d1eeb3922fc","name":"Grady, Ortiz and Bahringer","street_address":"07 Ohio Place","city":"Manassas","state":"VA","postal_code":"22111","industry":"Farming/Seeds/Milling"},
{"id":"47db6133-d5ce-4b39-b008-309b725e18f6","name":"Dach-Pacocha","street_address":"5426 New Castle Parkway","city":"Glendale","state":"AZ","postal_code":"85305","industry":"Major Banks"},
{"id":"563ffd76-c447-4d4c-8296-1f6ead57b9e1","name":"Nitzsche-Wisozk","street_address":"97 School Drive","city":"Jackson","state":"TN","postal_code":"38308","industry":"Newspapers/Magazines"},
{"id":"08edcc1c-a16c-4291-950b-15892a310fed","name":"Konopelsky Inc","street_address":"986 Miller Circle","city":"Albany","state":"NY","postal_code":"12247","industry":"Telecommunications Equipment"},
{"id":"d703dcbb-ce88-43e3-b49f-4c15ed5a8907","name":"Harbers LLC","street_address":"13848 Scoville Place","city":"Grand Rapids","state":"MI","postal_code":"49544","industry":"Other Specialty Stores"},
{"id":"be98b6f2-d6bb-4e56-8bb3-966747beb84b","name":"Cruickshank-Padberg","street_address":"66683 Sullivan Terrace","city":"Greenville","state":"SC","postal_code":"29615","industry":"Railroads"},
{"id":"34167f40-d362-4ac4-965f-0a85e388cacd","name":"Goldner-Schultz","street_address":"56 Esker Park","city":"Louisville","state":"KY","postal_code":"40250","industry":"Packaged Foods"},
{"id":"44298f32-0a35-4680-a726-46900d34dd72","name":"Denesik Group","street_address":"13 John Wall Crossing","city":"Hartford","state":"CT","postal_code":"06105","industry":"Medical Specialities"},
{"id":"7c06253d-4ade-45f8-8477-5f42c1aa5334","name":"Kihn LLC","street_address":"95 Rusk Park","city":"Portland","state":"OR","postal_code":"97221","industry":"n/a"},
{"id":"926988f2-e344-4bc0-b79e-aacccf60deea","name":"Howell-Wiegand","street_address":"93066 Dahle Pass","city":"Omaha","state":"NE","postal_code":"68164","industry":"Electrical Products"},
{"id":"3c38099f-6275-422d-bd6f-7b81b6d7e56a","name":"Beahan-Pagac","street_address":"35947 5th Street","city":"Las Vegas","state":"NV","postal_code":"89155","industry":"Major Pharmaceuticals"},
{"id":"71682f1b-f503-443d-8397-49570da4d2d7","name":"Daugherty-Schinner","street_address":"53249 Sauthoff Plaza","city":"Virginia Beach","state":"VA","postal_code":"23454","industry":"Major Banks"},
{"id":"b82d439d-6b6a-40f3-9ae5-a43342716dbd","name":"Wisozk, Bosco and Grant","street_address":"11 Prairie Rose Place","city":"Saint Petersburg","state":"FL","postal_code":"33715","industry":"n/a"},
{"id":"e1dbe291-033d-47f1-9018-652505ec7992","name":"Rolfson, Considine and Nicolas","street_address":"42240 Grim Park","city":"Dallas","state":"TX","postal_code":"75216","industry":"Apparel"},
{"id":"641ab84b-d01d-48d7-95d5-2b2ad968212d","name":"Gleichner, Batz and Russel","street_address":"790 Packers Point","city":"Sandy","state":"UT","postal_code":"84093","industry":"Automotive Aftermarket"},
{"id":"a5fff872-ab65-49e1-b8c8-b6068203e0b5","name":"Kiehn-Monahan","street_address":"135 Browning Trail","city":"Akron","state":"OH","postal_code":"44393","industry":"Air Freight/Delivery Services"},
{"id":"3b9cc909-2161-4d03-ade7-5e8a9f4d0502","name":"Rice and Sons","street_address":"7124 Homewood Trail","city":"Orange","state":"CA","postal_code":"92862","industry":"Homebuilding"},
{"id":"32ac65fb-7cc5-4cc1-8ff8-1ae3ba568901","name":"Murphy-Beer","street_address":"91 Pawling Alley","city":"Abilene","state":"TX","postal_code":"79699","industry":"Major Pharmaceuticals"},
{"id":"467cbffb-a39d-4cbf-8e0e-9f2b19213201","name":"Yundt and Sons","street_address":"7 3rd Pass","city":"Palo Alto","state":"CA","postal_code":"94302","industry":"n/a"},
{"id":"bd2b169d-c0ac-42c7-8708-89388d830a34","name":"Bayer, Kris and Will","street_address":"294 Mcbride Road","city":"Dayton","state":"OH","postal_code":"45419","industry":"n/a"},
{"id":"9d1e0a4a-7cd6-4f8b-a1d1-5414ab3aeebe","name":"Spinka-Lakin","street_address":"76263 Commercial Circle","city":"Waco","state":"TX","postal_code":"76705","industry":"Biotechnology: Biological Products (No Diagnostic Substances)"},
{"id":"944a336c-6e80-4a75-b9aa-e8cb06b555f8","name":"Jacobs and Sons","street_address":"999 Holmberg Terrace","city":"Omaha","state":"NE","postal_code":"68164","industry":"Semiconductors"},
{"id":"0cd67b78-cd49-4213-bad9-297994841884","name":"Runtee Inc","street_address":"6848 Waxwing Trail","city":"Macon","state":"GA","postal_code":"31210","industry":"Oil & Gas Production"},
{"id":"dbbec2ac-3b54-4f38-b0c5-ee7d57c0ccf5","name":"Bartell-McClure","street_address":"4 Anzinger Plaza","city":"Cincinnati","state":"OH","postal_code":"45271","industry":"n/a"},
{"id":"50be45b3-e662-47e5-b579-80439b6efc7a","name":"Ullrich, Bogan and Macejkovic","street_address":"95145 Sachtjen Court","city":"Philadelphia","state":"PA","postal_code":"19093","industry":"Air Freight/Delivery Services"},
{"id":"d248b072-0807-40eb-9b34-733fc2fc058c","name":"Schumm and Sons","street_address":"2 Cambridge Way","city":"Boise","state":"ID","postal_code":"83727","industry":"Military/Government/Technical"},
{"id":"f6a2a55c-15e4-440e-9c09-d3af114b91de","name":"Stanton, Maggio and Gulgowski","street_address":"6354 Carioca Avenue","city":"Billings","state":"MT","postal_code":"59105","industry":"n/a"},
{"id":"b8222269-da25-4f9a-9de6-979be239b147","name":"Johns, Herman and Heathcote","street_address":"54115 Crescent Oaks Place","city":"San Jose","state":"CA","postal_code":"95194","industry":"n/a"},
{"id":"411e248b-c061-4155-af20-961fb0509dc8","name":"Labadie, Tromp and Heller","street_address":"302 Sugar Hill","city":"Rochester","state":"NY","postal_code":"14624","industry":"Beverages (Production/Distribution)"},
{"id":"ba3af393-8277-4e6f-ac2d-7927a5209cc0","name":"Nader-Kuhic","street_address":"8019 Moose Avenue","city":"Anaheim","state":"CA","postal_code":"92825","industry":"Hotels/Resorts"},
{"id":"ef7a3794-edf8-4887-abbb-382acb78cba7","name":"Muraziks LLC","street_address":"57 Dakota Way","city":"Shreveport","state":"LA","postal_code":"71137","industry":"Major Banks"},
{"id":"166e3bc2-47c4-4d50-8d95-0ae658c820de","name":"Ryan and Sons","street_address":"5 Susan Pass","city":"Gastonia","state":"NC","postal_code":"28055","industry":"Business Services"},
{"id":"e943fd40-0896-4fe6-8a84-06131d0ebf66","name":"Abshire Inc","street_address":"65 Oneill Point","city":"Bakersfield","state":"CA","postal_code":"93399","industry":"Automotive Aftermarket"},
{"id":"9e60812a-9ba5-4aeb-b916-6233204a08b4","name":"Jenkins, Marks and Carter","street_address":"1461 New Castle Circle","city":"Marietta","state":"GA","postal_code":"30061","industry":"Industrial Machinery/Components"},
{"id":"871922c9-c3de-4a6d-af46-70c2a9984489","name":"Robel-Nolan","street_address":"105 Browning Avenue","city":"Hartford","state":"CT","postal_code":"06105","industry":"Real Estate Investment Trusts"},
{"id":"e6e21153-d0b0-45f0-8737-ce85d3aeed0b","name":"Boyer, Kemmer and Cartwright","street_address":"09609 Dixon Center","city":"Atlanta","state":"GA","postal_code":"30328","industry":"Beverages (Production/Distribution)"},
{"id":"726e1bcc-9e12-4177-98f7-6fe8e389049f","name":"Watsica, Murphy and Schinner","street_address":"93590 Becker Street","city":"Apache Junction","state":"AZ","postal_code":"85219","industry":"n/a"},
{"id":"503eb2cb-6a28-447d-aa53-e6d877897fb6","name":"Schulist, Glover and Connelly","street_address":"9943 Sherman Park","city":"Mesa","state":"AZ","postal_code":"85215","industry":"Engineering & Construction"},
{"id":"326633ab-9dee-4376-8f07-fc6219c966d0","name":"Roberts-Strosin","street_address":"66851 Pierstorff Drive","city":"Springfield","state":"MA","postal_code":"01129","industry":"Medical/Dental Instruments"},
{"id":"594ffa7f-7b1c-48f4-a55c-8892d5b2a4f2","name":"Skiles Inc","street_address":"7 Maple Wood Pass","city":"Alexandria","state":"VA","postal_code":"22301","industry":"Investment Bankers/Brokers/Service"},
{"id":"15fa38d0-90d3-4f31-9331-e522941eb84f","name":"Hermann Group","street_address":"6116 Crescent Oaks Pass","city":"Topeka","state":"KS","postal_code":"66699","industry":"Plastic Products"},
{"id":"185faf27-2939-408d-ba80-49a70e6bc16e","name":"Hamill, Schuster and Cronin","street_address":"67 Ohio Parkway","city":"Paterson","state":"NJ","postal_code":"07544","industry":"Computer Communications Equipment"},
{"id":"c508f580-a0bd-4bb0-a0fa-0a8b5c949bc2","name":"Herman, Huel and Bartell","street_address":"19314 Dorton Way","city":"Orlando","state":"FL","postal_code":"32825","industry":"Business Services"},
{"id":"bcd2cc7c-e128-40cd-8133-7b0df1b2b483","name":"Boehm, Tillman and Kunze","street_address":"16 Manufacturers Junction","city":"Norfolk","state":"VA","postal_code":"23504","industry":"Major Chemicals"},
{"id":"0fcca3f6-05ae-4ec7-92f6-6b07709ced77","name":"Crona, Bartell and Sauer","street_address":"9 Becker Road","city":"Charleston","state":"WV","postal_code":"25389","industry":"Real Estate Investment Trusts"},
{"id":"2431a037-006d-4558-9040-55b330f0db78","name":"Green Group","street_address":"64 Victoria Crossing","city":"Salt Lake City","state":"UT","postal_code":"84140","industry":"n/a"},
{"id":"a4498a2b-6ce2-486b-848d-5ca9150d922c","name":"Stanton-Hane","street_address":"8517 Evergreen Drive","city":"Philadelphia","state":"PA","postal_code":"19109","industry":"Real Estate Investment Trusts"},
{"id":"1c12ecd2-3951-437b-a14d-5f730c5dea98","name":"Abbott-Kshlerin","street_address":"1 Lyons Terrace","city":"Miami","state":"FL","postal_code":"33164","industry":"Major Banks"},
{"id":"cc68a93a-e871-4690-ba41-9b225f1ca10c","name":"Leffler, Carter and Feil","street_address":"65 Parkside Court","city":"Honolulu","state":"HI","postal_code":"96845","industry":"Major Pharmaceuticals"},
{"id":"a2128be0-1fe6-4402-9a6c-8ae16b886440","name":"Feil and Sons","street_address":"34 Fallview Court","city":"Pueblo","state":"CO","postal_code":"81010","industry":"Major Banks"},
{"id":"57292bb5-c3d9-4848-91a2-58a9d44b3659","name":"Bruen, Leuschke and Jenkins","street_address":"284 Tennessee Plaza","city":"Kansas City","state":"KS","postal_code":"66105","industry":"n/a"},
{"id":"9eaf7cf0-67ae-4877-ac2e-3e470e1e7db0","name":"Konopelski-Johnston","street_address":"6 Dovetail Hill","city":"Houston","state":"TX","postal_code":"77234","industry":"Real Estate Investment Trusts"},
{"id":"b3171b75-f452-4457-91da-0c65035261b2","name":"Johns LLC","street_address":"298 Melody Drive","city":"Anchorage","state":"AK","postal_code":"99507","industry":"Plastic Products"},
{"id":"70c1faff-8c0b-476d-b492-41bfa37910a0","name":"Ernser, Howe and Kirlin","street_address":"42 Butterfield Lane","city":"Memphis","state":"TN","postal_code":"38131","industry":"Computer Software: Prepackaged Software"},
{"id":"211742fb-65a5-405f-8e87-9bd09d19517b","name":"Miller-Gerlach","street_address":"7 Becker Circle","city":"Stockton","state":"CA","postal_code":"95205","industry":"n/a"},
{"id":"82b95662-1f16-41cc-8315-584632dd856f","name":"Harber, Hilpert and Beatty","street_address":"95 Sullivan Place","city":"Washington","state":"DC","postal_code":"20088","industry":"Electronic Components"},
{"id":"a2f14e9e-06cc-4f21-a667-c5fac175ad8c","name":"Larkin, Cassin and Mosciski","street_address":"51 Doe Crossing Circle","city":"Chicago","state":"IL","postal_code":"60657","industry":"Savings Institutions"},
{"id":"a7c7f7f4-b1f7-436c-ad98-559646065f09","name":"Wilderman Inc","street_address":"35971 8th Parkway","city":"Harrisburg","state":"PA","postal_code":"17140","industry":"Precision Instruments"},
{"id":"5e8953e7-9497-477f-91cf-b6f79b9a1324","name":"Runte, Sauer and Emard","street_address":"57 Forest Run Street","city":"Tucson","state":"AZ","postal_code":"85725","industry":"Marine Transportation"},
{"id":"40b26a79-a789-4531-92cd-26f88ab63b99","name":"Heathcote Inc","street_address":"236 Dakota Junction","city":"Washington","state":"DC","postal_code":"20244","industry":"n/a"},
{"id":"a4fc8656-8440-46f1-ac64-d3fa35c7f799","name":"Wilkinson LLC","street_address":"141 Kim Pass","city":"Jefferson City","state":"MO","postal_code":"65105","industry":"Property-Casualty Insurers"},
{"id":"4fd49bb2-2540-4904-ae5c-d750833f10f2","name":"Walker, Oberbrunner and Feeney","street_address":"9 Atwood Hill","city":"Tampa","state":"FL","postal_code":"33625","industry":"Real Estate Investment Trusts"},
{"id":"2db65555-4413-4703-b8a1-df286f853729","name":"Hirthe, Thompson and Rodriguez","street_address":"7 Glacier Hill Avenue","city":"New York City","state":"NY","postal_code":"10280","industry":"Package Goods/Cosmetics"},
{"id":"30cab6fc-2660-4019-a45f-be998aed1151","name":"Cole and Sons","street_address":"90372 Eagle Crest Terrace","city":"Tempe","state":"AZ","postal_code":"85284","industry":"Major Banks"},
{"id":"5ba00d81-79aa-421f-ba17-f9b7d18bbcf3","name":"Christiansen Inc","street_address":"0 Mandrake Lane","city":"Amarillo","state":"TX","postal_code":"79176","industry":"EDP Services"},
{"id":"7109de83-1feb-4f54-a730-78bd184d38a5","name":"McLaughlin and Sons","street_address":"01 Pine View Junction","city":"Fairfield","state":"CT","postal_code":"06825","industry":"Major Pharmaceuticals"},
{"id":"1947ce7a-6afb-4866-b92b-80da154f2028","name":"O'Keefe LLC","street_address":"23957 Sage Alley","city":"Fort Worth","state":"TX","postal_code":"76110","industry":"Auto Manufacturing"},
{"id":"310dd6be-78d5-47ff-8998-6fec3c2a33e5","name":"Strosin, Willms and Fadel","street_address":"04436 Iowa Plaza","city":"Gulfport","state":"MS","postal_code":"39505","industry":"Major Chemicals"},
{"id":"c845f07a-fd5e-46b7-a749-9df4868fdad2","name":"Tillman LLC","street_address":"257 Kenwood Way","city":"Orlando","state":"FL","postal_code":"32825","industry":"Major Banks"},
{"id":"4005ed16-60cc-4ab4-8536-6f471c4b444e","name":"Hintzzz and Sons","street_address":"0752 Portage Park","city":"Kansas City","state":"MO","postal_code":"64101","industry":"RETAIL: Building Materials"},
{"id":"084385db-0a50-4612-838b-1ad644fd3d41","name":"Hintz-Stanton","street_address":"6 Lillian Circle","city":"Mesa","state":"AZ","postal_code":"85205","industry":"Professional Services"},
{"id":"9fa72abe-14bd-4824-a392-f7cfa9bc5628","name":"Hettinger, Sanford and Pacocha","street_address":"043 Waubesa Terrace","city":"Chesapeake","state":"VA","postal_code":"23324","industry":"Real Estate Investment Trusts"},
{"id":"6ae9e33c-0f5a-4d58-9e91-43b3c35df03b","name":"Hackett-Willms","street_address":"28 Novick Park","city":"Mesquite","state":"TX","postal_code":"75185","industry":"Computer Software: Prepackaged Software"},
{"id":"00e2bd42-1f34-4e06-87de-1313d90ebc04","name":"Hamill-Schuppe","street_address":"6478 Dunning Place","city":"Washington","state":"DC","postal_code":"20036","industry":"Oil & Gas Production"},
{"id":"6498c50a-e8a2-4298-bbd0-506130cbef01","name":"Jacobson Group","street_address":"0378 Bobwhite Circle","city":"Detroit","state":"MI","postal_code":"48206","industry":"Business Services"},
{"id":"480d3be3-fedb-45d7-8a38-2073bd331191","name":"Buckridge, Kihn and Erdman","street_address":"39553 Carey Plaza","city":"Portsmouth","state":"NH","postal_code":"00214","industry":"Investment Managers"},
{"id":"0fcba196-5ca0-4e8a-b70c-aaacb77d2574","name":"Auer-O'Connell","street_address":"99383 Brickson Park Pass","city":"Washington","state":"DC","postal_code":"20041","industry":"Industrial Machinery/Components"},
{"id":"3ed60680-0608-4c1c-a014-7a9f89900907","name":"Roob and Sons","street_address":"6690 Lien Circle","city":"South Bend","state":"IN","postal_code":"46699","industry":"Major Banks"},
{"id":"3dcfe065-ce28-4926-87e5-35c223cbc55a","name":"Hodkiewicz, Halvorson and Kilback","street_address":"2819 Dayton Trail","city":"Anchorage","state":"AK","postal_code":"99522","industry":"Major Banks"},
{"id":"c0f55271-a142-4bf9-a07c-f6398d47fc40","name":"Reynolds, Nitzsche and Trantow","street_address":"6009 Kropf Pass","city":"Austin","state":"TX","postal_code":"78764","industry":"Radio And Television Broadcasting And Communications Equipment"},
{"id":"aa06edc4-5908-4bc6-91d5-2184d1fc4146","name":"Rogahn, Sipes and Pollich","street_address":"55125 Burrows Circle","city":"Columbus","state":"GA","postal_code":"31904","industry":"Major Pharmaceuticals"},
{"id":"63181a99-61ff-40b5-8b4d-5f9d09c070f1","name":"Dickens LLC","street_address":"64 Holmberg Avenue","city":"Dallas","state":"TX","postal_code":"75251","industry":"Computer Software: Prepackaged Software"},
{"id":"bf43d942-9aa4-4102-8e54-2b2ea7b94bd0","name":"Will, Douglas and Miller","street_address":"869 Summer Ridge Trail","city":"South Bend","state":"IN","postal_code":"46614","industry":"Other Specialty Stores"},
{"id":"6330eff9-206c-4e23-a0d7-f7e3f9277441","name":"Jacobs-Pfeffer","street_address":"0 Green Ridge Street","city":"Virginia Beach","state":"VA","postal_code":"23454","industry":"Restaurants"},
{"id":"0bb796a0-3163-467b-bb24-da577bd82933","name":"West-Hansen","street_address":"190 Dakota Hill","city":"Winston Salem","state":"NC","postal_code":"27157","industry":"n/a"},
{"id":"0e2b5d2e-27cc-4686-8441-23c86379191b","name":"Marvin, Hane and Konopelski","street_address":"00906 Brown Road","city":"Palmdale","state":"CA","postal_code":"93591","industry":"Major Pharmaceuticals"},
{"id":"a04aa5ae-b31b-4baa-8de4-12d374ff8231","name":"Kiehn Inc","street_address":"099 Meadow Ridge Way","city":"Milwaukee","state":"WI","postal_code":"53234","industry":"Biotechnology: Commercial Physical & Biological Resarch"},
{"id":"d5e1cf5b-4a27-44df-bf22-6169c6cf143e","name":"Raynor Inc","street_address":"96 Truax Terrace","city":"Roanoke","state":"VA","postal_code":"24048","industry":"Marine Transportation"},
{"id":"a68f87f3-ff2b-440a-9114-f60395922665","name":"Wilderman, Oberbrunner and Schulist","street_address":"20 Sunbrook Junction","city":"Naples","state":"FL","postal_code":"34108","industry":"n/a"},
{"id":"4ff4ec1b-e84a-41d5-ac86-2fc9b5e140fe","name":"Purdy, Moen and Zemlak","street_address":"05 Riverside Alley","city":"Austin","state":"TX","postal_code":"78715","industry":"Oil & Gas Production"},
{"id":"1ea8e5c9-dd16-4ed6-a486-1debc5ef13b8","name":"Pfannerstill-Auer","street_address":"03 Reindahl Plaza","city":"Philadelphia","state":"PA","postal_code":"19141","industry":"Savings Institutions"},
{"id":"b6f2932f-040d-4dd1-8bc4-191b845cd237","name":"Adams-Kreiger","street_address":"8243 Rieder Court","city":"Albuquerque","state":"NM","postal_code":"87115","industry":"n/a"},
{"id":"d92b7858-75c2-4e44-81e6-f4af3faeee30","name":"Gottlieb LLC","street_address":"291 Delladonna Point","city":"Charleston","state":"WV","postal_code":"25321","industry":"Finance: Consumer Services"},
{"id":"67ca0dda-6d79-4d25-8c72-470aecdc2992","name":"Dare, Koelpin and Nicolas","street_address":"2758 Lakewood Gardens Way","city":"Jacksonville","state":"FL","postal_code":"32209","industry":"Diversified Commercial Services"},
{"id":"391cd5ba-25b6-4743-95ac-5c6c4682d5bb","name":"VonRueden-Gaylord","street_address":"65 Memorial Park","city":"Columbus","state":"OH","postal_code":"43220","industry":"Electrical Products"},
{"id":"48f1551f-d162-4c0b-9096-75b778a22d65","name":"Kemmer-Kirlin","street_address":"58 Kedzie Way","city":"Columbia","state":"SC","postal_code":"29203","industry":"Major Chemicals"},
{"id":"d9df7d6d-5bee-486e-84ad-94ebddbd04e9","name":"Hamill, Wolff and Hackett","street_address":"16458 Shopko Parkway","city":"Atlanta","state":"GA","postal_code":"30358","industry":"n/a"},
{"id":"10386020-214b-4e23-9aff-671ab966e415","name":"O'Hara, Cummerata and Quigley","street_address":"571 Homewood Way","city":"Pittsburgh","state":"PA","postal_code":"15210","industry":"Metal Fabrications"},
{"id":"1e7dfc2f-7420-428f-a89c-5cef08ffacd5","name":"Torphy-Douglas","street_address":"99347 Gulseth Pass","city":"Vienna","state":"VA","postal_code":"22184","industry":"Real Estate Investment Trusts"},
{"id":"1f19cb74-1a6c-4ae0-99e1-ea7cf2b49684","name":"Bogan-Hayes","street_address":"7 Mayfield Way","city":"Washington","state":"DC","postal_code":"20244","industry":"Industrial Machinery/Components"},
{"id":"dfc9a9fb-b5f7-4dfb-b893-22dac38877ac","name":"Watsica-Grimes","street_address":"5367 6th Point","city":"Cleveland","state":"OH","postal_code":"44111","industry":"Environmental Services"},
{"id":"d364f216-04cf-4efb-8900-fb1075720f59","name":"Pouros-Runte","street_address":"3008 Scoville Avenue","city":"Fort Wayne","state":"IN","postal_code":"46857","industry":"n/a"},
{"id":"939cd941-a619-4f6f-97ce-bbcccb25a4b0","name":"Hammes-Nienow","street_address":"6205 Corry Avenue","city":"Tampa","state":"FL","postal_code":"33647","industry":"Oil & Gas Production"},
{"id":"e960715c-4ed8-40ea-9da3-85dcdb0f9ebd","name":"Green LLC","street_address":"0 Helena Plaza","city":"San Francisco","state":"CA","postal_code":"94137","industry":"Major Pharmaceuticals"},
{"id":"f580fff8-4428-4c73-ac37-62ae2b403352","name":"Schadenl LLC","street_address":"8788 Glacier Hill Junction","city":"Riverside","state":"CA","postal_code":"92519","industry":"Building operators"},
{"id":"249a6f62-bb72-452e-aa8e-d878d3a633c3","name":"Reynolds-Bailey","street_address":"55 Tony Hill","city":"Panama City","state":"FL","postal_code":"32405","industry":"n/a"},
{"id":"5e458ff0-9e93-479a-8c46-437b108f3e91","name":"Mohr, King and West","street_address":"43092 Charing Cross Center","city":"Washington","state":"DC","postal_code":"20409","industry":"n/a"},
{"id":"24edbbbc-6c4d-4aa3-9133-fe7bff6028de","name":"Hamill, Cassin and Metz","street_address":"39 Maple Avenue","city":"Houston","state":"TX","postal_code":"77015","industry":"Real Estate"},
{"id":"f9d39e94-f517-4d13-8e3c-a5ed94df4d93","name":"Bradtke Group","street_address":"4028 Fremont Drive","city":"Orlando","state":"FL","postal_code":"32868","industry":"n/a"},
{"id":"deffe6c5-b5f7-4130-b8e4-21900cd7dadf","name":"Walker and Sons","street_address":"64 Welch Trail","city":"Tuscaloosa","state":"AL","postal_code":"35405","industry":"Restaurants"},
{"id":"9347887d-2b3c-479c-b09f-dfea15d19a11","name":"Torphy Inc","street_address":"358 Fair Oaks Pass","city":"Youngstown","state":"OH","postal_code":"44555","industry":"n/a"},
{"id":"ed283e70-d828-47a3-b9a5-bac02c01e5b2","name":"Marks Inc","street_address":"723 Carpenter Street","city":"Wilmington","state":"DE","postal_code":"19805","industry":"n/a"},
{"id":"02e8e056-0e09-40a8-be6e-84a80e820738","name":"Bosco, Volkman and Runolfsdottir","street_address":"812 Becker Street","city":"Dallas","state":"TX","postal_code":"75353","industry":"n/a"},
{"id":"16795670-93ea-4433-b277-31607a0d7d5d","name":"Crona-Ondricka","street_address":"0105 Armistice Pass","city":"Fresno","state":"CA","postal_code":"93773","industry":"Commercial Banks"},
{"id":"4daeb92d-aad2-405a-80be-775290d93ee3","name":"Murphy and Sons","street_address":"9 Farwell Plaza","city":"Wichita Falls","state":"TX","postal_code":"76305","industry":"Major Pharmaceuticals"},
{"id":"1a9f19b8-a3e4-4a01-b963-b74e7ef41553","name":"Wisoky-Cronin","street_address":"16 Grayhawk Avenue","city":"Evansville","state":"IN","postal_code":"47732","industry":"Diversified Commercial Services"},
{"id":"cf6711f8-6057-4034-b84d-a0f73cea94fe","name":"Shields, Tremblay and Cruickshank","street_address":"364 David Circle","city":"Philadelphia","state":"PA","postal_code":"19172","industry":"Computer Manufacturing"},
{"id":"71fc820d-31db-4261-b010-46bde6a8550b","name":"Jones, Schiller and Gislason","street_address":"6 Lawn Street","city":"Syracuse","state":"NY","postal_code":"13210","industry":"n/a"},
{"id":"98855621-1b2d-4ad8-867f-f97896a763ca","name":"Gibson-Hamill","street_address":"653 Maple Drive","city":"Washington","state":"DC","postal_code":"20436","industry":"Restaurants"},
{"id":"3698da12-a85b-4119-84d1-3f347fc92d0e","name":"Thiel, Kutch and Herzog","street_address":"5 Di Loreto Point","city":"Houston","state":"TX","postal_code":"77240","industry":"Other Specialty Stores"},
{"id":"5becafd1-c816-4f2e-b1ab-b483c348ad18","name":"Friesen-Pouros","street_address":"02424 Eggendart Road","city":"Salt Lake City","state":"UT","postal_code":"84105","industry":"Business Services"},
{"id":"833811b5-f8f6-47a2-a6c7-d8362c946e02","name":"Ondricka, Robel and Veum","street_address":"59454 Northridge Avenue","city":"San Francisco","state":"CA","postal_code":"94132","industry":"Computer Software: Programming, Data Processing"},
{"id":"aa6ab498-29fe-4488-bb94-c09170f2ad2a","name":"Rosenbaum Inc","street_address":"0 International Circle","city":"Washington","state":"DC","postal_code":"20530","industry":"RETAIL: Building Materials"},
{"id":"081be23e-91f2-4180-9ea0-42b627fea5ac","name":"Effertz and Sons","street_address":"04 Mcguire Terrace","city":"Washington","state":"DC","postal_code":"20067","industry":"Major Chemicals"},
{"id":"f3465fa9-6842-44ba-af7d-4bd4f19fa0bf","name":"Stehr, Haley and Goodwin","street_address":"5 Victoria Plaza","city":"Indianapolis","state":"IN","postal_code":"46266","industry":"Marine Transportation"},
{"id":"44f8ea72-24ec-44fd-b57e-8fc8053c127a","name":"Lubowitz Group","street_address":"42 Porter Hill","city":"Melbourne","state":"FL","postal_code":"32919","industry":"Auto Parts:O.E.M."},
{"id":"3521bb65-df7d-4cf0-8997-90f2c1f97e10","name":"Rosenbaum Group","street_address":"98013 Norway Maple Way","city":"Durham","state":"NC","postal_code":"27705","industry":"n/a"},
{"id":"b19c2f96-eaeb-4498-9c01-f8fed836b9b0","name":"Funk, West and Walter","street_address":"3 North Street","city":"Sacramento","state":"CA","postal_code":"95823","industry":"Packaged Foods"},
{"id":"81df7db5-b1ef-485d-823e-ec1f373ba6b4","name":"Schaefer-Herman","street_address":"23 Manufacturers Place","city":"Denton","state":"TX","postal_code":"76205","industry":"Package Goods/Cosmetics"},
{"id":"7e9d4c92-94f0-47bd-bdd6-9ea5473bcb86","name":"Bosco LLC","street_address":"579 7th Center","city":"Shawnee Mission","state":"KS","postal_code":"66215","industry":"EDP Services"},
{"id":"70ac289e-d049-41fa-8499-e85d6ead5924","name":"Cremin-Baumbach","street_address":"27570 Hooker Alley","city":"San Luis Obispo","state":"CA","postal_code":"93407","industry":"Clothing/Shoe/Accessory Stores"},
{"id":"41722fb6-610d-4528-8ca3-124643047796","name":"Morar, King and Treutel","street_address":"17388 Hazelcrest Court","city":"Richmond","state":"VA","postal_code":"23220","industry":"n/a"},
{"id":"bd7e8034-aa70-4794-a93a-a2b93cad7c57","name":"Ullrich, Prohaska and Hamill","street_address":"895 Debra Point","city":"New York City","state":"NY","postal_code":"10131","industry":"n/a"},
{"id":"dbd1ff06-01e5-47d2-9414-592c595c698a","name":"Volkman, Mraz and Nader","street_address":"629 Gerald Circle","city":"Dallas","state":"TX","postal_code":"75265","industry":"n/a"},
{"id":"89b053ba-9d29-47d6-b52a-8da141bdc7aa","name":"Thompson Group","street_address":"85055 Sutherland Avenue","city":"Little Rock","state":"AR","postal_code":"72231","industry":"Major Banks"},
{"id":"b7926e14-bd50-4bd0-83c1-05b8eb385897","name":"Bayerd LLC","street_address":"87238 Westend Hill","city":"Indianapolis","state":"IN","postal_code":"46202","industry":"Biotechnology: Commercial Physical & Biological Resarch"},
{"id":"c8b8a8c1-991b-437a-8cc4-76b51bd09ef9","name":"Murray, Fadel and Bradtke","street_address":"19 Parkside Way","city":"New Orleans","state":"LA","postal_code":"70179","industry":"n/a"},
{"id":"d4c44b3a-932f-4c43-af95-16987a891afd","name":"Oberbrunner-VonRueden","street_address":"612 Valley Edge Trail","city":"Saint Joseph","state":"MO","postal_code":"64504","industry":"n/a"},
{"id":"2b75214e-d68d-4a33-9070-9b3a2c2e7db4","name":"Frami, Swaniawski and Schmeler","street_address":"8 Nobel Park","city":"Lakewood","state":"WA","postal_code":"98498","industry":"Restaurants"},
{"id":"e6431b74-ca20-4025-bf1e-4dfea13dd1a9","name":"Krajcik and Sons","street_address":"64 Debs Trail","city":"Rockford","state":"IL","postal_code":"61110","industry":"Electronic Components"},
{"id":"b0dbada2-7b06-4afc-9b3e-23bd784a3f78","name":"VonRuedens Group","street_address":"5275 Coolidge Junction","city":"Atlanta","state":"GA","postal_code":"31190","industry":"Diversified Commercial Services"},
{"id":"ae22edf1-8d44-439c-87d6-57a01149e087","name":"Lubowitz, Pacocha and Ziemann","street_address":"95 Division Drive","city":"Champaign","state":"IL","postal_code":"61825","industry":"Computer Software: Programming, Data Processing"},
{"id":"af637a4f-317e-44ea-a92b-878ef48aefa0","name":"Johnston Group","street_address":"653 Melody Avenue","city":"Tucson","state":"AZ","postal_code":"85710","industry":"Precious Metals"},
{"id":"c068448d-45a8-4b29-8249-ec330fe09d91","name":"Wisozk-Nicolas","street_address":"58 Sutherland Drive","city":"Lakewood","state":"WA","postal_code":"98498","industry":"n/a"},
{"id":"dceeca07-a85b-4ea0-aeeb-d6177cd0ade1","name":"Mueller LLC","street_address":"5410 Prairie Rose Circle","city":"Kingsport","state":"TN","postal_code":"37665","industry":"Clothing/Shoe/Accessory Stores"},
{"id":"6d0487ab-6525-4380-b10a-63eb85c88381","name":"Hamill-Toy","street_address":"88838 Hanover Avenue","city":"Las Cruces","state":"NM","postal_code":"88006","industry":"Other Consumer Services"},
{"id":"5e3d3f5a-b500-425f-97fc-8ec19e45c491","name":"Keeling-Hansen","street_address":"523 Utah Way","city":"Salem","state":"OR","postal_code":"97306","industry":"Package Goods/Cosmetics"},
{"id":"e1b5a385-80fc-4eda-810c-382bb839d5f9","name":"Lakin Inc","street_address":"74 Redwing Place","city":"Bridgeport","state":"CT","postal_code":"06673","industry":"Major Banks"},
{"id":"bb3f1ad8-dc75-43cf-b417-2c0db7d8f4d2","name":"Cole-Quigley","street_address":"74870 Bashford Center","city":"Worcester","state":"MA","postal_code":"01605","industry":"Business Services"},
{"id":"31512d01-98b5-440c-b51f-dfe1ce806314","name":"Hessel-Braun","street_address":"8 Homewood Terrace","city":"Boston","state":"MA","postal_code":"02114","industry":"n/a"},
{"id":"045246c9-11c7-43d8-89c5-645e760096de","name":"Gutkowski-Klein","street_address":"39598 Almo Way","city":"Rochester","state":"NY","postal_code":"14683","industry":"Telecommunications Equipment"},
{"id":"af422a21-a0e7-45c8-8ee8-71743687dd91","name":"Pagac-Feest","street_address":"04 Dunning Trail","city":"Wichita","state":"KS","postal_code":"67220","industry":"n/a"},
{"id":"e8e8ae88-5249-4307-92a9-877636b48437","name":"Purdy Inc","street_address":"000 Kropf Way","city":"Newark","state":"NJ","postal_code":"07188","industry":"n/a"},
{"id":"6153f933-130c-4062-b92a-6c26c90d88a3","name":"Weissnat Group","street_address":"731 Florence Alley","city":"Las Vegas","state":"NV","postal_code":"89160","industry":"n/a"},
{"id":"99691c8a-8f29-47e2-850a-2091eb03ec09","name":"Douglas, Ledner and Klein","street_address":"58 Elgar Crossing","city":"Mountain View","state":"CA","postal_code":"94042","industry":"Medical Specialities"},
{"id":"fe547618-394a-4b04-8343-128bace14526","name":"Lesch, Metz and Schoen","street_address":"49244 Service Point","city":"Temple","state":"TX","postal_code":"76505","industry":"Telecommunications Equipment"},
{"id":"f023f636-f130-4e89-9401-c8b8f684c159","name":"Lubowitz-Kunde","street_address":"008 Oriole Drive","city":"Asheville","state":"NC","postal_code":"28815","industry":"Natural Gas Distribution"},
{"id":"15fbab25-2d18-452a-9574-686b6ce359a9","name":"Casper and Son","street_address":"723 Derek Drive","city":"Largo","state":"FL","postal_code":"34643","industry":"n/a"},
{"id":"56c95296-fa51-4f50-9131-1706a4e5ff8f","name":"Veum-O'Conner","street_address":"02 Jay Place","city":"Las Vegas","state":"NV","postal_code":"89160","industry":"Major Banks"},
{"id":"05ba4c0f-7ab9-4d03-bfe1-276636540f8f","name":"Vandervort-Keebler","street_address":"624 Cordelia Junction","city":"Saint Louis","state":"MO","postal_code":"63180","industry":"Real Estate"},
{"id":"ae091a46-de94-47dd-9c8d-8d3ee88729b5","name":"Nader-Nicolas","street_address":"7430 Veith Trail","city":"Dallas","state":"TX","postal_code":"75205","industry":"Computer Software: Prepackaged Software"},
{"id":"4dba9c74-00d3-4ba0-9345-d2b92ca37c9f","name":"Hintz, Turner and Daniel","street_address":"55 Moland Alley","city":"Huntington","state":"WV","postal_code":"25709","industry":"Major Chemicals"},
{"id":"889fa2c6-5703-45d0-bb55-78142ebf8540","name":"Douglas and Sons","street_address":"2097 Morning Drive","city":"Honolulu","state":"HI","postal_code":"96835","industry":"Major Banks"},
{"id":"cace03a8-16da-460e-ae94-bb28e5cba72c","name":"Koch-Macejkovic","street_address":"0 Pearson Parkway","city":"Columbus","state":"OH","postal_code":"43210","industry":"Consumer Electronics/Video Chains"},
{"id":"339dd63a-79d7-4c2d-8ccf-90c5b86106b4","name":"Kulas, Frami and Heaney","street_address":"3 Ilene Plaza","city":"Grand Rapids","state":"MI","postal_code":"49518","industry":"Major Chemicals"},
{"id":"fdaa0f06-a40f-40e1-963b-4cffed8fdb10","name":"Marvin, Little and Rau","street_address":"142 Ronald Regan Point","city":"Oklahoma City","state":"OK","postal_code":"73190","industry":"Restaurants"},
{"id":"e8b136e2-04f4-42cd-bb64-15a987e6f065","name":"McCullough, Schumm and Gerhold","street_address":"467 Superior Alley","city":"New Castle","state":"PA","postal_code":"16107","industry":"n/a"},
{"id":"9a0b9595-de64-4464-b741-636cc0b3edcc","name":"Lueilwitz-Rice","street_address":"56 Green Pass","city":"Columbia","state":"MO","postal_code":"65211","industry":"Real Estate Investment Trusts"},
{"id":"a0328689-b8fc-4fb4-a977-0ac58899b483","name":"King LLC","street_address":"035 Hintze Junction","city":"Green Bay","state":"WI","postal_code":"54313","industry":"n/a"},
{"id":"37a04ef5-44ec-4efc-a5c3-ffbf3baabe26","name":"Hansen, Kozey and Kshlerin","street_address":"41887 Jenifer Street","city":"Boise","state":"ID","postal_code":"83727","industry":"Beverages (Production/Distribution)"},
{"id":"2532f1ef-f853-4bbd-ad4f-6370cf4a66fc","name":"Kuhlman, Gerlach and Haag","street_address":"5327 Derek Hill","city":"Saint Cloud","state":"MN","postal_code":"56398","industry":"Electrical Products"},
{"id":"cbbd6892-2cec-4d5b-9a47-82b760691544","name":"Lehner, Wehner and Hammes","street_address":"14 Ridge Oak Avenue","city":"Portland","state":"OR","postal_code":"97255","industry":"Major Banks"},
{"id":"8674d880-2b1f-416e-95b4-63c4086e9afd","name":"Roob-Bauch","street_address":"1207 Commercial Center","city":"Sioux Falls","state":"SD","postal_code":"57193","industry":"n/a"},
{"id":"a80973ad-cff0-444b-b838-3f4df83bdaa2","name":"Parker Inc","street_address":"586 Burning Wood Parkway","city":"Washington","state":"DC","postal_code":"20599","industry":"Consumer Specialties"},
{"id":"d1c39e5e-dfa8-4255-86c7-e11355a29862","name":"Quigley, Lockman and Kozey","street_address":"133 Farmco Park","city":"Washington","state":"DC","postal_code":"20575","industry":"EDP Services"},
{"id":"1dc98ad1-91ee-4ac1-a9f0-3546fff83273","name":"DuBuque-Ruecker","street_address":"6 Kipling Center","city":"Orlando","state":"FL","postal_code":"32854","industry":"Biotechnology: In Vitro & In Vivo Diagnostic Substances"},
{"id":"d88bb078-652f-4f63-94df-a8698ab906f4","name":"Howell and Sons","street_address":"97821 Garrison Trail","city":"Chicago","state":"IL","postal_code":"60674","industry":"Semiconductors"},
{"id":"33865a86-0a19-4c77-91d7-d896d50cd75c","name":"Williamson, Ernser and Cremin","street_address":"02494 Blue Bill Park Point","city":"Columbia","state":"SC","postal_code":"29208","industry":"Air Freight/Delivery Services"},
{"id":"4a88539f-0ac0-4140-bf01-2a9ef715cdb2","name":"Feeney, Murphy and Hegmann","street_address":"83343 Monterey Parkway","city":"Boston","state":"MA","postal_code":"02216","industry":"Diversified Commercial Services"},
{"id":"0b09be62-e336-4fbc-b985-ad77dd7c6dcf","name":"Schuster Group","street_address":"894 Red Cloud Pass","city":"Decatur","state":"IL","postal_code":"62525","industry":"n/a"},
{"id":"bda797c9-a4b0-41dc-9499-9f1c85d22c82","name":"Muraziky LLC","street_address":"2 Calypso Avenue","city":"Jacksonville","state":"FL","postal_code":"32259","industry":"Medical/Dental Instruments"},
{"id":"3251f2cd-3851-4b56-b8a5-f45bb991751a","name":"Konopelski, Hoppe and Rosenbaum","street_address":"20 Cherokee Court","city":"Charleston","state":"SC","postal_code":"29411","industry":"Investment Managers"},
{"id":"6bbb8dbc-aaa2-44d2-99d8-dc8fafaa89b5","name":"Murray, Halvorson and Gorczany","street_address":"85388 Reindahl Plaza","city":"Wilmington","state":"NC","postal_code":"28405","industry":"Property-Casualty Insurers"},
{"id":"dbb258dc-a357-48ca-8a4d-dda987eb0f17","name":"Halvorson-Torphy","street_address":"5625 Corry Terrace","city":"Sacramento","state":"CA","postal_code":"95833","industry":"Major Pharmaceuticals"},
{"id":"c55f4364-1008-49e7-a95c-924158f88e9d","name":"Conn-Blanda","street_address":"7 Dapin Court","city":"Tampa","state":"FL","postal_code":"33620","industry":"Restaurants"},
{"id":"b4037b98-c01f-43f5-ad7c-c3fe1c501691","name":"Rippin-Heller","street_address":"9852 Forest Dale Park","city":"Chicago","state":"IL","postal_code":"60641","industry":"Real Estate Investment Trusts"},
{"id":"f6bff4ee-d4e1-46e4-b87c-1dee2fb1a738","name":"Mraz Inc","street_address":"5 Magdeline Center","city":"Huntington","state":"WV","postal_code":"25705","industry":"EDP Services"},
{"id":"3012c5ef-886d-465c-a2ef-e1509e913b3f","name":"O'Kon Group","street_address":"09 Parkside Street","city":"Birmingham","state":"AL","postal_code":"35231","industry":"n/a"},
{"id":"caafa25d-afe1-447e-9d92-2ac8d90f3f2a","name":"Carters LLC","street_address":"3286 Daystar Court","city":"Albuquerque","state":"NM","postal_code":"87190","industry":"Environmental Services"},
{"id":"35f5d61a-916f-4742-80b4-782a08f57c51","name":"Williamson Group","street_address":"9942 Starling Way","city":"Manchester","state":"NH","postal_code":"03105","industry":"Major Pharmaceuticals"},
{"id":"dbde12fa-39fd-4b12-a2f0-6f2764ab4866","name":"Ernserd LLC","street_address":"4430 Donald Junction","city":"Richmond","state":"VA","postal_code":"23237","industry":"Major Pharmaceuticals"},
{"id":"1c44da67-943d-4f62-b5fc-c13709811083","name":"Casper and Sons","street_address":"0 Porter Street","city":"Van Nuys","state":"CA","postal_code":"91499","industry":"n/a"},
{"id":"b6f7e6a2-1a42-41f7-af37-fee991e3a5da","name":"Weissnat, Douglas and Sporer","street_address":"72 Kedzie Terrace","city":"Houston","state":"TX","postal_code":"77206","industry":"n/a"},
{"id":"27132fc0-a2ae-4fd1-a8f7-e9eb0975da63","name":"Rice-Armstrong","street_address":"03329 Messerschmidt Terrace","city":"Long Beach","state":"CA","postal_code":"90810","industry":"Industrial Machinery/Components"},
{"id":"1439c4a5-2494-49cc-a503-c8de217910d4","name":"Johns, Bergstrom and Conroy","street_address":"8828 Di Loreto Junction","city":"New York City","state":"NY","postal_code":"10079","industry":"n/a"},
{"id":"5b09f1cb-eb14-4178-8084-f0d49b65c17f","name":"Schaden-Robel","street_address":"673 John Wall Place","city":"Boise","state":"ID","postal_code":"83705","industry":"n/a"},
{"id":"32139403-63f3-4c5e-bf8a-20118c648606","name":"Wolf Inc","street_address":"4225 Susan Junction","city":"Hayward","state":"CA","postal_code":"94544","industry":"Industrial Machinery/Components"},
{"id":"22d46703-1389-4471-a715-adf531ef9211","name":"Cremin-Runte","street_address":"2 Bobwhite Crossing","city":"New Hyde Park","state":"NY","postal_code":"11044","industry":"Major Banks"},
{"id":"fe1f5b42-ae91-43a6-893a-73e468313fed","name":"Roob-Hudson","street_address":"1 Memorial Alley","city":"Fort Worth","state":"TX","postal_code":"76105","industry":"Savings Institutions"},
{"id":"90350997-c234-4d82-b432-a6952cef7589","name":"McClure and Sons","street_address":"21571 Spohn Plaza","city":"Las Vegas","state":"NV","postal_code":"89150","industry":"Building operators"},
{"id":"94735303-ad03-4e93-9816-99b442c6f3f7","name":"Dickinson LLC","street_address":"3136 Meadow Vale Parkway","city":"Tacoma","state":"WA","postal_code":"98447","industry":"n/a"},
{"id":"f090d25a-16a2-4fd5-8ab7-bbb1971dd3e5","name":"Sauer-Harris","street_address":"9 Norway Maple Drive","city":"Pensacola","state":"FL","postal_code":"32526","industry":"Electrical Products"},
{"id":"5bfc2315-3429-4d78-bd8e-927c5e9eccaf","name":"Rohan, Johns and Sawayn","street_address":"52 Pennsylvania Junction","city":"Gainesville","state":"FL","postal_code":"32627","industry":"n/a"},
{"id":"54278316-e6e2-4ba4-96c6-053fec7d0721","name":"Emard, Hahn and Welch","street_address":"19386 Northridge Point","city":"Fort Worth","state":"TX","postal_code":"76129","industry":"Electric Utilities: Central"},
{"id":"00fe5405-1838-4e04-bb20-32c09371694b","name":"Miller Time Group","street_address":"912 Bartillon Crossing","city":"San Bernardino","state":"CA","postal_code":"92424","industry":"Investment Bankers/Brokers/Service"},
{"id":"070f5fbd-4657-496f-b87d-5ecf8cc715f9","name":"Becker Inc","street_address":"6265 Cordelia Lane","city":"Richmond","state":"VA","postal_code":"23213","industry":"Major Banks"},
{"id":"ce22e68f-ad3a-4551-8655-3543cdfe7965","name":"McKenzie LLC","street_address":"23 Muir Drive","city":"Cincinnati","state":"OH","postal_code":"45271","industry":"n/a"},
{"id":"1ec4dade-fd59-472f-b44e-74910a5828f6","name":"Schimmel-Hickle","street_address":"67350 Derek Road","city":"Jacksonville","state":"FL","postal_code":"32277","industry":"Auto Parts:O.E.M."},
{"id":"e1ef0cb9-961b-43ad-8089-72a9ca28c3d6","name":"Vandervort, Romaguera and Schaden","street_address":"115 2nd Crossing","city":"Orlando","state":"FL","postal_code":"32813","industry":"Military/Government/Technical"},
{"id":"a1636219-1cef-4bca-a484-e35aad169086","name":"Barton, Considine and VonRueden","street_address":"4 Anniversary Place","city":"Erie","state":"PA","postal_code":"16565","industry":"n/a"},
{"id":"7e696a37-0f79-437e-a9c7-ea90e8bbf5bb","name":"Mitchell-Dietrich","street_address":"2 Mccormick Court","city":"Oakland","state":"CA","postal_code":"94605","industry":"n/a"},
{"id":"d0c0d379-7457-4423-86e6-744fba0d57bf","name":"Johnson-Monahan","street_address":"2582 Myrtle Plaza","city":"Memphis","state":"TN","postal_code":"38126","industry":"Industrial Machinery/Components"},
{"id":"29a6cd76-bd36-4676-b76d-836a3be3d21b","name":"Hirthe-Collier","street_address":"16764 Spohn Point","city":"Fresno","state":"CA","postal_code":"93726","industry":"n/a"},
{"id":"be1f1bd2-5b77-4637-b621-48cf8b1397c2","name":"Hettinger and Sons","street_address":"1905 La Follette Center","city":"Washington","state":"DC","postal_code":"20566","industry":"Electrical Products"},
{"id":"1551c0b6-41fa-4e0e-948d-21b2e2e46c71","name":"Murray-Parker","street_address":"596 Linden Junction","city":"Tulsa","state":"OK","postal_code":"74141","industry":"n/a"},
{"id":"6f12c2d7-713e-4c7c-a640-66218f5b6e22","name":"White Inc","street_address":"04 School Place","city":"Roanoke","state":"VA","postal_code":"24020","industry":"Major Banks"},
{"id":"ea31dc49-3dfc-49a2-853f-4fe9d6013c45","name":"Von, Roberts and Bahringer","street_address":"87387 Coolidge Alley","city":"Migrate","state":"KY","postal_code":"41905","industry":"n/a"},
{"id":"91c99e48-a251-404f-95e4-954b4f924ebe","name":"Lynch-Gleichner","street_address":"1106 Fair Oaks Street","city":"Atlanta","state":"GA","postal_code":"30311","industry":"Multi-Sector Companies"},
{"id":"cf29be03-ca29-44fc-a48b-7cf24c4c3400","name":"Hand, Murazik and Prohaska","street_address":"946 Upham Center","city":"Dallas","state":"TX","postal_code":"75287","industry":"Major Banks"},
{"id":"500769d8-be27-44a5-b086-d908ad32e5c6","name":"Haley and Sons","street_address":"8 Porter Lane","city":"Indianapolis","state":"IN","postal_code":"46216","industry":"EDP Services"},
{"id":"eb571c59-f35a-4203-956c-184ad558bf9c","name":"Block, Haley and Shields","street_address":"5527 Londonderry Trail","city":"Philadelphia","state":"PA","postal_code":"19184","industry":"Business Services"},
{"id":"877d2fc0-c691-4f6a-8615-4242ec1ba271","name":"Bernier-Feest","street_address":"612 Old Gate Pass","city":"Pittsburgh","state":"PA","postal_code":"15220","industry":"n/a"},
{"id":"01cedf86-d3bc-430c-88cb-73d759ae3f4a","name":"Kulas, Walter and Bailey","street_address":"49 Oak Parkway","city":"Pittsburgh","state":"PA","postal_code":"15235","industry":"Precious Metals"},
{"id":"834d6fce-473a-46c9-b512-c67a67cc2977","name":"Davis-Wyman","street_address":"7296 Elmside Court","city":"Memphis","state":"TN","postal_code":"38104","industry":"Plastic Products"},
{"id":"123608ee-b543-4a83-8d86-a948c2e73a2c","name":"Hills, Wolff and Mueller","street_address":"63 Nevada Crossing","city":"Gainesville","state":"FL","postal_code":"32627","industry":"Telecommunications Equipment"},
{"id":"8afb81bc-37eb-4804-8e0c-b92eac6121e3","name":"Nicolas-Brown","street_address":"3985 South Junction","city":"Los Angeles","state":"CA","postal_code":"90050","industry":"n/a"},
{"id":"3c083364-a21f-415a-afdb-ce5d89112b64","name":"Jerde, Ritchie and Monahan","street_address":"668 Ridgeview Park","city":"Houston","state":"TX","postal_code":"77065","industry":"Major Banks"},
{"id":"099a6381-d742-48cc-8a45-38e95d2e2797","name":"Stiedemann, Gutkowski and Gibson","street_address":"1 Eagle Crest Trail","city":"Mobile","state":"AL","postal_code":"36670","industry":"Oil & Gas Production"},
{"id":"291ddafd-9805-4126-bdb0-322e23656114","name":"Carter LLC","street_address":"0910 Forster Drive","city":"Springfield","state":"MO","postal_code":"65805","industry":"n/a"},
{"id":"b6679a99-5b0e-4851-bf2a-b38af556e604","name":"Koss-Wyman","street_address":"651 Armistice Park","city":"Phoenix","state":"AZ","postal_code":"85062","industry":"Oil Refining/Marketing"},
{"id":"08b44962-553a-4ea7-9982-f11f14de274b","name":"Wyman, Jast and Ward","street_address":"9948 Autumn Leaf Park","city":"Wichita","state":"KS","postal_code":"67230","industry":"Computer Manufacturing"},
{"id":"2e86ce0c-5e7d-419d-90cb-732b52913989","name":"Deckow and Sons","street_address":"35 Spenser Lane","city":"Naperville","state":"IL","postal_code":"60567","industry":"Agricultural Chemicals"},
{"id":"d9ccfe7e-f42e-44f5-be2a-9ea779bc7144","name":"Klein and Sons","street_address":"87973 Buhler Park","city":"Albany","state":"NY","postal_code":"12222","industry":"Hotels/Resorts"},
{"id":"6dcd845b-7354-484e-a054-d835ad3ab9d6","name":"Lockman, Heathcote and Pfeffer","street_address":"12 Cody Road","city":"Saint Augustine","state":"FL","postal_code":"32092","industry":"Major Banks"},
{"id":"311dab40-006e-407b-9b11-52a1576af051","name":"Okuneva LLC","street_address":"51 Briar Crest Court","city":"Henderson","state":"NV","postal_code":"89074","industry":"Real Estate Investment Trusts"},
{"id":"768da766-e0d4-4192-924f-36b762ca1c77","name":"Harris Group","street_address":"37331 Heath Junction","city":"North Las Vegas","state":"NV","postal_code":"89036","industry":"Industrial Machinery/Components"},
{"id":"d8fdad5d-9195-4488-92fd-11fae96dcdac","name":"Luettgen and Son","street_address":"339 Eliot Circle","city":"Shawnee Mission","state":"KS","postal_code":"66205","industry":"Major Banks"},
{"id":"819c1584-be30-42bd-90d2-348cf1bb21f3","name":"Hilpert, Littel and Oberbrunner","street_address":"59 Garrison Point","city":"Tampa","state":"FL","postal_code":"33605","industry":"Broadcasting"},
{"id":"9ea7ee22-743a-41ba-9015-f5c491f490e5","name":"Pfeffer, McCullough and Bartoletti","street_address":"8 Lawn Plaza","city":"Los Angeles","state":"CA","postal_code":"90035","industry":"Computer Software: Prepackaged Software"},
{"id":"c79e819b-927b-4bae-9c9e-dcb551bf6579","name":"Ferry-Fritsch","street_address":"25226 Sundown Park","city":"Washington","state":"DC","postal_code":"20078","industry":"Business Services"},
{"id":"53cf8abb-6694-420d-a3c7-e37e51c24f54","name":"Wuckert Inc","street_address":"62189 Mcbride Trail","city":"Albany","state":"NY","postal_code":"12242","industry":"Oil & Gas Production"},
{"id":"04ee0ecc-525a-48ab-ae02-5392f65dc032","name":"Blanda Inc","street_address":"10 Havey Park","city":"Melbourne","state":"FL","postal_code":"32919","industry":"EDP Services"},
{"id":"d7645b54-fdd2-4d35-a144-ea58b16da2f1","name":"Hyatt Inc","street_address":"91 Briar Crest Parkway","city":"Jackson","state":"MS","postal_code":"39216","industry":"Computer Software: Programming, Data Processing"},
{"id":"bafe60fb-f026-48e6-b39f-7ae7d0d34c59","name":"Heathcote LLC","street_address":"48 Westridge Junction","city":"Bradenton","state":"FL","postal_code":"34210","industry":"Semiconductors"},
{"id":"48371787-d3a9-4c7a-966e-e809eb505abe","name":"McDermott-Kuhlman","street_address":"70846 Kipling Way","city":"Denver","state":"CO","postal_code":"80249","industry":"Professional Services"},
{"id":"7120d117-67bf-4296-9d64-7416619d3452","name":"Pagac-O'Hara","street_address":"47 Sauthoff Terrace","city":"Las Vegas","state":"NV","postal_code":"89155","industry":"Oil & Gas Production"},
{"id":"bb766644-a810-439e-b395-c334662baf37","name":"Wisozk-Hyatt","street_address":"74 Colorado Street","city":"Miami","state":"FL","postal_code":"33169","industry":"n/a"},
{"id":"29aa2351-499c-4509-a23d-379f58c34bc4","name":"Yost-Weimann","street_address":"908 Sage Alley","city":"Mountain View","state":"CA","postal_code":"94042","industry":"Property-Casualty Insurers"},
{"id":"13f719b6-bf1d-4a75-9e99-be14509a0bd8","name":"Sauer-Corwin","street_address":"850 Anhalt Park","city":"Dulles","state":"VA","postal_code":"20189","industry":"Biotechnology: Commercial Physical & Biological Resarch"},
{"id":"93ebe9ce-c382-4f1b-97db-59f7cb4abe35","name":"Bogan, Bosco and Mayert","street_address":"29584 Northridge Alley","city":"Tulsa","state":"OK","postal_code":"74116","industry":"Major Banks"},
{"id":"39e21b7a-1502-4bbb-bd22-0380c1a136b2","name":"Jenkins-Prohaska","street_address":"32 Arizona Junction","city":"Washington","state":"DC","postal_code":"20036","industry":"Packaged Foods"},
{"id":"b35938c6-56a8-433f-a31b-defb1476aa3c","name":"Marks, Denesik and Williamson","street_address":"0331 Riverside Place","city":"Carol Stream","state":"IL","postal_code":"60351","industry":"Major Pharmaceuticals"},
{"id":"60e52648-b19c-40aa-8bf7-4f0e3aea1952","name":"O'Hara-Stark","street_address":"213 Drewry Junction","city":"Salt Lake City","state":"UT","postal_code":"84170","industry":"Retail: Computer Software & Peripheral Equipment"},
{"id":"11342e14-bf98-4791-8678-983d8cd35d5e","name":"Moenr and Sons","street_address":"0 Delladonna Park","city":"Chandler","state":"AZ","postal_code":"85246","industry":"Clothing/Shoe/Accessory Stores"},
{"id":"e26de0d6-0b49-4baa-84ea-bc4149e0f6c6","name":"Towne Group","street_address":"4131 Prairie Rose Park","city":"Minneapolis","state":"MN","postal_code":"55428","industry":"n/a"},
{"id":"a13eef71-ff44-49d4-ba3b-d35d4b313e28","name":"Gusikowski, Waelchi and Cremin","street_address":"4 West Road","city":"Pasadena","state":"CA","postal_code":"91117","industry":"n/a"},
{"id":"2ecbe8c8-a4ba-483c-87aa-3e26716d1119","name":"Hickle, Gutmann and Macejkovic","street_address":"58 Larry Parkway","city":"Dayton","state":"OH","postal_code":"45414","industry":"Property-Casualty Insurers"},
{"id":"87157ed4-2e16-4d33-b2b7-876c33df995f","name":"Kilback-Boyle","street_address":"4320 Park Meadow Street","city":"Dallas","state":"TX","postal_code":"75372","industry":"Medical/Dental Instruments"},
{"id":"4f437f84-25a3-442a-8641-40a4b4e83f85","name":"Gutmann, VonRueden and Jones","street_address":"1 Anthes Circle","city":"South Bend","state":"IN","postal_code":"46620","industry":"n/a"},
{"id":"efa9a8b6-f833-421a-954d-6c408c2ac3a7","name":"Hermann-Nienow","street_address":"0 Reinke Park","city":"Saint Louis","state":"MO","postal_code":"63121","industry":"Plastic Products"},
{"id":"9d184602-9f10-4fec-87d1-1aafcd1462eb","name":"Weimann Inc","street_address":"3457 Merry Hill","city":"Buffalo","state":"NY","postal_code":"14215","industry":"n/a"},
{"id":"0cff4e56-ecb3-43be-8999-d5504cfdecad","name":"Kuvalis LLC","street_address":"44 Evergreen Crossing","city":"Washington","state":"DC","postal_code":"20041","industry":"Professional Services"},
{"id":"6e7a4143-e0b7-4608-b098-42670fd677f1","name":"Jerde LLC","street_address":"780 Myrtle Crossing","city":"Lexington","state":"KY","postal_code":"40546","industry":"n/a"},
{"id":"83bb8408-6ba0-464f-bd3f-ef5486cb5bec","name":"Russel-Pfeffer","street_address":"2334 Pond Avenue","city":"Des Moines","state":"IA","postal_code":"50362","industry":"Major Pharmaceuticals"},
{"id":"c0fdb85f-f127-4dde-b56f-5ec558d6e1e9","name":"Gutmann LLC","street_address":"038 Twin Pines Parkway","city":"Washington","state":"DC","postal_code":"20540","industry":"Major Pharmaceuticals"},
{"id":"72521d56-cd1c-4902-90b5-84d690329376","name":"Treutel Group","street_address":"1633 Miller Plaza","city":"Washington","state":"DC","postal_code":"20551","industry":"Commercial Banks"},
{"id":"4a5af03f-604a-4bdb-919c-d865f11699bb","name":"Oberbrunner and Sons","street_address":"68 Bluejay Street","city":"Henderson","state":"NV","postal_code":"89074","industry":"n/a"},
{"id":"48581ed6-476d-4915-a78f-d0044e729ca7","name":"Hilll, Hamill and Lehner","street_address":"4 Roth Lane","city":"Saint Paul","state":"MN","postal_code":"55127","industry":"Industrial Machinery/Components"},
{"id":"93bd54ff-5744-4c1c-82df-c327aeeebdf1","name":"VonRueden Group","street_address":"259 Londonderry Trail","city":"Richmond","state":"VA","postal_code":"23213","industry":"Major Pharmaceuticals"},
{"id":"6ca19033-2db9-4ce6-8dc9-690ac3fc6ca0","name":"Miller, Jacobi and Stiedemann","street_address":"2 Jenifer Drive","city":"Phoenix","state":"AZ","postal_code":"85035","industry":"n/a"},
{"id":"ed0cdc0d-5ea6-45b1-b5e8-5574203d3c00","name":"Douglas-O'Reilly","street_address":"36 Menomonie Park","city":"Toledo","state":"OH","postal_code":"43666","industry":"Telecommunications Equipment"},
{"id":"a4e118a8-9769-4fd3-a441-b3d5cb24552a","name":"Toy LLC","street_address":"4 Boyd Street","city":"New York City","state":"NY","postal_code":"10131","industry":"Department/Specialty Retail Stores"},
{"id":"133f5c89-9870-4d6e-a0fd-47660f589ac1","name":"Spencer, Jerde and Hirthe","street_address":"0 Anderson Place","city":"Seattle","state":"WA","postal_code":"98115","industry":"Major Chemicals"},
{"id":"19645dc5-6611-4e09-902a-90b0f16d6be8","name":"Schultz Group","street_address":"713 Mockingbird Park","city":"Omaha","state":"NE","postal_code":"68110","industry":"Natural Gas Distribution"},
{"id":"aa6c8036-527c-4e67-aa2c-a03b07c0ac62","name":"Collier LLC","street_address":"7 Washington Plaza","city":"Lexington","state":"KY","postal_code":"40576","industry":"Major Banks"},
{"id":"9e1fcd95-f746-46ef-8269-7454a09825ac","name":"Nolan, Cremin and Altenwerth","street_address":"870 Doe Crossing Terrace","city":"Washington","state":"DC","postal_code":"20409","industry":"Packaged Foods"},
{"id":"30eadf3f-7cc2-4049-9193-8a29789fe7b5","name":"Senger Inc","street_address":"80 Donald Alley","city":"Albuquerque","state":"NM","postal_code":"87201","industry":"n/a"},
{"id":"75cf678e-e6b5-4c93-bd1d-e9012b8e84e4","name":"Kohler-Zboncak","street_address":"361 Leroy Point","city":"Tallahassee","state":"FL","postal_code":"32399","industry":"n/a"},
{"id":"30dda425-bbbf-46fa-9a2a-258672c61b86","name":"Durgan LLC","street_address":"36 Johnson Trail","city":"Charlotte","state":"NC","postal_code":"28235","industry":"n/a"},
{"id":"a1ea79fc-138e-46c5-9c66-56818901f5f9","name":"Swift-Keebler","street_address":"3 Karstens Drive","city":"West Palm Beach","state":"FL","postal_code":"33411","industry":"Business Services"},
{"id":"d34b6872-617d-44df-bb78-f2fb0908fb6a","name":"Roberts-Haley","street_address":"8679 Ryan Plaza","city":"Harrisburg","state":"PA","postal_code":"17121","industry":"n/a"},
{"id":"2bdbfb1f-2374-4780-b213-5f43cb2ebdcd","name":"Wilkinson-Ondricka","street_address":"5 Forest Run Drive","city":"Oakland","state":"CA","postal_code":"94660","industry":"Commercial Banks"},
{"id":"8e480573-532b-4ccf-9ad9-253fb57f9746","name":"Osinski, Pacocha and Reichel","street_address":"1695 Oak Valley Trail","city":"Fort Wayne","state":"IN","postal_code":"46852","industry":"Other Consumer Services"},
{"id":"7f685577-5a30-4174-9ce2-da6f016e15ce","name":"Bosco, Price and Anderson","street_address":"64 Becker Alley","city":"Washington","state":"DC","postal_code":"20546","industry":"Marine Transportation"},
{"id":"cc1a83cc-3884-47b5-9cef-2bc6faebc0bc","name":"Marquardt LLC","street_address":"73567 Corscot Circle","city":"Toledo","state":"OH","postal_code":"43635","industry":"n/a"},
{"id":"efaa0833-6834-4032-a10b-caafd5ffcacf","name":"Lindgren-Gibson","street_address":"11214 Alpine Parkway","city":"Ocala","state":"FL","postal_code":"34479","industry":"n/a"},
{"id":"6f0ef0c5-63e2-497a-aa1d-7a55943980f0","name":"Wunsch, Homenick and Wilkinson","street_address":"10156 Muir Trail","city":"Columbus","state":"OH","postal_code":"43220","industry":"Television Services"},
{"id":"b2029170-6d1d-4bd3-a378-7f51da55a73b","name":"Schmeler Group","street_address":"9070 Tennessee Crossing","city":"Anderson","state":"IN","postal_code":"46015","industry":"Major Banks"},
{"id":"da82716a-962e-4616-95c5-91b8e435f3c2","name":"Willms-Kilback","street_address":"37663 Hauk Hill","city":"Fredericksburg","state":"VA","postal_code":"22405","industry":"n/a"},
{"id":"d5f33bac-902d-4cfa-abb8-d27dade21015","name":"Altenwerth and Sons","street_address":"3257 Golden Leaf Circle","city":"Louisville","state":"KY","postal_code":"40250","industry":"Investment Managers"},
{"id":"b051e37c-2626-4fe8-acba-01b925e6c1a1","name":"Streich-Trantow","street_address":"7 Lotheville Alley","city":"Columbus","state":"OH","postal_code":"43215","industry":"Finance: Consumer Services"},
{"id":"8bacb264-5627-46c6-badd-ee3a93452027","name":"Maggio-Fritsch","street_address":"38870 Weeping Birch Junction","city":"Tulsa","state":"OK","postal_code":"74149","industry":"Computer Software: Prepackaged Software"},
{"id":"b751f173-cb66-44f5-8bba-211f49e8dfa2","name":"Pagac, Haag and Stehr","street_address":"51 Arapahoe Plaza","city":"Houston","state":"TX","postal_code":"77095","industry":"Precious Metals"},
{"id":"37b4c378-efa4-47e2-a296-e2ecb123a0d2","name":"Reilly-Sauer","street_address":"6127 Sauthoff Terrace","city":"Hamilton","state":"OH","postal_code":"45020","industry":"Mining & Quarrying of Nonmetallic Minerals (No Fuels)"},
{"id":"acee9ace-b9e6-47b2-9bb9-fef1b013c550","name":"Monahan-Thompson","street_address":"2 Fuller Terrace","city":"Orlando","state":"FL","postal_code":"32854","industry":"Computer Software: Prepackaged Software"},
{"id":"fe9416d2-d4e9-4fc0-80b3-7d4bc524650e","name":"Kovacek-Padberg","street_address":"46 Arapahoe Avenue","city":"Bismarck","state":"ND","postal_code":"58505","industry":"Real Estate"},
{"id":"ed270952-3a71-440b-a7cc-2eda81fdb296","name":"Ankunding, Effertz and Hegmann","street_address":"37864 Carpenter Lane","city":"Peoria","state":"IL","postal_code":"61651","industry":"Major Pharmaceuticals"},
{"id":"ce7c4d84-2c97-44e3-ac04-1256fef827d7","name":"Bailey Inc","street_address":"44505 Buhler Pass","city":"Grand Rapids","state":"MI","postal_code":"49518","industry":"Diversified Commercial Services"},
{"id":"53a0af5d-4aea-484d-8591-8147fcd22040","name":"Hand-Orn","street_address":"47136 Claremont Plaza","city":"Louisville","state":"KY","postal_code":"40225","industry":"n/a"},
{"id":"b18e11c9-19b5-45ae-ba41-50880fdd3f55","name":"Ledner-Nolan","street_address":"41 Atwood Pass","city":"Albuquerque","state":"NM","postal_code":"87195","industry":"Major Banks"},
{"id":"6f2bd449-7ffe-4d5d-ac1c-f150b2a5bdac","name":"Halvorson Inc","street_address":"2 Nevada Avenue","city":"Charleston","state":"WV","postal_code":"25331","industry":"Major Pharmaceuticals"},
{"id":"15c66d5b-7a99-495b-bdc1-d524526b1f6b","name":"Lynch LLC","street_address":"871 Northridge Lane","city":"Savannah","state":"GA","postal_code":"31422","industry":"Computer Software: Prepackaged Software"},
{"id":"f5971771-3751-4303-94d3-b611e9c7c455","name":"McClure-Runolfsdottir","street_address":"30287 Charing Cross Terrace","city":"Lansing","state":"MI","postal_code":"48930","industry":"Clothing/Shoe/Accessory Stores"},
{"id":"fb7ac5cd-d7fd-4110-b3d8-78a7cc2f3470","name":"Boyer-Shanahan","street_address":"92 Elgar Avenue","city":"Sacramento","state":"CA","postal_code":"95833","industry":"Telecommunications Equipment"},
{"id":"f3f35e86-97de-4491-a0d8-767d2ca49935","name":"Jast, Von and Kemmer","street_address":"114 Lillian Crossing","city":"Topeka","state":"KS","postal_code":"66617","industry":"n/a"},
{"id":"1c57b8d7-d32f-4357-832f-11e73c1c5145","name":"Pfannerstill-Corwin","street_address":"37 Bashford Junction","city":"Houston","state":"TX","postal_code":"77055","industry":"Major Pharmaceuticals"},
{"id":"42d20a8e-d648-4db1-b3c2-d4f57c9f2992","name":"Donnelly, Schinner and Greenholt","street_address":"88 Donald Park","city":"Grand Rapids","state":"MI","postal_code":"49560","industry":"n/a"},
{"id":"b048de6c-b055-4152-b9c1-2e6f97b8cd06","name":"Wisoky-Dietrich","street_address":"6 Caliangt Hill","city":"Denver","state":"CO","postal_code":"80223","industry":"n/a"},
{"id":"9ffab031-7dbc-4a39-ac94-ed02795cc4be","name":"Goyette Inc","street_address":"49714 Talmadge Terrace","city":"Modesto","state":"CA","postal_code":"95397","industry":"Medical/Nursing Services"},
{"id":"0706d6f7-8382-4394-98d0-5f7f74268bb9","name":"Will Inc","street_address":"509 Shasta Court","city":"Philadelphia","state":"PA","postal_code":"19093","industry":"n/a"},
{"id":"1eb4fe8d-f649-408d-a204-f8ab1be45762","name":"Boyer-Fritsch","street_address":"74657 Dixon Avenue","city":"Des Moines","state":"IA","postal_code":"50310","industry":"Real Estate Investment Trusts"},
{"id":"b85cb55f-59b8-42e9-93f9-24e723c92ba1","name":"Becker Group","street_address":"68467 Ohio Plaza","city":"Washington","state":"DC","postal_code":"20380","industry":"Major Banks"},
{"id":"97848300-28de-4232-897e-33b8329cca2e","name":"Labadie-Hartmann","street_address":"0887 Packers Circle","city":"Richmond","state":"VA","postal_code":"23289","industry":"Property-Casualty Insurers"},
{"id":"80b35fa2-c2a1-4154-8e47-8d28afa62137","name":"Green-Raynor","street_address":"1 Fairview Hill","city":"Peoria","state":"IL","postal_code":"61629","industry":"n/a"},
{"id":"f4f86788-5b93-4081-a1d9-7ca35a2ab968","name":"Boyer, Schiller and Parisian","street_address":"96139 Hooker Hill","city":"Columbus","state":"OH","postal_code":"43240","industry":"n/a"},
{"id":"7b184029-57da-4f4a-9a50-967d1f51963a","name":"Prohaska Group","street_address":"310 Trailsway Drive","city":"Young America","state":"MN","postal_code":"55573","industry":"Specialty Insurers"},
{"id":"f80a155d-b252-480a-a20c-da96842fc005","name":"Kertzmann, Langosh and Walter","street_address":"9 Nobel Plaza","city":"Washington","state":"DC","postal_code":"20397","industry":"n/a"},
{"id":"a8116020-8343-4791-9e12-4ed9caaec4ef","name":"Wilderman, Lueilwitz and Padberg","street_address":"6 Portage Road","city":"Katy","state":"TX","postal_code":"77493","industry":"Semiconductors"},
{"id":"7781c9ad-69b7-4162-9711-a5bb30c3b0fe","name":"Champlin-Feeney","street_address":"6261 Clyde Gallagher Street","city":"Charleston","state":"WV","postal_code":"25331","industry":"n/a"},
{"id":"9d126052-85dc-4d29-b41f-bc723f648196","name":"Padberg-Sporer","street_address":"82324 Maple Way","city":"Baton Rouge","state":"LA","postal_code":"70894","industry":"Precious Metals"},
{"id":"2b0f83b7-0b6f-4037-9ac6-4196a957808d","name":"Johns and Sons","street_address":"20 Mcguire Pass","city":"Baltimore","state":"MD","postal_code":"21290","industry":"Real Estate Investment Trusts"},
{"id":"e9f4d2f1-ade9-497c-b0b1-87590dae62b1","name":"Ledner-Schmitt","street_address":"818 Mosinee Alley","city":"Oxnard","state":"CA","postal_code":"93034","industry":"Agricultural Chemicals"},
{"id":"03896b39-4370-4812-acf5-12737f798568","name":"Luettgen and Sons","street_address":"6303 Tony Point","city":"Albany","state":"NY","postal_code":"12232","industry":"Containers/Packaging"},
{"id":"d633b95a-6cd0-4270-aaad-d3b727604c47","name":"Hyatt LLC","street_address":"19 Oneill Way","city":"Shawnee Mission","state":"KS","postal_code":"66286","industry":"Package Goods/Cosmetics"},
{"id":"d0ba3f62-0c39-4f37-89bb-8d4d2378f16a","name":"Champlin, Heller and Walter","street_address":"2644 Sunbrook Drive","city":"Montgomery","state":"AL","postal_code":"36119","industry":"Major Pharmaceuticals"},
{"id":"a80a7022-d4c9-4a18-82af-2c495036f031","name":"Pfannerstill, Ryan and Rutherford","street_address":"6859 Namekagon Pass","city":"Richmond","state":"VA","postal_code":"23277","industry":"Business Services"},
{"id":"3fbbbd6c-f4a4-4767-8c1d-0d4da89a8b4a","name":"Ondricka-Prosacco","street_address":"679 Kennedy Crossing","city":"Colorado Springs","state":"CO","postal_code":"80920","industry":"Air Freight/Delivery Services"},
{"id":"1646de09-1b74-46b0-a8ef-ddec1a779ab6","name":"Welch, Monahan and Orn","street_address":"9 Comanche Junction","city":"Virginia Beach","state":"VA","postal_code":"23459","industry":"Homebuilding"},
{"id":"2c9a019e-f616-4c5e-b489-94aa1caaef6e","name":"Gorczany, Kiehn and Waters","street_address":"08 Lunder Avenue","city":"Greensboro","state":"NC","postal_code":"27404","industry":"Telecommunications Equipment"},
{"id":"dee002e2-9c55-4c1e-b0bb-b1c688b7b53a","name":"Hoeger, Herman and Funk","street_address":"70 Nova Plaza","city":"Cedar Rapids","state":"IA","postal_code":"52410","industry":"Home Furnishings"},
{"id":"d1a4ff36-5e49-4c24-92dc-bbf3461e79b6","name":"Rice Inc","street_address":"2 Susan Junction","city":"Bronx","state":"NY","postal_code":"10474","industry":"Biotechnology: In Vitro & In Vivo Diagnostic Substances"},
{"id":"5ce53a94-30ea-4ee6-b341-52c40ab62981","name":"Morissette-Waters","street_address":"2877 Stephen Center","city":"Garland","state":"TX","postal_code":"75049","industry":"Major Chemicals"},
{"id":"4fe578a4-5790-4305-a404-327bc5821680","name":"Klein-Schaden","street_address":"3 Fuller Alley","city":"Portland","state":"OR","postal_code":"97255","industry":"Major Pharmaceuticals"},
{"id":"9e9f306b-8035-4649-9680-1633b4d54827","name":"Emard and Sons","street_address":"72461 Miller Avenue","city":"Toledo","state":"OH","postal_code":"43610","industry":"Life Insurance"},
{"id":"5790b70e-e076-486d-be0a-6ec3ff74e828","name":"Bradtke LLC","street_address":"761 Moose Junction","city":"Kingsport","state":"TN","postal_code":"37665","industry":"Natural Gas Distribution"},
{"id":"5da14a1c-f519-4977-a17c-85b3c2ed3653","name":"Batz-Sauer","street_address":"54564 Hermina Avenue","city":"Albany","state":"NY","postal_code":"12227","industry":"Major Pharmaceuticals"},
{"id":"453a6e6a-7dcd-469f-85c7-c8deff6de7ef","name":"Johns-Aufderhar","street_address":"459 Dottie Point","city":"Indianapolis","state":"IN","postal_code":"46254","industry":"Savings Institutions"},
{"id":"b8eab759-4979-49e1-8341-3aded3d00322","name":"Bahringer and co LLC","street_address":"0929 Meadow Vale Court","city":"Minneapolis","state":"MN","postal_code":"55470","industry":"Computer Software: Programming, Data Processing"},
{"id":"03160c57-9027-43f5-aa6e-1a22a8e14eb4","name":"Wehner and Sons","street_address":"3 Fair Oaks Terrace","city":"Rockford","state":"IL","postal_code":"61105","industry":"Major Pharmaceuticals"},
{"id":"54ba9d04-065e-4cd3-949b-50ea95d45a64","name":"Gleichner-Wiegand","street_address":"4230 Buell Point","city":"Simi Valley","state":"CA","postal_code":"93094","industry":"Industrial Machinery/Components"},
{"id":"d9edeb9b-6d21-474a-9cad-566076ec37c6","name":"Hettinger Group","street_address":"74190 Bonner Terrace","city":"Denver","state":"CO","postal_code":"80217","industry":"Electric Utilities: Central"},
{"id":"d2658e0d-7833-46c8-b8bd-4ddadd2cc95b","name":"Carroll Group","street_address":"0 Division Terrace","city":"Washington","state":"DC","postal_code":"20591","industry":"Industrial Machinery/Components"},
{"id":"f814bef7-9340-4d0b-8035-980774ca7cea","name":"Smith Inc","street_address":"6783 Clemons Drive","city":"Boise","state":"ID","postal_code":"83705","industry":"Major Pharmaceuticals"},
{"id":"1ecb2315-170e-43fd-b3ca-b2f3359dd8f0","name":"Beahan Group","street_address":"4139 Hudson Plaza","city":"San Jose","state":"CA","postal_code":"95194","industry":"Investment Managers"},
{"id":"1ec7d0c6-9b1f-450f-818e-3ce1b84137aa","name":"Abshire, Cole and Ondricka","street_address":"69 Jay Parkway","city":"Los Angeles","state":"CA","postal_code":"90094","industry":"Major Banks"},
{"id":"96fff64f-86ee-4908-866c-50cab85b7d4f","name":"Bogisich, Bogisich and Jenkins","street_address":"10 Esker Parkway","city":"Jackson","state":"TN","postal_code":"38308","industry":"n/a"},
{"id":"98cb5d44-2b63-4a08-8091-b0fa00d9377e","name":"Pouros and Sons","street_address":"7452 Porter Street","city":"Chattanooga","state":"TN","postal_code":"37410","industry":"Oil Refining/Marketing"},
{"id":"52fd4084-1d80-4079-a5ef-883610e79ee4","name":"Smith-Volkman","street_address":"886 Twin Pines Plaza","city":"High Point","state":"NC","postal_code":"27264","industry":"n/a"},
{"id":"913620c1-b9f9-4375-89e7-5f7f108b22f7","name":"Heathcote-Marks","street_address":"360 Basil Hill","city":"Pensacola","state":"FL","postal_code":"32590","industry":"Major Banks"},
{"id":"c6f94321-eed9-4898-b465-a72df09fa163","name":"Muller-Reynolds","street_address":"8849 Holmberg Park","city":"Sunnyvale","state":"CA","postal_code":"94089","industry":"n/a"},
{"id":"c674cee4-4714-42c1-8a89-045b3579c433","name":"Nader-Cole","street_address":"9698 Sachtjen Center","city":"Portland","state":"OR","postal_code":"97296","industry":"Major Banks"},
{"id":"bef991fc-0175-4037-9c73-2afd9e5adebc","name":"Robel-Leuschke","street_address":"711 Vermont Road","city":"Las Vegas","state":"NV","postal_code":"89193","industry":"Semiconductors"},
{"id":"aae2d5e9-6c56-4d23-80ba-8012062c814c","name":"Rice-Hilll","street_address":"0454 Rowland Pass","city":"Albuquerque","state":"NM","postal_code":"87105","industry":"n/a"},
{"id":"2ca4387d-15cf-4343-9e62-9618901181d7","name":"Marvin LLC","street_address":"87612 Arrowood Pass","city":"Terre Haute","state":"IN","postal_code":"47812","industry":"Precious Metals"},
{"id":"a0392d25-5086-42d6-9797-327a28ca3eb5","name":"Davis Inc","street_address":"09 Katie Center","city":"Bethlehem","state":"PA","postal_code":"18018","industry":"Electric Utilities: Central"},
{"id":"b5836261-3e03-4aa2-9348-98f5316ffedc","name":"Walsh LLC","street_address":"17273 Carpenter Place","city":"Washington","state":"DC","postal_code":"20370","industry":"Shoe Manufacturing"},
{"id":"ad4f2d17-fdd5-405f-926f-52d04b7023a8","name":"Kemmer, Thompson and Von","street_address":"168 Cherokee Circle","city":"San Francisco","state":"CA","postal_code":"94110","industry":"Clothing/Shoe/Accessory Stores"},
{"id":"cd937810-cc5c-4950-901a-5708eb8e29ff","name":"Skiles-Macejkovic","street_address":"653 Hazelcrest Avenue","city":"Fort Worth","state":"TX","postal_code":"76121","industry":"Biotechnology: Commercial Physical & Biological Resarch"},
{"id":"9c3c46fb-5273-45cb-9f2e-11ed1f6297ed","name":"Zboncak, Boyle and Fay","street_address":"15 Mendota Road","city":"Mobile","state":"AL","postal_code":"36605","industry":"Telecommunications Equipment"},
{"id":"55e270b2-86c4-4a0b-89f1-5ed9cb07d9e7","name":"Schmitt-Kshlerin","street_address":"05 Summerview Road","city":"Gainesville","state":"FL","postal_code":"32605","industry":"Commercial Banks"},
{"id":"8ac7590c-2876-4848-a638-c9f94c96e57e","name":"Oberbrunner-Reilly","street_address":"4 John Wall Trail","city":"Boise","state":"ID","postal_code":"83705","industry":"Business Services"},
{"id":"2bd6eba2-a901-44f1-92e5-54ace1f4a1e7","name":"Senger, Larson and Schinner","street_address":"87 Waywood Circle","city":"Kingsport","state":"TN","postal_code":"37665","industry":"n/a"},
{"id":"24b24706-ae2a-4d38-86a9-0300a2139c5b","name":"Hoeger, Cole and Lesch","street_address":"344 Shopko Park","city":"Minneapolis","state":"MN","postal_code":"55428","industry":"Semiconductors"},
{"id":"0ef3b1f6-961d-4178-be55-73fb6d0e4061","name":"Dietrich-Schaefer","street_address":"0039 Arapahoe Road","city":"Englewood","state":"CO","postal_code":"80150","industry":"Investment Managers"},
{"id":"d2aa0659-4d4c-4419-8cf8-b63da8c8d78b","name":"Zboncak-Schmitt","street_address":"318 Butternut Way","city":"Waterbury","state":"CT","postal_code":"06705","industry":"Restaurants"},
{"id":"9616fbf5-5bca-4171-8efc-fdf17034de5c","name":"Paucek, Wiza and Farrell","street_address":"07 Becker Terrace","city":"Washington","state":"DC","postal_code":"20051","industry":"Services-Misc. Amusement & Recreation"},
{"id":"cd7cf64a-7eef-4396-be28-bcd7e30ecb35","name":"Wisoky-Bergstrom","street_address":"9729 Grasskamp Road","city":"Milwaukee","state":"WI","postal_code":"53210","industry":"Computer Software: Prepackaged Software"},
{"id":"91ede96d-04be-42c3-a41a-d9d694cb49f4","name":"Miller Group","street_address":"95 Farragut Drive","city":"Savannah","state":"GA","postal_code":"31410","industry":"Farming/Seeds/Milling"},
{"id":"f904f58e-d0d3-42eb-b0d7-1f913c98a977","name":"Gerlach, Stokes and Hickle","street_address":"97 Garrison Point","city":"Birmingham","state":"AL","postal_code":"35225","industry":"Metal Fabrications"},
{"id":"65d6da8d-8421-41ed-96b9-e8e799a513b4","name":"Olson-Tremblay","street_address":"4 Oak Center","city":"Chicago","state":"IL","postal_code":"60669","industry":"Major Banks"},
{"id":"cf21241e-4aa9-4c43-ae06-3a1544da3b64","name":"Schuster, Jerde and Cremin","street_address":"7 Bunker Hill Trail","city":"Bronx","state":"NY","postal_code":"10474","industry":"n/a"},
{"id":"59c0900a-fc57-4713-961b-c4e9494adcdf","name":"Kautzer, Borer and McLaughlin","street_address":"810 Marcy Crossing","city":"Wilkes Barre","state":"PA","postal_code":"18706","industry":"Banks"},
{"id":"949f0750-8715-4bf6-a64d-7470075f19df","name":"Ernser LLC","street_address":"6 Randy Lane","city":"Las Vegas","state":"NV","postal_code":"89160","industry":"Food Distributors"},
{"id":"d68ba5e2-7bfb-4061-ac96-088dedc6fcb1","name":"Bode-Luettgen","street_address":"13 Melby Hill","city":"Roanoke","state":"VA","postal_code":"24020","industry":"Business Services"},
{"id":"6beffd40-5d3f-4fac-a56a-268cc0cfd029","name":"Langosh, Walter and Doyle","street_address":"8403 Truax Alley","city":"Waco","state":"TX","postal_code":"76705","industry":"Military/Government/Technical"},
{"id":"64179010-329f-41f7-8b85-70559f5777ce","name":"Bergstrom-Schaden","street_address":"29 Chinook Parkway","city":"Denver","state":"CO","postal_code":"80255","industry":"Real Estate Investment Trusts"},
{"id":"4a795f18-06db-44d0-9f23-1a9371d47ace","name":"Witting LLC","street_address":"7492 Atwood Pass","city":"Detroit","state":"MI","postal_code":"48232","industry":"n/a"},
{"id":"cc7b1889-844d-434b-a20a-fbbb203bc894","name":"Conn, Sporer and Cartwright","street_address":"261 Utah Parkway","city":"Sacramento","state":"CA","postal_code":"94273","industry":"Industrial Machinery/Components"},
{"id":"9f575c91-46d4-40a7-a74b-4988ff704f3b","name":"Bahringer LLC","street_address":"79658 Paget Center","city":"Chicago","state":"IL","postal_code":"60646","industry":"n/a"},
{"id":"4ad61b0d-9013-4819-bead-35a8650b7707","name":"Smith, Windler and Hartmann","street_address":"356 Homewood Junction","city":"Arlington","state":"VA","postal_code":"22217","industry":"n/a"},
{"id":"c6e700f5-e6db-4145-8bcb-da613fa9450e","name":"Waters, Kris and Smitham","street_address":"9 Anniversary Avenue","city":"San Diego","state":"CA","postal_code":"92145","industry":"Building Materials"},
{"id":"940b2667-f85e-4cc1-866f-deab4720c8ec","name":"Wintheiser, Kunze and Borer","street_address":"351 Luster Street","city":"Ocala","state":"FL","postal_code":"34479","industry":"Advertising"},
{"id":"68c8d9fd-4656-404c-b3b0-bc73bfdb668c","name":"Thompson-Padberg","street_address":"335 Lunder Parkway","city":"Dallas","state":"TX","postal_code":"75353","industry":"n/a"},
{"id":"2d273919-70d2-4063-ba3a-08bb36ce5c24","name":"Williamson-Goyette","street_address":"1 Division Center","city":"Santa Fe","state":"NM","postal_code":"87592","industry":"Investment Bankers/Brokers/Service"},
{"id":"8f6f8d0b-fe16-4172-aa2b-e22e790488da","name":"O'Connell LLC","street_address":"800 Cambridge Street","city":"Richmond","state":"VA","postal_code":"23260","industry":"Oil Refining/Marketing"},
{"id":"1386a894-bf53-4eca-9ceb-aefa0c168d5c","name":"Mosciski, Murphy and Legros","street_address":"10704 Del Sol Court","city":"Jackson","state":"MS","postal_code":"39282","industry":"n/a"},
{"id":"36126307-49c2-4da4-a87e-191bbfa26112","name":"Towne-Mante","street_address":"0 Debra Trail","city":"Norwalk","state":"CT","postal_code":"06859","industry":"Real Estate Investment Trusts"},
{"id":"0a4e1e86-87f7-4a6e-aa08-492ec32c1123","name":"Wuckert, Rice and Ziemann","street_address":"71 Daystar Center","city":"Seattle","state":"WA","postal_code":"98175","industry":"Biotechnology: Biological Products (No Diagnostic Substances)"},
{"id":"a4d53285-da9a-454e-b273-242e6db8948c","name":"Rohan LLC","street_address":"5 Homewood Plaza","city":"Spokane","state":"WA","postal_code":"99215","industry":"Business Services"},
{"id":"8c2d00b7-f62b-4a6b-bb3f-917fe7d9a852","name":"Swaniawski and Sons","street_address":"7258 Muir Court","city":"El Paso","state":"TX","postal_code":"88541","industry":"Major Banks"},
{"id":"b289dfb4-e48e-4917-a68d-c9a88a957978","name":"Hirthe-Trantow","street_address":"098 Warbler Circle","city":"Houston","state":"TX","postal_code":"77060","industry":"Major Pharmaceuticals"},
{"id":"4b8929e1-1217-4534-9aea-8c2519d75253","name":"Hettinger, Mante and Ledner","street_address":"0089 Ronald Regan Alley","city":"Saint Louis","state":"MO","postal_code":"63104","industry":"Semiconductors"},
{"id":"699fa489-2c3f-4b66-8b4d-b86d696d7480","name":"Botsford, Jacobi and Jones","street_address":"0117 Dexter Avenue","city":"Des Moines","state":"IA","postal_code":"50362","industry":"Computer Software: Prepackaged Software"},
{"id":"96d92651-6b3e-4502-ad2c-47f661c58153","name":"Rolfson-Mann","street_address":"896 Colorado Trail","city":"Tampa","state":"FL","postal_code":"33673","industry":"Industrial Machinery/Components"},
{"id":"5d8c97f8-0965-4ce0-ba82-972adc0a9066","name":"Bins Group","street_address":"98663 Michigan Terrace","city":"Los Angeles","state":"CA","postal_code":"90030","industry":"Oil & Gas Production"},
{"id":"3680627a-d832-4b49-afc5-9645da7dd4ed","name":"Berge and Sons","street_address":"04 South Road","city":"Denver","state":"CO","postal_code":"80235","industry":"n/a"},
{"id":"278bb7e3-1edb-4cc7-9430-8ffff105bed6","name":"Schamberger-Brakus","street_address":"1 Dexter Hill","city":"Washington","state":"DC","postal_code":"20005","industry":"Power Generation"},
{"id":"999e2cc6-d742-46ac-858e-7843266db244","name":"Schaden-Upton","street_address":"62497 Golf View Trail","city":"Houston","state":"TX","postal_code":"77040","industry":"n/a"},
{"id":"bd6f6ed3-14a6-41a8-9930-3a52f1d45aea","name":"Marquardt-Spinka","street_address":"13038 Summer Ridge Street","city":"Hartford","state":"CT","postal_code":"06183","industry":"Biotechnology: Biological Products (No Diagnostic Substances)"},
{"id":"216af9a0-7620-4303-8786-444f7f34ee17","name":"Schimmel-Smitham","street_address":"4771 Ridgeway Parkway","city":"Winston Salem","state":"NC","postal_code":"27157","industry":"Real Estate Investment Trusts"},
{"id":"254c103c-c88c-4d95-a946-f073438ea93f","name":"Cassin Group","street_address":"8 Cardinal Hill","city":"Staten Island","state":"NY","postal_code":"10310","industry":"EDP Services"},
{"id":"10ebe62f-4a0d-4002-9a0b-2810245ad809","name":"Emard Inc","street_address":"4266 Elka Pass","city":"Greensboro","state":"NC","postal_code":"27499","industry":"Major Pharmaceuticals"},
{"id":"b8916636-2626-4b06-b413-01313b21ca3b","name":"Prohaska-Feeney","street_address":"9 Anderson Park","city":"Washington","state":"DC","postal_code":"20414","industry":"n/a"},
{"id":"e68b0fca-87ac-4237-afea-b202b1852c31","name":"Terry, Feeney and Keeling","street_address":"29696 Menomonie Center","city":"Scranton","state":"PA","postal_code":"18505","industry":"Major Banks"},
{"id":"40a83276-8e05-437d-941a-7b4e373dcdbb","name":"Konopelski Inc","street_address":"5486 Ramsey Terrace","city":"Honolulu","state":"HI","postal_code":"96825","industry":"Military/Government/Technical"},
{"id":"ee656259-683f-4f4b-805f-7b718576c03b","name":"Tromp-Abbott","street_address":"35268 Golf Hill","city":"Virginia Beach","state":"VA","postal_code":"23459","industry":"Power Generation"},
{"id":"fa30133a-e723-4f2e-941d-0be0e1af4279","name":"Altenwerth, Anderson and Russel","street_address":"6 Crest Line Plaza","city":"Raleigh","state":"NC","postal_code":"27658","industry":"n/a"},
{"id":"772d6bd9-8b5e-45e5-9d60-ac55627c9d8b","name":"Weissnat, Schuppe and Dickinson","street_address":"6157 Morrow Street","city":"Norfolk","state":"VA","postal_code":"23504","industry":"Industrial Specialties"},
{"id":"216602a1-032f-4a0c-8e01-84e32d3d9e26","name":"Feest Inc","street_address":"64228 Anderson Way","city":"Amarillo","state":"TX","postal_code":"79188","industry":"Real Estate Investment Trusts"},
{"id":"c1d86f3d-5a90-479f-82f3-4b143d23780a","name":"Parker LLC","street_address":"9884 Brentwood Circle","city":"Albany","state":"NY","postal_code":"12232","industry":"Integrated oil Companies"},
{"id":"9ad3389a-7dad-4424-bde0-c14a1c074c91","name":"Torphy, Runolfsdottir and Rau","street_address":"54604 Sutteridge Drive","city":"Macon","state":"GA","postal_code":"31205","industry":"Business Services"},
{"id":"5eb82ade-60f7-44a6-b10f-48f5f32ca19b","name":"Quigley Inc","street_address":"13 Veith Road","city":"Mobile","state":"AL","postal_code":"36605","industry":"Biotechnology: Biological Products (No Diagnostic Substances)"},
{"id":"3fdd7929-6a67-4504-986f-2d611311ff26","name":"Spencer, Koch and Sawayn","street_address":"67801 Eliot Lane","city":"Colorado Springs","state":"CO","postal_code":"80995","industry":"Metal Fabrications"},
{"id":"1b608ada-8664-4887-aeb8-286849de6bb2","name":"Auer, Schumm and Balistreri","street_address":"22875 Hollow Ridge Drive","city":"Asheville","state":"NC","postal_code":"28805","industry":"Biotechnology: Biological Products (No Diagnostic Substances)"},
{"id":"ff75326e-87c4-44ef-b820-b743b215d4f6","name":"Bahringer, Smith and Schimmel","street_address":"02650 Arizona Center","city":"Chicago","state":"IL","postal_code":"60652","industry":"Marine Transportation"},
{"id":"5b79784a-bfd5-4ad4-bfe5-d1baa6648a6a","name":"Parker-Osinski","street_address":"3 Luster Alley","city":"Richmond","state":"VA","postal_code":"23213","industry":"Meat/Poultry/Fish"},
{"id":"b0985d33-918f-4b41-9b77-d12eb4b238f3","name":"Bednar, Koch and Cormier","street_address":"27 Blackbird Center","city":"El Paso","state":"TX","postal_code":"88519","industry":"n/a"},
{"id":"c28854b8-4d3b-4c39-9e04-c71e3a40ea7c","name":"Bartell-Davis","street_address":"027 Sachs Alley","city":"Garden Grove","state":"CA","postal_code":"92645","industry":"Fluid Controls"},
{"id":"9db99faf-e718-4b17-885b-651c3900d856","name":"Cremin-Gottlieb","street_address":"19 Kennedy Junction","city":"Corpus Christi","state":"TX","postal_code":"78426","industry":"Aerospace"},
{"id":"9ed974d1-5fda-4c3d-a1cb-59c37c4d17e8","name":"Cole, Morar and Bailey","street_address":"97495 Twin Pines Street","city":"San Mateo","state":"CA","postal_code":"94405","industry":"Specialty Insurers"},
{"id":"e029094b-a834-48d0-8224-9ccf9ceb4205","name":"Ward, Koch and Zieme","street_address":"8748 Debra Drive","city":"Austin","state":"TX","postal_code":"78703","industry":"EDP Services"},
{"id":"465b3eaa-4f79-46fe-afd6-12ee4fd869bf","name":"DuBuque-Stokes","street_address":"7 Sheridan Place","city":"Lima","state":"OH","postal_code":"45807","industry":"Medical/Dental Instruments"},
{"id":"249bab04-1e2f-48c7-b6de-b35ce1e5bf98","name":"Jacobson and Sons","street_address":"07131 Marcy Center","city":"Oklahoma City","state":"OK","postal_code":"73173","industry":"n/a"},
{"id":"e9eaf086-ed90-4ca0-ad8a-64c53509c71e","name":"Grady and Sons","street_address":"9863 Acker Junction","city":"San Francisco","state":"CA","postal_code":"94126","industry":"n/a"},
{"id":"b4766f87-3980-4d2c-b4cf-0715c1ba77c3","name":"Bogan, Spinka and Gutkowski","street_address":"938 Sundown Road","city":"Miami","state":"FL","postal_code":"33245","industry":"n/a"},
{"id":"d161edb6-0c32-4349-bb55-24fd1c7364ea","name":"Hauck-Bradtke","street_address":"32907 Debs Pass","city":"Miami","state":"FL","postal_code":"33233","industry":"Restaurants"},
{"id":"19f09174-e4e2-4579-9a21-05d8b5b29fa7","name":"Moen and Sons","street_address":"9 Corben Drive","city":"Norfolk","state":"VA","postal_code":"23520","industry":"Major Banks"},
{"id":"cef51001-1a76-4767-b951-09eb0c60acaf","name":"Turcotte, Nicolas and Beatty","street_address":"17639 Dakota Hill","city":"Flushing","state":"NY","postal_code":"11388","industry":"n/a"},
{"id":"b41fe4ce-9b83-4b56-95ca-678e9a844ea7","name":"Kris Group","street_address":"191 Talmadge Place","city":"San Jose","state":"CA","postal_code":"95128","industry":"Industrial Machinery/Components"},
{"id":"6ae7744a-5049-42f5-85b9-dee580b5a666","name":"Terry Group","street_address":"047 Luster Avenue","city":"San Diego","state":"CA","postal_code":"92160","industry":"n/a"},
{"id":"3bc96a87-0f57-4f30-b6b6-228c851a44a5","name":"Nikolaus Group","street_address":"16 La Follette Crossing","city":"Portland","state":"OR","postal_code":"97286","industry":"EDP Services"},
{"id":"79737987-73fd-402c-aab2-eeb2b7adf31b","name":"Macejkovic Inc","street_address":"4554 Shelley Way","city":"New Haven","state":"CT","postal_code":"06538","industry":"Paper"},
{"id":"0a349431-18d9-4290-8fcf-3fdebdbb20ea","name":"Harber LLC","street_address":"27 Upham Lane","city":"Oceanside","state":"CA","postal_code":"92056","industry":"n/a"},
{"id":"2dc9a075-2462-40a4-a4b0-45aba7f1ebfa","name":"Purdy, Fay and Armstrong","street_address":"9445 Jay Circle","city":"Philadelphia","state":"PA","postal_code":"19146","industry":"n/a"},
{"id":"23c15fe4-7d9d-4492-98c9-7c52046ba30e","name":"Bayer-Hodkiewicz","street_address":"73 Stephen Street","city":"New York City","state":"NY","postal_code":"10280","industry":"Semiconductors"},
{"id":"5d6f5ecd-8300-4612-b2ff-e6d5282b47cb","name":"Walsh-Brekke","street_address":"7 Helena Road","city":"Lansing","state":"MI","postal_code":"48919","industry":"Computer Software: Prepackaged Software"},
{"id":"9a945fdd-13c7-48ba-9ef1-9b7017cf14c3","name":"Schmitt and Sons","street_address":"127 Rieder Point","city":"Jeffersonville","state":"IN","postal_code":"47134","industry":"Computer Software: Programming, Data Processing"},
{"id":"a26bee6b-6783-4f30-b2aa-969a1193aab0","name":"Wolff, Sporer and Haley","street_address":"94406 Oneill Street","city":"Madison","state":"WI","postal_code":"53726","industry":"Biotechnology: Biological Products (No Diagnostic Substances)"},
{"id":"2e46dd7f-c0e6-4f92-b56a-287e12fa83db","name":"Rempel, DuBuque and Sawayn","street_address":"49 Hooker Pass","city":"Harrisburg","state":"PA","postal_code":"17110","industry":"Computer Software: Prepackaged Software"},
{"id":"b531cb31-de9b-45a7-a6c3-fa8d98447922","name":"Schultz-Altenwerth","street_address":"9060 South Junction","city":"Peoria","state":"AZ","postal_code":"85383","industry":"Major Pharmaceuticals"},
{"id":"018506c0-4548-4dc6-b2b1-adc21d0ea000","name":"O'Hara and Sons","street_address":"5522 3rd Circle","city":"Seattle","state":"WA","postal_code":"98140","industry":"Homebuilding"},
{"id":"f1c025da-b8be-4553-8921-8f8d78f822ec","name":"Wisozk Inc","street_address":"5 Carey Plaza","city":"Orlando","state":"FL","postal_code":"32825","industry":"Major Pharmaceuticals"},
{"id":"3fd4b94b-d76f-48a1-a68c-60da3eadd0d6","name":"Schmeler, Schimmel and Moen","street_address":"70 Badeau Trail","city":"Wilkes Barre","state":"PA","postal_code":"18706","industry":"Other Consumer Services"},
{"id":"86808609-f69d-4b6f-ac9c-453f3b962475","name":"Moen-Harvey","street_address":"397 Anderson Parkway","city":"Houston","state":"TX","postal_code":"77085","industry":"n/a"},
{"id":"9bdd293b-fd75-4153-af52-2f5f01fd9674","name":"Gibson, Considine and Paucek","street_address":"1467 Waxwing Alley","city":"Buffalo","state":"NY","postal_code":"14225","industry":"n/a"},
{"id":"05e1c3e3-cd8c-4bdc-abeb-df090f4a4f76","name":"Harvey, Tromp and Boyle","street_address":"4 Pankratz Center","city":"Washington","state":"DC","postal_code":"20231","industry":"Multi-Sector Companies"},
{"id":"5ede0c50-3d75-40b4-9242-d321d71abf86","name":"Schultz and Sons","street_address":"1203 Loftsgordon Place","city":"Greensboro","state":"NC","postal_code":"27455","industry":"Major Banks"},
{"id":"03884b91-9c66-4e05-b82d-0ac4de5becd7","name":"Hand Inc","street_address":"942 Norway Maple Plaza","city":"Honolulu","state":"HI","postal_code":"96825","industry":"n/a"},
{"id":"780f557d-6623-4ab8-bf6e-633c6ca48b6a","name":"Gerlach-Bergstrom","street_address":"51254 Springs Trail","city":"Charleston","state":"WV","postal_code":"25326","industry":"Natural Gas Distribution"},
{"id":"b811b94e-dc1f-4244-9619-fd23a6614a9f","name":"Schuppe-Wintheiser","street_address":"9635 Colorado Parkway","city":"Seattle","state":"WA","postal_code":"98109","industry":"Major Banks"},
{"id":"bd64f8c6-8d03-4fe8-9918-31ba09c56a46","name":"Kris-Rippin","street_address":"88197 Kropf Lane","city":"Houston","state":"TX","postal_code":"77050","industry":"n/a"},
{"id":"3e56846e-c1ba-4463-a198-cc09c5b54522","name":"Botsford-Brakus","street_address":"23964 Coleman Circle","city":"Atlanta","state":"GA","postal_code":"31136","industry":"Construction/Ag Equipment/Trucks"},
{"id":"d79aeb8d-ccfa-4285-bf68-2b42c576fd1f","name":"Renner-Dibbert","street_address":"5403 Schlimgen Point","city":"Anniston","state":"AL","postal_code":"36205","industry":"Industrial Machinery/Components"},
{"id":"5f8b8ae7-fb16-41f3-8dd2-8187e7696e71","name":"Champlin, Kunde and Swift","street_address":"0211 Fallview Street","city":"Simi Valley","state":"CA","postal_code":"93094","industry":"n/a"},
{"id":"42e497a6-8f9d-4a0b-885c-33c1a90524fa","name":"Smitham, Rice and Mayert","street_address":"4 Blackbird Place","city":"San Diego","state":"CA","postal_code":"92176","industry":"n/a"},
{"id":"c2f9703c-dc00-4631-b88f-c3663bae86a6","name":"Balistreri, Torp and Hermann","street_address":"886 5th Drive","city":"Cumming","state":"GA","postal_code":"30130","industry":"n/a"},
{"id":"e32b3783-b6a8-4996-848d-ce3f16531a78","name":"Barrows, Sanford and Ratke","street_address":"908 Hintze Circle","city":"Santa Barbara","state":"CA","postal_code":"93106","industry":"Military/Government/Technical"},
{"id":"98f2397c-9850-4f59-a9b5-43e35a293de8","name":"Sporer LLC","street_address":"4 Golden Leaf Center","city":"Roanoke","state":"VA","postal_code":"24048","industry":"Savings Institutions"},
{"id":"6dc7f3f2-9751-49d2-a2c5-fba012b90718","name":"Wunsch, Wyman and Murray","street_address":"37 Rigney Center","city":"Kingsport","state":"TN","postal_code":"37665","industry":"n/a"},
{"id":"15ac33f7-7b84-4911-924b-6bcdb2527f0b","name":"Smitham-Hackett","street_address":"8 Summerview Avenue","city":"Washington","state":"DC","postal_code":"20310","industry":"Major Banks"},
{"id":"d437c7ea-f11c-45f7-9fe6-1e91cfd9efd6","name":"Graham and Sons","street_address":"46 Weeping Birch Plaza","city":"San Diego","state":"CA","postal_code":"92165","industry":"EDP Services"},
{"id":"2386d21e-ae59-4e99-afdd-8fb63800367f","name":"Prosacco-Ziemann","street_address":"15839 Delaware Pass","city":"Athens","state":"GA","postal_code":"30605","industry":"Major Chemicals"},
{"id":"d705e6b9-5f22-4e8e-8872-3d1464e54b80","name":"Keeling-Bode","street_address":"36739 Roxbury Circle","city":"Washington","state":"DC","postal_code":"20005","industry":"n/a"},
{"id":"469f0728-7d0f-47ef-b7a7-3c0dc142ab6e","name":"Torp-Volkman","street_address":"1735 Heffernan Hill","city":"Boston","state":"MA","postal_code":"02109","industry":"Trucking Freight/Courier Services"},
{"id":"9c66f46a-47a0-4b73-bb94-65d53f8bed67","name":"Jacobson, Will and Haag","street_address":"21049 Rowland Avenue","city":"Austin","state":"TX","postal_code":"78764","industry":"n/a"},
{"id":"c3b9f513-23a5-41ad-9c8b-25571334cc83","name":"Wilderman-Hagenes","street_address":"52 Thackeray Avenue","city":"Chicago","state":"IL","postal_code":"60657","industry":"Radio And Television Broadcasting And Communications Equipment"},
{"id":"220ed4e9-b7a6-4713-ac0f-a9c06b63872a","name":"Rolfson, Wilderman and Welch","street_address":"72925 Northfield Terrace","city":"Dallas","state":"TX","postal_code":"75246","industry":"n/a"},
{"id":"36dac6fd-9fcc-4abb-bb48-93ba77bd80f7","name":"Kilback, Kris and Lebsack","street_address":"71 Bunting Court","city":"Wichita","state":"KS","postal_code":"67205","industry":"Biotechnology: Commercial Physical & Biological Resarch"},
{"id":"a9ad1c74-dc56-4061-ba8e-c01299dc9967","name":"Kovacek, Hammes and Jakubowski","street_address":"40 Clarendon Lane","city":"Savannah","state":"GA","postal_code":"31410","industry":"Major Pharmaceuticals"},
{"id":"5e88294f-79bb-47a0-be3e-bdc4efc98e77","name":"Wuckert and Sons","street_address":"442 Ilene Drive","city":"Young America","state":"MN","postal_code":"55551","industry":"Oil & Gas Production"},
{"id":"b0d4b921-95d9-4ae8-9095-17dc6e6ff043","name":"Koelpin-Torp","street_address":"7 Starling Court","city":"Jeffersonville","state":"IN","postal_code":"47134","industry":"Computer Software: Prepackaged Software"},
{"id":"89893541-c790-4e47-afdb-ee62a6c8d046","name":"Batz and Sons","street_address":"5 Northwestern Court","city":"Lees Summit","state":"MO","postal_code":"64082","industry":"Other Specialty Stores"},
{"id":"11835e67-679c-4430-9276-1267e901690b","name":"Mosciski Group","street_address":"0628 Stoughton Street","city":"Stockton","state":"CA","postal_code":"95219","industry":"Telecommunications Equipment"},
{"id":"1382d355-99c9-4621-8dc8-454182ba9923","name":"Hyatt Group","street_address":"14063 Lakewood Gardens Point","city":"Detroit","state":"MI","postal_code":"48275","industry":"Computer Software: Prepackaged Software"},
{"id":"73d3effc-88a8-478d-85a4-3b3dbe9de6ec","name":"O'Keefe Brothers","street_address":"58 Spaight Plaza","city":"Corpus Christi","state":"TX","postal_code":"78415","industry":"Telecommunications Equipment"},
{"id":"d8926e9e-a0bc-4573-bc8f-52248596a903","name":"Runolfsson-D'Amore","street_address":"89 Londonderry Park","city":"Norfolk","state":"VA","postal_code":"23551","industry":"Biotechnology: Biological Products (No Diagnostic Substances)"},
{"id":"d9396c61-6731-46a3-9f5c-88fc76f5f260","name":"Koelpin Group","street_address":"96301 Starling Trail","city":"Harrisburg","state":"PA","postal_code":"17105","industry":"Medical/Dental Instruments"},
{"id":"edde998f-774b-44c9-a33d-a6b46e9eaea8","name":"Jast, Baumbach and O'Reilly","street_address":"99 Tony Avenue","city":"Baltimore","state":"MD","postal_code":"21211","industry":"n/a"},
{"id":"abf5399d-8d9d-400d-96a7-8a1099e324d2","name":"Bednar-Senger","street_address":"6706 Milwaukee Pass","city":"New Orleans","state":"LA","postal_code":"70149","industry":"Semiconductors"},
{"id":"e7dcbfbe-6b23-4743-8f88-a1e5423dc4ab","name":"Boyle and Sons","street_address":"695 Lakeland Pass","city":"Chicago","state":"IL","postal_code":"60681","industry":"Computer Software: Prepackaged Software"},
{"id":"5a816809-61be-444f-9f75-60fbb698630e","name":"Bayer LLC","street_address":"5011 Sachs Place","city":"Spartanburg","state":"SC","postal_code":"29305","industry":"Services-Misc. Amusement & Recreation"},
{"id":"30ef1b24-ed2e-48e3-8a2a-f09b8de3652d","name":"Frami-Heller","street_address":"8 Bashford Court","city":"Jacksonville","state":"FL","postal_code":"32204","industry":"Semiconductors"},
{"id":"72264f20-fa9a-4bdb-a978-766c696445f5","name":"Halvorson, Hoppe and Howell","street_address":"5269 Lakeland Center","city":"Worcester","state":"MA","postal_code":"01654","industry":"n/a"},
{"id":"bccc4645-c5ce-4cb1-8f59-57306a599094","name":"Ankunding-Turner","street_address":"6126 Cottonwood Center","city":"Saint Joseph","state":"MO","postal_code":"64504","industry":"Major Banks"},
{"id":"57b3d2c2-d305-4b69-8f2a-5ba9b254240d","name":"Olson and Sons","street_address":"0843 Jenifer Avenue","city":"Chicago","state":"IL","postal_code":"60624","industry":"Major Pharmaceuticals"},
{"id":"1e0b8072-e385-4261-a9b7-4e7b8c0d574b","name":"Bosco, Mueller and Medhurst","street_address":"083 Forster Place","city":"Detroit","state":"MI","postal_code":"48217","industry":"Real Estate Investment Trusts"},
{"id":"379ab4ac-3ccb-45eb-9fed-55ecf04b7032","name":"Hahn Group","street_address":"28 Buhler Pass","city":"Shawnee Mission","state":"KS","postal_code":"66276","industry":"Savings Institutions"},
{"id":"81628749-66fe-4d64-abd8-8df6a0664e70","name":"Jones Inc","street_address":"3 Brown Hill","city":"Hollywood","state":"FL","postal_code":"33023","industry":"Hotels/Resorts"},
{"id":"ffc53ef1-a678-4b66-858e-5250bbe8c969","name":"Gerhold and Sons","street_address":"32260 Forest Plaza","city":"Indianapolis","state":"IN","postal_code":"46231","industry":"n/a"},
{"id":"0ee7c692-f7ca-4025-b17a-1acc5a187781","name":"Pouros Group","street_address":"85200 Merrick Place","city":"Montpelier","state":"VT","postal_code":"05609","industry":"n/a"},
{"id":"8dc8af7c-2beb-42bc-8d51-56e028f493ac","name":"Franecki, Baumbach and Kautzer","street_address":"2 Muir Way","city":"Huntsville","state":"TX","postal_code":"77343","industry":"Engineering & Construction"},
{"id":"49a2cb19-2995-45fc-9e2d-e6b9028b2b75","name":"Kunden and Sons","street_address":"10 Service Parkway","city":"Huntsville","state":"AL","postal_code":"35815","industry":"Savings Institutions"},
{"id":"4b5583bb-f8cd-4d6f-9e15-f3d52c0ac877","name":"Abernathy and Sons","street_address":"0883 Truax Lane","city":"Santa Clara","state":"CA","postal_code":"95054","industry":"n/a"},
{"id":"cc6c05c4-94d7-49e5-9061-93697cbfe347","name":"Breitenberg Inc","street_address":"52924 Surrey Avenue","city":"Philadelphia","state":"PA","postal_code":"19196","industry":"RETAIL: Building Materials"},
{"id":"4f035b24-0791-44ab-a13b-d69f57d1ba23","name":"Runolfsdottir LLC","street_address":"01 Magdeline Lane","city":"North Hollywood","state":"CA","postal_code":"91606","industry":"Industrial Machinery/Components"},
{"id":"0fe9d10e-b5a7-4d50-b7b7-a0f003c646b7","name":"Blanda-Heaney","street_address":"362 Thackeray Hill","city":"Boise","state":"ID","postal_code":"83732","industry":"Telecommunications Equipment"},
{"id":"101e3d29-103a-4450-ba8b-bb67562c5ec3","name":"Lowe, King and Jakubowski","street_address":"62574 Kennedy Terrace","city":"Austin","state":"TX","postal_code":"78783","industry":"Major Banks"},
{"id":"7e8a1bdf-d0d0-44a2-98cf-0c9500d77c13","name":"Walker-Bednar","street_address":"7060 Randy Road","city":"Omaha","state":"NE","postal_code":"68164","industry":"Property-Casualty Insurers"},
{"id":"270b08fb-4d1f-4715-a79f-f86f9934f480","name":"Lowe, Romaguera and Wilderman","street_address":"0320 Hoepker Trail","city":"Des Moines","state":"IA","postal_code":"50936","industry":"Department/Specialty Retail Stores"},
{"id":"7b6b6c14-21cb-4ef1-87c3-44bccfbcabd0","name":"Padberg-Jacobs","street_address":"88769 Chive Center","city":"El Paso","state":"TX","postal_code":"88569","industry":"Major Chemicals"},
{"id":"781fcaa9-3acb-4d9b-aff2-02d35597c715","name":"Schulists LLC","street_address":"182 Glendale Road","city":"Seattle","state":"WA","postal_code":"98115","industry":"n/a"},
{"id":"197e5658-943e-4e63-841d-7925679140ca","name":"Douglas-Howell","street_address":"93 Schlimgen Alley","city":"Pueblo","state":"CO","postal_code":"81015","industry":"Plastic Products"},
{"id":"099a7949-a59a-4327-937f-aad9576121d8","name":"Strosin Group","street_address":"54507 Mendota Junction","city":"Winston Salem","state":"NC","postal_code":"27150","industry":"n/a"},
{"id":"dbd1cbe7-c9fa-40f4-bc2a-d3369a9daef3","name":"Mills and Sons","street_address":"3 Ridgeway Avenue","city":"Santa Monica","state":"CA","postal_code":"90410","industry":"Broadcasting"},
{"id":"05df5f58-551a-4819-95ea-4b086b77ba3c","name":"Kulas Group","street_address":"87460 Pepper Wood Crossing","city":"Richmond","state":"VA","postal_code":"23203","industry":"Telecommunications Equipment"},
{"id":"ca9ac87c-e629-43c1-91d1-8b17970f3ce7","name":"Labadie-Monahan","street_address":"706 Homewood Way","city":"Portland","state":"OR","postal_code":"97255","industry":"n/a"},
{"id":"36fa03b7-6a6a-4304-aaf6-c5f48e7972f9","name":"Wisozk, Konopelski and Weissnat","street_address":"6884 Moland Junction","city":"Arlington","state":"VA","postal_code":"22217","industry":"Computer Software: Programming, Data Processing"},
{"id":"fd17b41a-b705-4742-94d4-d356553f98b6","name":"Barrows Inc","street_address":"59 Melrose Trail","city":"Augusta","state":"GA","postal_code":"30919","industry":"Steel/Iron Ore"},
{"id":"0b007e15-8f72-43cb-bb06-9fb949ed9b38","name":"Rippin, Huel and Shanahan","street_address":"453 Carpenter Center","city":"Sacramento","state":"CA","postal_code":"95828","industry":"n/a"}]